facility_id,organisation_name,facility_name,province,city,address,postal_code,npri_id,2011_ghg_emissions_kilotonnes_of_carbon_dioxide_equivalent,facility_ghg_data_link,naics_name,naics_data_link,latitude,longitude
3,Foothills Pipe Lines Ltd.,"Foothills Pipeline, Alberta",Alberta,Airdrie,SW-19-028-26-W4,T4A2G7,,261.47,http://www.ec.gc.ca/ges-ghg/donnees-data/index.cfm?do=facility_info&amp;lang=En&amp;year=2011&amp;ghg_id=G10003,Pipeline Transportation of Natural Gas,http://stds.statcan.gc.ca/naics-scian/2007/cs-rc-eng.asp?criteria=486210,0.00000000,0.00000000
6,Agrium Inc.,Redwater Fertilizer Operations,Alberta,Redwater,16 km east of Gibbons on Hwy 643,T0A2W0,2134,1185.01,http://www.ec.gc.ca/ges-ghg/donnees-data/index.cfm?do=facility_info&amp;lang=En&amp;year=2011&amp;ghg_id=G10006,Chemical Fertilizer (except Potash) Manufacturing,http://stds.statcan.gc.ca/naics-scian/2007/cs-rc-eng.asp?criteria=325313,53.84160000,-113.09790000
7,Alberta Envirofuels,Alberta Envirofuels,Alberta,Edmonton,9511 17th Street,T6P1Y3,3974,239.84,http://www.ec.gc.ca/ges-ghg/donnees-data/index.cfm?do=facility_info&amp;lang=En&amp;year=2011&amp;ghg_id=G10007,Other Basic Organic Chemical Manufacturing,http://stds.statcan.gc.ca/naics-scian/2007/cs-rc-eng.asp?criteria=325190,53.53199300,-113.36492500
8,Alliance Pipeline Ltd.,Alliance Pipeline Ltd. - AB Pipeline System,Alberta,Calgary,800 605 5th Avenue Southwest,T2P3H5,,545.28,http://www.ec.gc.ca/ges-ghg/donnees-data/index.cfm?do=facility_info&amp;lang=En&amp;year=2011&amp;ghg_id=G10008,Pipeline Transportation of Natural Gas,http://stds.statcan.gc.ca/naics-scian/2007/cs-rc-eng.asp?criteria=486210,0.00000000,0.00000000
9,Alberta-Pacific Forest Industries Inc.,Alberta-Pacific Forest Industries Inc.,Alberta,County of Athabasca,SW-32-068-19-W4,T0A0M0,1,120.03,http://www.ec.gc.ca/ges-ghg/donnees-data/index.cfm?do=facility_info&amp;lang=En&amp;year=2011&amp;ghg_id=G10009,Chemical Pulp Mills,http://stds.statcan.gc.ca/naics-scian/2007/cs-rc-eng.asp?criteria=322112,54.92311600,-112.86186700
15,ATCO Gas and Pipelines Ltd.,ATCO Pipelines,Alberta,Edmonton,7210 42 Street Northwest,T6B3H1,,158.13,http://www.ec.gc.ca/ges-ghg/donnees-data/index.cfm?do=facility_info&amp;lang=En&amp;year=2011&amp;ghg_id=G10015,Pipeline Transportation of Natural Gas,http://stds.statcan.gc.ca/naics-scian/2007/cs-rc-eng.asp?criteria=486210,0.00000000,0.00000000
17,Nexen Inc.,Balzac Gas Plant,Alberta,Balzac,10-02-026-29-W4,T0M0E0,1902,64.03,http://www.ec.gc.ca/ges-ghg/donnees-data/index.cfm?do=facility_info&amp;lang=En&amp;year=2011&amp;ghg_id=G10017,Conventional Oil and Gas Extraction,http://stds.statcan.gc.ca/naics-scian/2007/cs-rc-eng.asp?criteria=211113,51.19130000,-113.94090000
18,Alberta Power (2000) Ltd.,Battle River Generating Station,Alberta,Forestburg,Box 498; SW1/4-29-040-15-W4,T0B1N0,1033,5146.00,http://www.ec.gc.ca/ges-ghg/donnees-data/index.cfm?do=facility_info&amp;lang=En&amp;year=2011&amp;ghg_id=G10018,Fossil-Fuel Electric Power Generation,http://stds.statcan.gc.ca/naics-scian/2007/cs-rc-eng.asp?criteria=221112,52.56470000,-112.14140000
29,Blaze Energy Ltd.,Brazeau Gas Plant,Alberta,Drayton Valley,04-31-048-12-W5,T7A1P8,3749,134.12,http://www.ec.gc.ca/ges-ghg/donnees-data/index.cfm?do=facility_info&amp;lang=En&amp;year=2011&amp;ghg_id=G10029,Conventional Oil and Gas Extraction,http://stds.statcan.gc.ca/naics-scian/2007/cs-rc-eng.asp?criteria=211113,53.18120000,-115.76250000
30,Keyera Corp,Brazeau River Gas Plant,Alberta,Drayton Valley,03-12-046-14-W5M,T7A1S5,1362,67.02,http://www.ec.gc.ca/ges-ghg/donnees-data/index.cfm?do=facility_info&amp;lang=En&amp;year=2011&amp;ghg_id=G10030,Conventional Oil and Gas Extraction,http://stds.statcan.gc.ca/naics-scian/2007/cs-rc-eng.asp?criteria=211113,52.95930000,-115.89380000
40,Calgary Energy Centre No. 2 Inc.,Calgary Energy Centre,Alberta,Calgary,14417 68 Street Northeast,T3N1C6,15740,445.66,http://www.ec.gc.ca/ges-ghg/donnees-data/index.cfm?do=facility_info&amp;lang=En&amp;year=2011&amp;ghg_id=G10040,Fossil-Fuel Electric Power Generation,http://stds.statcan.gc.ca/naics-scian/2007/cs-rc-eng.asp?criteria=221112,51.21590000,-114.00500000
44,Canadian Fertilizers Limited,Canadian Fertilizers Limited,Alberta,Medicine Hat,1250 52nd Street Northwest,T1A7R9,3821,1637.98,http://www.ec.gc.ca/ges-ghg/donnees-data/index.cfm?do=facility_info&amp;lang=En&amp;year=2011&amp;ghg_id=G10044,Chemical Fertilizer (except Potash) Manufacturing,http://stds.statcan.gc.ca/naics-scian/2007/cs-rc-eng.asp?criteria=325313,50.08660000,-110.71670000
45,Cancarb Ltd.,Cancarb Ltd.,Alberta,Medicine Hat,1702 Brier Park Crescent Northwest,T1C1T9,5357,137.45,http://www.ec.gc.ca/ges-ghg/donnees-data/index.cfm?do=facility_info&amp;lang=En&amp;year=2011&amp;ghg_id=G10045,All Other Basic Inorganic Chemical Manufacturing,http://stds.statcan.gc.ca/naics-scian/2007/cs-rc-eng.asp?criteria=325189,50.05820000,-110.72820000
46,Nova Gas Transmission Ltd.,"TransCanada Pipeline, Alberta System",Alberta,Fairview,05-23-081-26-W5,T0H1L0,,1792.43,http://www.ec.gc.ca/ges-ghg/donnees-data/index.cfm?do=facility_info&amp;lang=En&amp;year=2011&amp;ghg_id=G10046,Pipeline Transportation of Natural Gas,http://stds.statcan.gc.ca/naics-scian/2007/cs-rc-eng.asp?criteria=486210,0.00000000,0.00000000
49,Cenovus Energy,Caribou North Compressor Station,Alberta,Bonnyville,11-08-070-04-W4,T9N2H4,16687,36.21,http://www.ec.gc.ca/ges-ghg/donnees-data/index.cfm?do=facility_info&amp;lang=En&amp;year=2011&amp;ghg_id=G10049,Conventional Oil and Gas Extraction,http://stds.statcan.gc.ca/naics-scian/2007/cs-rc-eng.asp?criteria=211113,55.04730000,-110.57780000
53,Agrium Inc.,Carseland Nitrogen Operations,Alberta,Carseland,5 Miles West of Carseland,T0J0M0,3269,560.24,http://www.ec.gc.ca/ges-ghg/donnees-data/index.cfm?do=facility_info&amp;lang=En&amp;year=2011&amp;ghg_id=G10053,Chemical Fertilizer (except Potash) Manufacturing,http://stds.statcan.gc.ca/naics-scian/2007/cs-rc-eng.asp?criteria=325313,50.84580000,-113.58670000
54,TransCanada Energy Ltd.,Carseland Power Plant,Alberta,Carseland,15-06-022-26-W4,T0J 0M0,6700,318.87,http://www.ec.gc.ca/ges-ghg/donnees-data/index.cfm?do=facility_info&amp;lang=En&amp;year=2011&amp;ghg_id=G10054,Fossil-Fuel Electric Power Generation,http://stds.statcan.gc.ca/naics-scian/2007/cs-rc-eng.asp?criteria=221112,50.84700000,-113.59100000
55,Orica Canada Inc.,Carseland Works,Alberta,Carseland,24 Highway,T0J0M0,2857,377.95,http://www.ec.gc.ca/ges-ghg/donnees-data/index.cfm?do=facility_info&amp;lang=En&amp;year=2011&amp;ghg_id=G10055,Chemical Fertilizer (except Potash) Manufacturing,http://stds.statcan.gc.ca/naics-scian/2007/cs-rc-eng.asp?criteria=325313,50.84820000,-113.58240000
58,EnCana Corporation,Cavalier Power Plant,Alberta,Strathmore,NE-16-32-023-23-W4,T1P1K3,6633,197.14,http://www.ec.gc.ca/ges-ghg/donnees-data/index.cfm?do=facility_info&amp;lang=En&amp;year=2011&amp;ghg_id=G10058,Fossil-Fuel Electric Power Generation,http://stds.statcan.gc.ca/naics-scian/2007/cs-rc-eng.asp?criteria=221112,51.00690000,-113.19280000
65,"Cenovus FCCL Ltd., as operator for FCCL Partnership",Christina Lake SAGD Bitumen Battery,Alberta,Lac La Biche,08-17-076-06-W4,T0P1J0,6625,455.35,http://www.ec.gc.ca/ges-ghg/donnees-data/index.cfm?do=facility_info&amp;lang=En&amp;year=2011&amp;ghg_id=G10065,Non-Conventional Oil Extraction,http://stds.statcan.gc.ca/naics-scian/2007/cs-rc-eng.asp?criteria=211114,55.58270000,-110.88880000
68,City of Medicine Hat,Electric Utility - Generation,Alberta,Medicine Hat,0 1502 Powerhouse Road,T1A8E6,6576,329.45,http://www.ec.gc.ca/ges-ghg/donnees-data/index.cfm?do=facility_info&amp;lang=En&amp;year=2011&amp;ghg_id=G10068,Fossil-Fuel Electric Power Generation,http://stds.statcan.gc.ca/naics-scian/2007/cs-rc-eng.asp?criteria=221112,50.04110000,-110.72220000
69,Capital Power (Alberta) Limited Partnership,Clover Bar Energy Centre,Alberta,Edmonton,1515 130th Avenue,T6S1E3,23368,196.40,http://www.ec.gc.ca/ges-ghg/donnees-data/index.cfm?do=facility_info&amp;lang=En&amp;year=2011&amp;ghg_id=G10069,Fossil-Fuel Electric Power Generation,http://stds.statcan.gc.ca/naics-scian/2007/cs-rc-eng.asp?criteria=221112,53.58740000,-113.36470000
71,Inter Pipeline Extraction Ltd.,Cochrane Extraction Plant,Alberta,Cochrane,NE1/4 16-026-04 W5M,T4C1A4,5248,464.52,http://www.ec.gc.ca/ges-ghg/donnees-data/index.cfm?do=facility_info&amp;lang=En&amp;year=2011&amp;ghg_id=G10071,Conventional Oil and Gas Extraction,http://stds.statcan.gc.ca/naics-scian/2007/cs-rc-eng.asp?criteria=211113,51.22250000,-114.49560000
73,Imperial Oil Resources,Cold Lake,Alberta,Grande Centre,11-04-065-03-W4,T0A1T0,442,4588.19,http://www.ec.gc.ca/ges-ghg/donnees-data/index.cfm?do=facility_info&amp;lang=En&amp;year=2011&amp;ghg_id=G10073,Non-Conventional Oil Extraction,http://stds.statcan.gc.ca/naics-scian/2007/cs-rc-eng.asp?criteria=211114,54.59640000,-110.39500000
86,ATCO Gas and Pipelines Ltd.,ATCO Gas - Distribution Systems,Alberta,Edmonton,10035 105 Street Northwest,T5J 2V6,15437,145.66,http://www.ec.gc.ca/ges-ghg/donnees-data/index.cfm?do=facility_info&amp;lang=En&amp;year=2011&amp;ghg_id=G10086,Natural Gas Distribution,http://stds.statcan.gc.ca/naics-scian/2007/cs-rc-eng.asp?criteria=221210,51.48870000,-113.15390000
95,City of Calgary,East Calgary Landfill,Alberta,Calgary,1827 68 Street Southeast,T2E2N1,19090,74.49,http://www.ec.gc.ca/ges-ghg/donnees-data/index.cfm?do=facility_info&amp;lang=En&amp;year=2011&amp;ghg_id=G10095,Waste Treatment and Disposal,http://stds.statcan.gc.ca/naics-scian/2007/cs-rc-eng.asp?criteria=562210,57.30200000,-122.14060000
96,TAQA NORTH Ltd.,East Crossfield Gas Plant 9-14-28-1W5,Alberta,Crossfield,9-14-28-1W5,T0M0S0,4140,106.03,http://www.ec.gc.ca/ges-ghg/donnees-data/index.cfm?do=facility_info&amp;lang=En&amp;year=2011&amp;ghg_id=G10096,Conventional Oil and Gas Extraction,http://stds.statcan.gc.ca/naics-scian/2007/cs-rc-eng.asp?criteria=211113,51.40010000,-114.03430000
98,Suncor Energy Products Partnership,Edmonton Refinery,Alberta,Edmonton,801 Petroleum Way,T8H2G2,3903,1306.42,http://www.ec.gc.ca/ges-ghg/donnees-data/index.cfm?do=facility_info&amp;lang=En&amp;year=2011&amp;ghg_id=G10098,Petroleum Refineries,http://stds.statcan.gc.ca/naics-scian/2007/cs-rc-eng.asp?criteria=324110,53.55050000,-113.35890000
100,Talisman Energy,Edson Gas Plant,Alberta,Edson,"Lat 53.55790, Long -116.54030",T7E 1V2,5284,230.71,http://www.ec.gc.ca/ges-ghg/donnees-data/index.cfm?do=facility_info&amp;lang=En&amp;year=2011&amp;ghg_id=G10100,Conventional Oil and Gas Extraction,http://stds.statcan.gc.ca/naics-scian/2007/cs-rc-eng.asp?criteria=211113,53.55750000,-116.54720000
106,ConocoPhillips Canada (BRC) Partnership,Elmworth Gas Plant,Alberta,Elmworth,01-08-070-11-W6,T0H1J0,23956,206.94,http://www.ec.gc.ca/ges-ghg/donnees-data/index.cfm?do=facility_info&amp;lang=En&amp;year=2011&amp;ghg_id=G10106,Conventional Oil and Gas Extraction,http://stds.statcan.gc.ca/naics-scian/2007/cs-rc-eng.asp?criteria=211113,55.04150000,-119.63100000
108,Spectra Energy Empress LP,Empress Straddle Gas Plant,Alberta,Cypress County,NE1/4-11-020-01-W4,T1A7N2,3752,349.91,http://www.ec.gc.ca/ges-ghg/donnees-data/index.cfm?do=facility_info&amp;lang=En&amp;year=2011&amp;ghg_id=G10108,Conventional Oil and Gas Extraction,http://stds.statcan.gc.ca/naics-scian/2007/cs-rc-eng.asp?criteria=211113,50.80530000,-110.03490000
111,Graymont Western Canada Inc.,Exshaw Plant,Alberta,Exshaw,1A Highway,T0L2C0,6826,142.30,http://www.ec.gc.ca/ges-ghg/donnees-data/index.cfm?do=facility_info&amp;lang=En&amp;year=2011&amp;ghg_id=G10111,Lime Manufacturing,http://stds.statcan.gc.ca/naics-scian/2007/cs-rc-eng.asp?criteria=327410,51.06820000,-115.13640000
112,Lafarge Canada Inc.,Exshaw Cement Plant,Alberta,Exshaw,1A Highway,T0L2C0,5291,952.23,http://www.ec.gc.ca/ges-ghg/donnees-data/index.cfm?do=facility_info&amp;lang=En&amp;year=2011&amp;ghg_id=G10112,Cement Manufacturing,http://stds.statcan.gc.ca/naics-scian/2007/cs-rc-eng.asp?criteria=327310,51.05890000,-115.17450000
119,Sherritt International Corporation,Fort Saskatchewan,Alberta,Fort Saskatchewan,10101 - 114th Street,T8L2T3,2132,303.20,http://www.ec.gc.ca/ges-ghg/donnees-data/index.cfm?do=facility_info&amp;lang=En&amp;year=2011&amp;ghg_id=G10119,Non-Ferrous Metal (except Aluminum) Smelting and Refining,http://stds.statcan.gc.ca/naics-scian/2007/cs-rc-eng.asp?criteria=331410,53.72170000,-113.19170000
120,TransAlta Generation Partnership,Fort Saskatchewan Thermal Electric(Cogeneration) Power Plant,Alberta,Fort Saskatchewan,"P.O. Bag 16, Highway 15",T8L2P4,5352,375.26,http://www.ec.gc.ca/ges-ghg/donnees-data/index.cfm?do=facility_info&amp;lang=En&amp;year=2011&amp;ghg_id=G10120,Fossil-Fuel Electric Power Generation,http://stds.statcan.gc.ca/naics-scian/2007/cs-rc-eng.asp?criteria=221112,53.72350000,-113.17380000
121,Agrium Inc.,Fort Saskatchewan Nitrogen Operations,Alberta,Fort Saskatchewan,11751 River Road,T8L4J1,4874,596.00,http://www.ec.gc.ca/ges-ghg/donnees-data/index.cfm?do=facility_info&amp;lang=En&amp;year=2011&amp;ghg_id=G10121,Chemical Fertilizer (except Potash) Manufacturing,http://stds.statcan.gc.ca/naics-scian/2007/cs-rc-eng.asp?criteria=325313,53.72540000,-113.19300000
122,BP Canada Energy Company,Fort Saskatchewan Storage and Fractionation,Alberta,Fort Saskatchewan,11010 125 Street,T8L2T2,4142,64.43,http://www.ec.gc.ca/ges-ghg/donnees-data/index.cfm?do=facility_info&amp;lang=En&amp;year=2011&amp;ghg_id=G10122,Conventional Oil and Gas Extraction,http://stds.statcan.gc.ca/naics-scian/2007/cs-rc-eng.asp?criteria=211113,53.75750000,-113.14990000
125,MEGlobal Canada Inc.,Fort Saskatchewan EOEG,Alberta,Fort Saskatchewan,Highway 15,T8L2P4,18996,61.76,http://www.ec.gc.ca/ges-ghg/donnees-data/index.cfm?do=facility_info&amp;lang=En&amp;year=2011&amp;ghg_id=G10125,Other Basic Organic Chemical Manufacturing,http://stds.statcan.gc.ca/naics-scian/2007/cs-rc-eng.asp?criteria=325190,53.73750000,-113.14900000
127,Capital Power Generation Services Inc.,Genesee Thermal Generating Station,Alberta,Warburg,50444 Highway 770,T0C2T0,267,9387.15,http://www.ec.gc.ca/ges-ghg/donnees-data/index.cfm?do=facility_info&amp;lang=En&amp;year=2011&amp;ghg_id=G10127,Fossil-Fuel Electric Power Generation,http://stds.statcan.gc.ca/naics-scian/2007/cs-rc-eng.asp?criteria=221112,53.34400000,-114.30500000
130,Weyerhaeuser Company Limited,Grande Prairie Operations,Alberta,Grande Prairie,10 km SE on Resources Road,T8V3A9,2875,127.49,http://www.ec.gc.ca/ges-ghg/donnees-data/index.cfm?do=facility_info&amp;lang=En&amp;year=2011&amp;ghg_id=G10130,Chemical Pulp Mills,http://stds.statcan.gc.ca/naics-scian/2007/cs-rc-eng.asp?criteria=322112,55.07120000,-118.69120000
132,Milner Power Limited Partnership by its GP Milner Power Inc.,H.R.Milner Generating Station,Alberta,Grande Cache,40 Highway North,T0E0Y0,1039,1034.98,http://www.ec.gc.ca/ges-ghg/donnees-data/index.cfm?do=facility_info&amp;lang=En&amp;year=2011&amp;ghg_id=G10132,Fossil-Fuel Electric Power Generation,http://stds.statcan.gc.ca/naics-scian/2007/cs-rc-eng.asp?criteria=221112,54.00710000,-119.10400000
134,Japan Canada Oil Sands Limited,Hangingstone SAGD Demonstration Facility,Alberta,RM of Wood Buffalo,                                                                                 ,T9H3G2,17122,255.74,http://www.ec.gc.ca/ges-ghg/donnees-data/index.cfm?do=facility_info&amp;lang=En&amp;year=2011&amp;ghg_id=G10134,Non-Conventional Oil Extraction,http://stds.statcan.gc.ca/naics-scian/2007/cs-rc-eng.asp?criteria=211114,56.31320000,-111.63620000
135,Suncor Energy Oil and Gas Partnership,Hanlan Robb Gas Plant,Alberta,Edson,PO Box 6480,T7E1T8,3758,281.78,http://www.ec.gc.ca/ges-ghg/donnees-data/index.cfm?do=facility_info&amp;lang=En&amp;year=2011&amp;ghg_id=G10135,Conventional Oil and Gas Extraction,http://stds.statcan.gc.ca/naics-scian/2007/cs-rc-eng.asp?criteria=211113,53.20450000,-116.81120000
137,Taylor Processing Inc.,Harmattan Gas Processing Plant,Alberta,Didsbury,09-27-031-04-W5,T0M0W0,3941,356.02,http://www.ec.gc.ca/ges-ghg/donnees-data/index.cfm?do=facility_info&amp;lang=En&amp;year=2011&amp;ghg_id=G10137,Conventional Oil and Gas Extraction,http://stds.statcan.gc.ca/naics-scian/2007/cs-rc-eng.asp?criteria=211113,51.69690000,-114.47500000
143,TransAlta Generation Partnership,Highvale Coal Mine,Alberta,Seba Beach,4425 Sundance Road,T0E2B0,21885,207.87,http://www.ec.gc.ca/ges-ghg/donnees-data/index.cfm?do=facility_info&amp;lang=En&amp;year=2011&amp;ghg_id=G10143,Subbituminous Coal Mining,http://stds.statcan.gc.ca/naics-scian/2007/cs-rc-eng.asp?criteria=212115,53.49170000,-114.58170000
144,West Fraser Mills Ltd.,Hinton Pulp,Alberta,Hinton,760 Switzer Drive,T7V1V7,2991,145.65,http://www.ec.gc.ca/ges-ghg/donnees-data/index.cfm?do=facility_info&amp;lang=En&amp;year=2011&amp;ghg_id=G10144,Chemical Pulp Mills,http://stds.statcan.gc.ca/naics-scian/2007/cs-rc-eng.asp?criteria=322112,53.41330000,-117.57060000
152,INEOS Canada Partnership,Joffre LAO Plant,Alberta,Joffre,SW-32-038-25-W4,T4N5H3,6556,138.86,http://www.ec.gc.ca/ges-ghg/donnees-data/index.cfm?do=facility_info&amp;lang=En&amp;year=2011&amp;ghg_id=G10152,Petrochemical Manufacturing,http://stds.statcan.gc.ca/naics-scian/2007/cs-rc-eng.asp?criteria=325110,52.21240000,-113.84370000
155,Pengrowth Energy Corporation,Judy Creek Gas Conservation Plant,Alberta,Swan Hills,15-25-064-11 W5M,T0G2C0,440,50.85,http://www.ec.gc.ca/ges-ghg/donnees-data/index.cfm?do=facility_info&amp;lang=En&amp;year=2011&amp;ghg_id=G10155,Conventional Oil and Gas Extraction,http://stds.statcan.gc.ca/naics-scian/2007/cs-rc-eng.asp?criteria=211113,54.57230000,-115.52290000
156,Pengrowth Energy Corporation,Judy Creek Production Complex,Alberta,Swan Hills,11-06-064-10 W5M,T0G2C0,4566,31.75,http://www.ec.gc.ca/ges-ghg/donnees-data/index.cfm?do=facility_info&amp;lang=En&amp;year=2011&amp;ghg_id=G10156,Conventional Oil and Gas Extraction,http://stds.statcan.gc.ca/naics-scian/2007/cs-rc-eng.asp?criteria=211113,54.51090000,-115.51170000
158,Canadian Natural Resources Limited,Karr Gas Plant,Alberta,MD of Greenview,10-10-065-02-W6,T8V3R5,15928,75.30,http://www.ec.gc.ca/ges-ghg/donnees-data/index.cfm?do=facility_info&amp;lang=En&amp;year=2011&amp;ghg_id=G10158,Conventional Oil and Gas Extraction,http://stds.statcan.gc.ca/naics-scian/2007/cs-rc-eng.asp?criteria=211113,54.61250000,-118.21430000
159,SemCams ULC,Kaybob Amalgamated Sour Gas Plant,Alberta,Fox Creek,01-12-062-20-W5,T0H1P0,4150,251.00,http://www.ec.gc.ca/ges-ghg/donnees-data/index.cfm?do=facility_info&amp;lang=En&amp;year=2011&amp;ghg_id=G10159,Conventional Oil and Gas Extraction,http://stds.statcan.gc.ca/naics-scian/2007/cs-rc-eng.asp?criteria=211113,54.42720000,-116.88430000
160,SemCams ULC,Kaybob South #3 Gas Plant,Alberta,Fox Creek,"11,14,15&22-059-18-W5",T0H1P0,683,403.97,http://www.ec.gc.ca/ges-ghg/donnees-data/index.cfm?do=facility_info&amp;lang=En&amp;year=2011&amp;ghg_id=G10160,Conventional Oil and Gas Extraction,http://stds.statcan.gc.ca/naics-scian/2007/cs-rc-eng.asp?criteria=211113,54.19440000,-116.63220000
162,TransAlta Generation Partnership,Keephills Thermal Electric Power Generating Plant,Alberta,Duffield,"Site 3, Box 1, RR1",T0E0N0,2286,7957.62,http://www.ec.gc.ca/ges-ghg/donnees-data/index.cfm?do=facility_info&amp;lang=En&amp;year=2011&amp;ghg_id=G10162,Fossil-Fuel Electric Power Generation,http://stds.statcan.gc.ca/naics-scian/2007/cs-rc-eng.asp?criteria=221112,53.44870000,-114.44910000
176,"Lehigh Cement, a Division of Lehigh Hanson Materials Ltd.",Edmonton Plant,Alberta,Edmonton,12640 Inland Way,T5V1K2,5243,800.19,http://www.ec.gc.ca/ges-ghg/donnees-data/index.cfm?do=facility_info&amp;lang=En&amp;year=2011&amp;ghg_id=G10176,Cement Manufacturing,http://stds.statcan.gc.ca/naics-scian/2007/cs-rc-eng.asp?criteria=327310,53.58160000,-113.59910000
179,TransCanada Energy Ltd.,MacKay River Power Plant,Alberta,Fort McMurray,NW-05-093-12-W4,T9H3G6,19219,851.60,http://www.ec.gc.ca/ges-ghg/donnees-data/index.cfm?do=facility_info&amp;lang=En&amp;year=2011&amp;ghg_id=G10179,Fossil-Fuel Electric Power Generation,http://stds.statcan.gc.ca/naics-scian/2007/cs-rc-eng.asp?criteria=221112,56.66670000,-111.34510000
180,Suncor Energy Oil Sands Limited Partnership,"MacKay River, In-Situ Oil Sands Plant",Alberta,Fort McMurray,NW-05-093-12-W412-5-93-12-W4,T9H3G6,17630,110.03,http://www.ec.gc.ca/ges-ghg/donnees-data/index.cfm?do=facility_info&amp;lang=En&amp;year=2011&amp;ghg_id=G10180,Non-Conventional Oil Extraction,http://stds.statcan.gc.ca/naics-scian/2007/cs-rc-eng.asp?criteria=211114,57.04250000,-111.90500000
187,Syncrude Canada Ltd.,Mildred Lake and Aurora North Plant Sites,Alberta,Fort McMurray,Mildred Lake N 57o 2' 27 W 111o 36' 57,T9H3L1,2274,12860.28,http://www.ec.gc.ca/ges-ghg/donnees-data/index.cfm?do=facility_info&amp;lang=En&amp;year=2011&amp;ghg_id=G10187,Non-Conventional Oil Extraction,http://stds.statcan.gc.ca/naics-scian/2007/cs-rc-eng.asp?criteria=211114,57.04050000,-111.61920000
196,ATCO Power Canada Ltd.,Muskeg River Cogeneration Plant,Alberta,Fort McMurray,PO Box 5670,T9H4W1,6647,1225.35,http://www.ec.gc.ca/ges-ghg/donnees-data/index.cfm?do=facility_info&amp;lang=En&amp;year=2011&amp;ghg_id=G10196,Fossil-Fuel Electric Power Generation,http://stds.statcan.gc.ca/naics-scian/2007/cs-rc-eng.asp?criteria=221112,57.35170000,-111.52220000
197,Shell Canada Energy,Shell Albian Sands Muskeg River Mine,Alberta,Fort McMurray,23-095-10-W4,T9H4W1,6647,710.51,http://www.ec.gc.ca/ges-ghg/donnees-data/index.cfm?do=facility_info&amp;lang=En&amp;year=2011&amp;ghg_id=G10197,Non-Conventional Oil Extraction,http://stds.statcan.gc.ca/naics-scian/2007/cs-rc-eng.asp?criteria=211114,57.35170000,-111.52220000
202,Keyera Corp,Nevis Gas Plant,Alberta,Stettler,16-33-038-22-W4M,T0C2L0,5337,110.18,http://www.ec.gc.ca/ges-ghg/donnees-data/index.cfm?do=facility_info&amp;lang=En&amp;year=2011&amp;ghg_id=G10202,Conventional Oil and Gas Extraction,http://stds.statcan.gc.ca/naics-scian/2007/cs-rc-eng.asp?criteria=211113,52.32710000,-112.71830000
211,NOVA Chemicals Corporation,NOVA Chemicals Corporation (Joffre),Alberta,Red Deer,29/31/32-038-25-W4,T4N6A1,1779,2892.74,http://www.ec.gc.ca/ges-ghg/donnees-data/index.cfm?do=facility_info&amp;lang=En&amp;year=2011&amp;ghg_id=G10211,Petrochemical Manufacturing,http://stds.statcan.gc.ca/naics-scian/2007/cs-rc-eng.asp?criteria=325110,52.30830000,-113.55000000
219,Shell Canada Limited,Peace River Complex 5-21,Alberta,Peace River,05-21-085-18W5M,T8S1V1,2128,311.73,http://www.ec.gc.ca/ges-ghg/donnees-data/index.cfm?do=facility_info&amp;lang=En&amp;year=2011&amp;ghg_id=G10219,Non-Conventional Oil Extraction,http://stds.statcan.gc.ca/naics-scian/2007/cs-rc-eng.asp?criteria=211114,56.38060000,-116.79500000
220,Daishowa-Marubeni International Ltd-Peace River Pulp,Peace River Pulp Division,Alberta,MD of Northern Lights,11/13/24-085-21-W5,T8S1V7,223,105.05,http://www.ec.gc.ca/ges-ghg/donnees-data/index.cfm?do=facility_info&amp;lang=En&amp;year=2011&amp;ghg_id=G10220,Chemical Pulp Mills,http://stds.statcan.gc.ca/naics-scian/2007/cs-rc-eng.asp?criteria=322112,56.37720000,-117.17560000
232,MEGlobal Canada Inc.,Prentiss Chemical Manufacturing Facility,Alberta,Lacombe,Highway 597 and Prentiss Road Highway,T4N6N1,18997,137.43,http://www.ec.gc.ca/ges-ghg/donnees-data/index.cfm?do=facility_info&amp;lang=En&amp;year=2011&amp;ghg_id=G10232,Other Basic Organic Chemical Manufacturing,http://stds.statcan.gc.ca/naics-scian/2007/cs-rc-eng.asp?criteria=325190,52.94240000,-113.51110000
237,Imperial Oil Resources,Quirk Creek Gas Plant,Alberta,Millarville,02-04-021-04-W5,T0L1K0,426,132.20,http://www.ec.gc.ca/ges-ghg/donnees-data/index.cfm?do=facility_info&amp;lang=En&amp;year=2011&amp;ghg_id=G10237,Conventional Oil and Gas Extraction,http://stds.statcan.gc.ca/naics-scian/2007/cs-rc-eng.asp?criteria=211113,50.74770000,-114.49470000
241,ATCO Power Canada Ltd.,Rainbow Lake Cogeneration Power Plant (Units 4-5),Alberta,Rainbow Lake,Box 298,T0H2Y0,6609,275.31,http://www.ec.gc.ca/ges-ghg/donnees-data/index.cfm?do=facility_info&amp;lang=En&amp;year=2011&amp;ghg_id=G10241,Fossil-Fuel Electric Power Generation,http://stds.statcan.gc.ca/naics-scian/2007/cs-rc-eng.asp?criteria=221112,58.44710000,-119.23830000
242,Alberta Power (2000) Ltd.,Rainbow Lake Generating Station (Units 1-3),Alberta,Rainbow Lake,0 Box 298,T0H2Y0,6613,54.83,http://www.ec.gc.ca/ges-ghg/donnees-data/index.cfm?do=facility_info&amp;lang=En&amp;year=2011&amp;ghg_id=G10242,Fossil-Fuel Electric Power Generation,http://stds.statcan.gc.ca/naics-scian/2007/cs-rc-eng.asp?criteria=221112,58.46030000,-115.23830000
243,Husky Oil Operations Limited,Ram River,Alberta,Rocky Mountain House,06-02-037-10-W5,T4T1A7,407,452.92,http://www.ec.gc.ca/ges-ghg/donnees-data/index.cfm?do=facility_info&amp;lang=En&amp;year=2011&amp;ghg_id=G10243,Conventional Oil and Gas Extraction,http://stds.statcan.gc.ca/naics-scian/2007/cs-rc-eng.asp?criteria=211113,52.14630000,-115.33000000
246,TransCanada Energy Ltd.,Redwater Cogeneration Plant,Alberta,Redwater,16-01-056-22-W4,T0A2W0,6701,189.96,http://www.ec.gc.ca/ges-ghg/donnees-data/index.cfm?do=facility_info&amp;lang=En&amp;year=2011&amp;ghg_id=G10246,Fossil-Fuel Electric Power Generation,http://stds.statcan.gc.ca/naics-scian/2007/cs-rc-eng.asp?criteria=221112,53.81940000,-113.14190000
249,Keyera Corp,Rimbey Gas Plant,Alberta,Rimbey,02-05-044-01-W5,T0C2J0,1372,317.25,http://www.ec.gc.ca/ges-ghg/donnees-data/index.cfm?do=facility_info&amp;lang=En&amp;year=2011&amp;ghg_id=G10249,Conventional Oil and Gas Extraction,http://stds.statcan.gc.ca/naics-scian/2007/cs-rc-eng.asp?criteria=211113,52.75810000,-114.11160000
260,Shell Chemicals Canada Ltd,Scotford Chemical Plant,Alberta,"Fort Saskatchewan,Strathco",55520 Range 214 Road,T8L4A3,2963,324.16,http://www.ec.gc.ca/ges-ghg/donnees-data/index.cfm?do=facility_info&amp;lang=En&amp;year=2011&amp;ghg_id=G10260,Petrochemical Manufacturing,http://stds.statcan.gc.ca/naics-scian/2007/cs-rc-eng.asp?criteria=325110,53.80420000,-113.08240000
261,Air Liquide Canada Inc.,Scotford Complex,Alberta,Fort Saskatchewan,55522 RR#214 Road,T8L3T2,6219,447.42,http://www.ec.gc.ca/ges-ghg/donnees-data/index.cfm?do=facility_info&amp;lang=En&amp;year=2011&amp;ghg_id=G10261,Fossil-Fuel Electric Power Generation,http://stds.statcan.gc.ca/naics-scian/2007/cs-rc-eng.asp?criteria=221112,53.79910000,-113.08070000
262,Shell Canada Energy Limited,Scotford Upgrader and Upgrader Cogeneration,Alberta,Fort Saskatchewan,55522 Range 214 Road,T8L4A4,6546,2934.79,http://www.ec.gc.ca/ges-ghg/donnees-data/index.cfm?do=facility_info&amp;lang=En&amp;year=2011&amp;ghg_id=G10262,Non-Conventional Oil Extraction,http://stds.statcan.gc.ca/naics-scian/2007/cs-rc-eng.asp?criteria=211114,53.74070000,-113.02310000
265,Alberta Power (2000) Ltd.,Sheerness Generating Station,Alberta,Hanna,"NW-33/32-028-13-W4, Box 1540",T0J1P0,1036,5578.02,http://www.ec.gc.ca/ges-ghg/donnees-data/index.cfm?do=facility_info&amp;lang=En&amp;year=2011&amp;ghg_id=G10265,Fossil-Fuel Electric Power Generation,http://stds.statcan.gc.ca/naics-scian/2007/cs-rc-eng.asp?criteria=221112,51.53170000,-111.78610000
266,Shell Canada Limited,Shell Burnt Timber Gas Plant,Alberta,Sundre,"10-13-030-07-W5, Bag 4",T0M1X0,2781,184.65,http://www.ec.gc.ca/ges-ghg/donnees-data/index.cfm?do=facility_info&amp;lang=En&amp;year=2011&amp;ghg_id=G10266,Conventional Oil and Gas Extraction,http://stds.statcan.gc.ca/naics-scian/2007/cs-rc-eng.asp?criteria=211113,51.57080000,-114.85170000
267,Shell Canada Limited,Caroline Complex,Alberta,Caroline,12-35-034-06-W5,T0M0M0,2120,603.24,http://www.ec.gc.ca/ges-ghg/donnees-data/index.cfm?do=facility_info&amp;lang=En&amp;year=2011&amp;ghg_id=G10267,Conventional Oil and Gas Extraction,http://stds.statcan.gc.ca/naics-scian/2007/cs-rc-eng.asp?criteria=211113,51.96550000,-114.75360000
268,Shell Canada Limited,Jumping Pound Complex,Alberta,Calgary,NW-13-025-05-W5/SW-24-025-05-W5,T2P4V8,2119,234.17,http://www.ec.gc.ca/ges-ghg/donnees-data/index.cfm?do=facility_info&amp;lang=En&amp;year=2011&amp;ghg_id=G10268,Conventional Oil and Gas Extraction,http://stds.statcan.gc.ca/naics-scian/2007/cs-rc-eng.asp?criteria=211113,51.03960000,-114.55900000
269,Shell Canada Products,Shell Scotford Refinery,Alberta,Fort Saskatchewan,SE-31/SE-32/NE-30/NW-29-055-21-W4M,T8L3T2,2960,1103.22,http://www.ec.gc.ca/ges-ghg/donnees-data/index.cfm?do=facility_info&amp;lang=En&amp;year=2011&amp;ghg_id=G10269,Petroleum Refineries,http://stds.statcan.gc.ca/naics-scian/2007/cs-rc-eng.asp?criteria=324110,53.79590000,-113.09960000
277,Keyera Corp,Strachan Gas Plant,Alberta,Rocky Mountain House,11-35-037-09-W5,T4T1B5,1374,310.74,http://www.ec.gc.ca/ges-ghg/donnees-data/index.cfm?do=facility_info&amp;lang=En&amp;year=2011&amp;ghg_id=G10277,Conventional Oil and Gas Extraction,http://stds.statcan.gc.ca/naics-scian/2007/cs-rc-eng.asp?criteria=211113,52.22630000,-115.17700000
278,Imperial Oil,Strathcona Refinery,Alberta,Edmonton,Highway 16A & 34 Street,T6P1X7,3707,1479.14,http://www.ec.gc.ca/ges-ghg/donnees-data/index.cfm?do=facility_info&amp;lang=En&amp;year=2011&amp;ghg_id=G10278,Petroleum Refineries,http://stds.statcan.gc.ca/naics-scian/2007/cs-rc-eng.asp?criteria=324110,53.54170000,-113.39170000
281,TransAlta Generation Partnership,Sundance Thermal Electric Power Generating Plant,Alberta,Duffield,"Site 4, Box 1, RR1",T0E0N1,2284,11464.25,http://www.ec.gc.ca/ges-ghg/donnees-data/index.cfm?do=facility_info&amp;lang=En&amp;year=2011&amp;ghg_id=G10281,Fossil-Fuel Electric Power Generation,http://stds.statcan.gc.ca/naics-scian/2007/cs-rc-eng.asp?criteria=221112,53.50850000,-114.55710000
312,Devon Canada Corporation,Wapiti Gas Plant,Alberta,Grovedale,04-08-069-08-W6M,-,432,126.31,http://www.ec.gc.ca/ges-ghg/donnees-data/index.cfm?do=facility_info&amp;lang=En&amp;year=2011&amp;ghg_id=G10312,Conventional Oil and Gas Extraction,http://stds.statcan.gc.ca/naics-scian/2007/cs-rc-eng.asp?criteria=211113,54.95270000,-119.19530000
313,Shell Canada Limited,Waterton Complex,Alberta,Pincher Creek,400 4th Avenue Southwest,T0K1W0,2108,365.21,http://www.ec.gc.ca/ges-ghg/donnees-data/index.cfm?do=facility_info&amp;lang=En&amp;year=2011&amp;ghg_id=G10313,Conventional Oil and Gas Extraction,http://stds.statcan.gc.ca/naics-scian/2007/cs-rc-eng.asp?criteria=211113,49.30520000,-114.00030000
314,SemCams ULC,Windfall 8-17 GP,Alberta,Whitecourt,08-17-060-15-W5,T7S1P9,4138,34.70,http://www.ec.gc.ca/ges-ghg/donnees-data/index.cfm?do=facility_info&amp;lang=En&amp;year=2011&amp;ghg_id=G10314,Conventional Oil and Gas Extraction,http://stds.statcan.gc.ca/naics-scian/2007/cs-rc-eng.asp?criteria=211113,54.18540000,-116.21040000
316,Dow Chemical Canada ULC,Western Canada Operations,Alberta,Fort Saskatchewan,Highway 15,T8L2P4,280,1426.31,http://www.ec.gc.ca/ges-ghg/donnees-data/index.cfm?do=facility_info&amp;lang=En&amp;year=2011&amp;ghg_id=G10316,Other Basic Organic Chemical Manufacturing,http://stds.statcan.gc.ca/naics-scian/2007/cs-rc-eng.asp?criteria=325190,53.73320000,-113.17500000
321,Direct Energy Marketing Ltd.,Wildcat Hills Gas Plant,Alberta,Cochrane,262130 Range Rd. 54,T4C1A6,3751,121.80,http://www.ec.gc.ca/ges-ghg/donnees-data/index.cfm?do=facility_info&amp;lang=En&amp;year=2011&amp;ghg_id=G10321,Conventional Oil and Gas Extraction,http://stds.statcan.gc.ca/naics-scian/2007/cs-rc-eng.asp?criteria=211113,51.21950000,-114.64540000
324,Canadian Natural Resources Limited,Wolf Lake and Primrose Plant,Alberta,N/A,10-08-066-05-W4/14-08-068-04-W4,N/A,4136,2972.93,http://www.ec.gc.ca/ges-ghg/donnees-data/index.cfm?do=facility_info&amp;lang=En&amp;year=2011&amp;ghg_id=G10324,Non-Conventional Oil Extraction,http://stds.statcan.gc.ca/naics-scian/2007/cs-rc-eng.asp?criteria=211114,54.77290000,-110.57900000
326,Apache Canada Ltd.,"Zama Gas Plant: 1, 2, 3",Alberta,Zama City,13-12-116-06-W6,T0H4E0,5285,51.40,http://www.ec.gc.ca/ges-ghg/donnees-data/index.cfm?do=facility_info&amp;lang=En&amp;year=2011&amp;ghg_id=G10326,Conventional Oil and Gas Extraction,http://stds.statcan.gc.ca/naics-scian/2007/cs-rc-eng.asp?criteria=211113,59.06310000,-118.87570000
327,Rio Tinto Alcan,Strathcona Works,Alberta,Sherwood Park,910 Petroleum Way,T8H2T3,19289,70.89,http://www.ec.gc.ca/ges-ghg/donnees-data/index.cfm?do=facility_info&amp;lang=En&amp;year=2011&amp;ghg_id=G10327,All Other Non-Metallic Mineral Product Manufacturing,http://stds.statcan.gc.ca/naics-scian/2007/cs-rc-eng.asp?criteria=327990,53.55860000,-113.36800000
352,Waste Management of Canada Corporation,West Edmonton Landfill,Alberta,Edmonton,12707 170th Street,T5V1L9,6869,68.83,http://www.ec.gc.ca/ges-ghg/donnees-data/index.cfm?do=facility_info&amp;lang=En&amp;year=2011&amp;ghg_id=G10352,Waste Treatment and Disposal,http://stds.statcan.gc.ca/naics-scian/2007/cs-rc-eng.asp?criteria=562210,53.58410000,-113.61440000
356,Nexen Inc.,Balzac Power Station,Alberta,Balzac,SE1/4-02-026-29-W4,T0M0E0,6560,198.51,http://www.ec.gc.ca/ges-ghg/donnees-data/index.cfm?do=facility_info&amp;lang=En&amp;year=2011&amp;ghg_id=G10356,Fossil-Fuel Electric Power Generation,http://stds.statcan.gc.ca/naics-scian/2007/cs-rc-eng.asp?criteria=221112,51.18940000,-113.93780000
359,Coal Valley Resources Inc.,Coal Valley Mine,Alberta,Edson,40 South Highway,T7E1W1,1585,180.39,http://www.ec.gc.ca/ges-ghg/donnees-data/index.cfm?do=facility_info&amp;lang=En&amp;year=2011&amp;ghg_id=G10359,Bituminous Coal Mining,http://stds.statcan.gc.ca/naics-scian/2007/cs-rc-eng.asp?criteria=212114,53.08920000,-116.80590000
361,Air Products Canada Ltd.,Edmonton Hydrogen Facility,Alberta,Edmonton,0 720 Petroleum Way Way,T6S1H5,19995,1010.04,http://www.ec.gc.ca/ges-ghg/donnees-data/index.cfm?do=facility_info&amp;lang=En&amp;year=2011&amp;ghg_id=G10361,Industrial Gas Manufacturing,http://stds.statcan.gc.ca/naics-scian/2007/cs-rc-eng.asp?criteria=325120,53.55940000,-113.34720000
371,Pengrowth Energy Corporation,Olds Gas Plant,Alberta,Olds,06-18-032-01 W5M,T4H1T8,1074,117.31,http://www.ec.gc.ca/ges-ghg/donnees-data/index.cfm?do=facility_info&amp;lang=En&amp;year=2011&amp;ghg_id=G10371,Conventional Oil and Gas Extraction,http://stds.statcan.gc.ca/naics-scian/2007/cs-rc-eng.asp?criteria=211113,51.74230000,-114.13450000
375,Dow Chemical Canada ULC,Prentiss Manufacturing Facility,Alberta,Prentiss,Hwy 597 and Prentiss Road,T4L2N4,2316,21.14,http://www.ec.gc.ca/ges-ghg/donnees-data/index.cfm?do=facility_info&amp;lang=En&amp;year=2011&amp;ghg_id=G10375,Petrochemical Manufacturing,http://stds.statcan.gc.ca/naics-scian/2007/cs-rc-eng.asp?criteria=325110,52.38580000,-113.59500000
382,General Scrap Partnership,GenAlta Recycling Inc.,Alberta,Edmonton,9301 34th Street North,T6B2X6,5367,0.68,http://www.ec.gc.ca/ges-ghg/donnees-data/index.cfm?do=facility_info&amp;lang=En&amp;year=2011&amp;ghg_id=G10382,All Other Miscellaneous Manufacturing,http://stds.statcan.gc.ca/naics-scian/2007/cs-rc-eng.asp?criteria=339990,53.52770000,-113.39260000
390,Nexen Inc.,Long Lake Project,Alberta,Fort McMurray,07-31-085-06-W4,T9H5R3,22378,3189.41,http://www.ec.gc.ca/ges-ghg/donnees-data/index.cfm?do=facility_info&amp;lang=En&amp;year=2011&amp;ghg_id=G10390,Non-Conventional Oil Extraction,http://stds.statcan.gc.ca/naics-scian/2007/cs-rc-eng.asp?criteria=211114,56.41170000,-110.93760000
391,Mazeppa Processing Partnership Limited,Mazeppa Sour Gas Plant,Alberta,High River,NE1/4-35-019-28-W4,T1V1M7,653,81.75,http://www.ec.gc.ca/ges-ghg/donnees-data/index.cfm?do=facility_info&amp;lang=En&amp;year=2011&amp;ghg_id=G10391,Conventional Oil and Gas Extraction,http://stds.statcan.gc.ca/naics-scian/2007/cs-rc-eng.asp?criteria=211113,50.64750000,-113.77200000
392,General Scrap Partnership,Navajo Metals,Alberta,Calgary,5857 12th Street Southeast,T2H2G7,3775,1.96,http://www.ec.gc.ca/ges-ghg/donnees-data/index.cfm?do=facility_info&amp;lang=En&amp;year=2011&amp;ghg_id=G10392,All Other Miscellaneous Manufacturing,http://stds.statcan.gc.ca/naics-scian/2007/cs-rc-eng.asp?criteria=339990,51.08670000,-114.00880000
394,Husky Oil Operations Limited,Tucker Thermal,Alberta,Bonneville,12-28-064-04-W4,t9n2g7,21548,417.66,http://www.ec.gc.ca/ges-ghg/donnees-data/index.cfm?do=facility_info&amp;lang=En&amp;year=2011&amp;ghg_id=G10394,Non-Conventional Oil Extraction,http://stds.statcan.gc.ca/naics-scian/2007/cs-rc-eng.asp?criteria=211114,54.34270000,-110.32870000
402,Teck Coal Limited,Cheviot Mine (Cardinal River Operations),Alberta,Hinton,"Lat 53.00000, Long 117.00000",T7V1V5,6895,124.93,http://www.ec.gc.ca/ges-ghg/donnees-data/index.cfm?do=facility_info&amp;lang=En&amp;year=2011&amp;ghg_id=G10402,Bituminous Coal Mining,http://stds.statcan.gc.ca/naics-scian/2007/cs-rc-eng.asp?criteria=212114,53.06650000,-117.40480000
406,Connacher Oil and Gas Limited,Pod One,Alberta,Fort McMurray,13-16-082-12-W4,T9H 4Y4,22750,225.29,http://www.ec.gc.ca/ges-ghg/donnees-data/index.cfm?do=facility_info&amp;lang=En&amp;year=2011&amp;ghg_id=G10406,Non-Conventional Oil Extraction,http://stds.statcan.gc.ca/naics-scian/2007/cs-rc-eng.asp?criteria=211114,56.11350000,-111.82930000
408,Canadian Natural Resources Limited,Horizon Oil Sands Processing Plant and Mine,Alberta,Fort McMurray,96/97-11/12/13-W4,T9H3H5,23275,1651.14,http://www.ec.gc.ca/ges-ghg/donnees-data/index.cfm?do=facility_info&amp;lang=En&amp;year=2011&amp;ghg_id=G10408,Non-Conventional Oil Extraction,http://stds.statcan.gc.ca/naics-scian/2007/cs-rc-eng.asp?criteria=211114,57.33540000,-111.75560000
409,Devon Canada Corporation,Jackfish 1 SAGD Plant,Alberta,Conkin,10-28-075-06-W4,-,22267,700.03,http://www.ec.gc.ca/ges-ghg/donnees-data/index.cfm?do=facility_info&amp;lang=En&amp;year=2011&amp;ghg_id=G10409,Non-Conventional Oil Extraction,http://stds.statcan.gc.ca/naics-scian/2007/cs-rc-eng.asp?criteria=211114,55.52790000,-110.87380000
412,Shell Canada Limited,Orion Complex,Alberta,Cold Lake,13-16-064-03-W4,T9M1N1,22493,160.66,http://www.ec.gc.ca/ges-ghg/donnees-data/index.cfm?do=facility_info&amp;lang=En&amp;year=2011&amp;ghg_id=G10412,Non-Conventional Oil Extraction,http://stds.statcan.gc.ca/naics-scian/2007/cs-rc-eng.asp?criteria=211114,54.32300000,-110.25000000
414,ConocoPhillips Canada Resources Corp.,Surmont SAGD Commercial Battery,Alberta,Anzac,05-18-083-06-W4,T0P1J0,22141,468.91,http://www.ec.gc.ca/ges-ghg/donnees-data/index.cfm?do=facility_info&amp;lang=En&amp;year=2011&amp;ghg_id=G10414,Non-Conventional Oil Extraction,http://stds.statcan.gc.ca/naics-scian/2007/cs-rc-eng.asp?criteria=211114,56.19360000,-110.95060000
417,AECO Gas Storage Partnership,Suffield Gas Storage Facility,Alberta,Medicine Hat,04-03-019-09 W4M,T1A0B3,6619,79.43,http://www.ec.gc.ca/ges-ghg/donnees-data/index.cfm?do=facility_info&amp;lang=En&amp;year=2011&amp;ghg_id=G10417,Conventional Oil and Gas Extraction,http://stds.statcan.gc.ca/naics-scian/2007/cs-rc-eng.asp?criteria=211113,50.57720000,-111.17810000
420,AltaSteel Ltd.,AltaSteel,Alberta,Edmonton,9401 34th Street,T6B2X6,1106,77.88,http://www.ec.gc.ca/ges-ghg/donnees-data/index.cfm?do=facility_info&amp;lang=En&amp;year=2011&amp;ghg_id=G10420,Iron and Steel Mills and Ferro-Alloy Manufacturing,http://stds.statcan.gc.ca/naics-scian/2007/cs-rc-eng.asp?criteria=331110,53.52910000,-113.38750000
421,Baymag Inc.,Baymag Exshaw Operations,Alberta,Exshaw,Site 93210 1A Highway,T0L2C0,6972,125.12,http://www.ec.gc.ca/ges-ghg/donnees-data/index.cfm?do=facility_info&amp;lang=En&amp;year=2011&amp;ghg_id=G10421,All Other Non-Metallic Mineral Product Manufacturing,http://stds.statcan.gc.ca/naics-scian/2007/cs-rc-eng.asp?criteria=327990,51.06530000,-115.22110000
428,Canadian Natural Resources Limited,Galloway Gas Plant,Alberta,Edson,5510 1st Avenue,T7E1V2,16009,65.85,http://www.ec.gc.ca/ges-ghg/donnees-data/index.cfm?do=facility_info&amp;lang=En&amp;year=2011&amp;ghg_id=G10428,Conventional Oil and Gas Extraction,http://stds.statcan.gc.ca/naics-scian/2007/cs-rc-eng.asp?criteria=211113,53.58300000,-116.84200000
429,Canadian Natural Resources Limited,Gold Creek Gas Plant,Alberta,Grande Prairie,13-26-67-05 W6M,T8V8B9,3753,60.86,http://www.ec.gc.ca/ges-ghg/donnees-data/index.cfm?do=facility_info&amp;lang=En&amp;year=2011&amp;ghg_id=G10429,Conventional Oil and Gas Extraction,http://stds.statcan.gc.ca/naics-scian/2007/cs-rc-eng.asp?criteria=211113,54.83330000,-118.64670000
431,Canadian Natural Resources Limited,WILD RIVER 4-3,Alberta,Edson,5510 1st Avenue,T7E1V2,15212,62.45,http://www.ec.gc.ca/ges-ghg/donnees-data/index.cfm?do=facility_info&amp;lang=En&amp;year=2011&amp;ghg_id=G10431,Conventional Oil and Gas Extraction,http://stds.statcan.gc.ca/naics-scian/2007/cs-rc-eng.asp?criteria=211113,53.89070000,-117.35400000
437,Cenovus Energy,Suffield K (Koomati) Gas Battery 04-04,Alberta,Medicine Hat,04-04-017-04W4,n/a,16739,61.98,http://www.ec.gc.ca/ges-ghg/donnees-data/index.cfm?do=facility_info&amp;lang=En&amp;year=2011&amp;ghg_id=G10437,Conventional Oil and Gas Extraction,http://stds.statcan.gc.ca/naics-scian/2007/cs-rc-eng.asp?criteria=211113,50.39860000,-110.50330000
441,City of Lethbridge,Lethbridge Waste and Recycling Centre Disposal Site,Alberta,Lethbridge,910 4th Avenue South,T1J0P6,,64.36,http://www.ec.gc.ca/ges-ghg/donnees-data/index.cfm?do=facility_info&amp;lang=En&amp;year=2011&amp;ghg_id=G10441,Waste Treatment and Disposal,http://stds.statcan.gc.ca/naics-scian/2007/cs-rc-eng.asp?criteria=562210,0.00000000,0.00000000
446,ConocoPhillips Canada (BRC) Partnership,Berland Sweet Gas Plant,Alberta,n/a,14-15-059-24W5,n/a,18373,60.40,http://www.ec.gc.ca/ges-ghg/donnees-data/index.cfm?do=facility_info&amp;lang=En&amp;year=2011&amp;ghg_id=G10446,Conventional Oil and Gas Extraction,http://stds.statcan.gc.ca/naics-scian/2007/cs-rc-eng.asp?criteria=211113,54.10540000,-117.52650000
448,Devon Canada Corporation,Coleman Gas Plant,Alberta,Coleman,LSD 01-11-008-05W5,T0K0M0,5211,52.77,http://www.ec.gc.ca/ges-ghg/donnees-data/index.cfm?do=facility_info&amp;lang=En&amp;year=2011&amp;ghg_id=G10448,Conventional Oil and Gas Extraction,http://stds.statcan.gc.ca/naics-scian/2007/cs-rc-eng.asp?criteria=211113,49.62810000,-114.57190000
451,Devon Canada Corporation,Narraway Gas Plant,Alberta,N/A,LSD: 10-08-062-10W6,-,21977,64.30,http://www.ec.gc.ca/ges-ghg/donnees-data/index.cfm?do=facility_info&amp;lang=En&amp;year=2011&amp;ghg_id=G10451,Conventional Oil and Gas Extraction,http://stds.statcan.gc.ca/naics-scian/2007/cs-rc-eng.asp?criteria=211113,54.35210000,-119.46010000
455,EnCana Corporation,Resthaven Sweet Gas Plant 08-11,Alberta,n/a,08-11-060-03W6,n/a,21446,55.62,http://www.ec.gc.ca/ges-ghg/donnees-data/index.cfm?do=facility_info&amp;lang=En&amp;year=2011&amp;ghg_id=G10455,Conventional Oil and Gas Extraction,http://stds.statcan.gc.ca/naics-scian/2007/cs-rc-eng.asp?criteria=211113,54.17100000,-118.33440000
456,EnCana Corporation,Sexsmith Sour Gas Plant,Alberta,n/a,04-08-075-07W6,n/a,4823,70.70,http://www.ec.gc.ca/ges-ghg/donnees-data/index.cfm?do=facility_info&amp;lang=En&amp;year=2011&amp;ghg_id=G10456,Conventional Oil and Gas Extraction,http://stds.statcan.gc.ca/naics-scian/2007/cs-rc-eng.asp?criteria=211113,55.48190000,-119.05920000
461,EPCOR Water Services Inc.,Gold Bar Wastewater Treatment Plant,Alberta,Edmonton,10977 50th Street,T6A2E9,5390,40.69,http://www.ec.gc.ca/ges-ghg/donnees-data/index.cfm?do=facility_info&amp;lang=En&amp;year=2011&amp;ghg_id=G10461,Sewage Treatment Facilities,http://stds.statcan.gc.ca/naics-scian/2007/cs-rc-eng.asp?criteria=221320,53.56080000,-113.41530000
463,ExxonMobil Canada Ltd,Lone Pine Creek Gas Plant,Alberta,Carstairs,05-27-029-28W4,T0M0N0,3939,53.53,http://www.ec.gc.ca/ges-ghg/donnees-data/index.cfm?do=facility_info&amp;lang=En&amp;year=2011&amp;ghg_id=G10463,Conventional Oil and Gas Extraction,http://stds.statcan.gc.ca/naics-scian/2007/cs-rc-eng.asp?criteria=211113,51.52600000,-113.88000000
465,"Cenovus FCCL Ltd., as operator for FCCL Partnership",Foster Creek SAGD Bitumen Battery (with Cogen),Alberta,Bonnyville,04-22-070-04-W4,T9N2J7,6627,2043.25,http://www.ec.gc.ca/ges-ghg/donnees-data/index.cfm?do=facility_info&amp;lang=En&amp;year=2011&amp;ghg_id=G10465,Non-Conventional Oil Extraction,http://stds.statcan.gc.ca/naics-scian/2007/cs-rc-eng.asp?criteria=211114,55.06960000,-110.53610000
475,Husky Oil Operations Limited,Lloydminster Refinery,Alberta,LLoydminster,5650 52nd Street,T9V0R7,403,94.45,http://www.ec.gc.ca/ges-ghg/donnees-data/index.cfm?do=facility_info&amp;lang=En&amp;year=2011&amp;ghg_id=G10475,Petroleum Refineries,http://stds.statcan.gc.ca/naics-scian/2007/cs-rc-eng.asp?criteria=324110,53.28850000,-110.01830000
476,Husky Oil Operations Limited,Rainbow Lake Gas plant,Alberta,Rainbow Lake,10-10-109-08W6,T0H2Y0,1439,62.47,http://www.ec.gc.ca/ges-ghg/donnees-data/index.cfm?do=facility_info&amp;lang=En&amp;year=2011&amp;ghg_id=G10476,Conventional Oil and Gas Extraction,http://stds.statcan.gc.ca/naics-scian/2007/cs-rc-eng.asp?criteria=211113,58.50000000,-119.41670000
484,Keyera Corp,Gilby Gas Plant,Alberta,Rimbey,15-22-040-01 W5M,T2P3N4,24193,66.32,http://www.ec.gc.ca/ges-ghg/donnees-data/index.cfm?do=facility_info&amp;lang=En&amp;year=2011&amp;ghg_id=G10484,Conventional Oil and Gas Extraction,http://stds.statcan.gc.ca/naics-scian/2007/cs-rc-eng.asp?criteria=211113,52.46302000,-114.34689000
486,Keyera Corp,West Pembina GP,Alberta,Drayton Valley,10-10-047-14 W5M,T7A 1S3,4152,69.16,http://www.ec.gc.ca/ges-ghg/donnees-data/index.cfm?do=facility_info&amp;lang=En&amp;year=2011&amp;ghg_id=G10486,Conventional Oil and Gas Extraction,http://stds.statcan.gc.ca/naics-scian/2007/cs-rc-eng.asp?criteria=211113,53.13230000,-115.98170000
491,Lantic Inc. Taber Factory,Lantic Inc. Taber Beet Sugar Factory,Alberta,Taber,0 5405 64th Street Street,T1G2C4,947,75.42,http://www.ec.gc.ca/ges-ghg/donnees-data/index.cfm?do=facility_info&amp;lang=En&amp;year=2011&amp;ghg_id=G10491,Sugar Manufacturing,http://stds.statcan.gc.ca/naics-scian/2007/cs-rc-eng.asp?criteria=311310,49.78940000,-112.12610000
496,MEG Energy Corp.,MEG Christina Lake Regional Project,Alberta,,02-16-077-05-W4,T2T6N9,22346,184.75,http://www.ec.gc.ca/ges-ghg/donnees-data/index.cfm?do=facility_info&amp;lang=En&amp;year=2011&amp;ghg_id=G10496,Non-Conventional Oil Extraction,http://stds.statcan.gc.ca/naics-scian/2007/cs-rc-eng.asp?criteria=211114,55.66640000,-110.71400000
497,Millar Western Forest Products Ltd.,Whitecourt Pulp Divison,Alberta,Whitecourt,50 Mill Road,T7S1N9,878,68.70,http://www.ec.gc.ca/ges-ghg/donnees-data/index.cfm?do=facility_info&amp;lang=En&amp;year=2011&amp;ghg_id=G10497,Mechanical Pulp Mills,http://stds.statcan.gc.ca/naics-scian/2007/cs-rc-eng.asp?criteria=322111,54.14440000,-115.69170000
499,NAL Resources Management,Sylvan Lake Gas Plant 14-32-037-03W5M,Alberta,Sylvan Lake,14-32-037-03W5M,T0M 0X0,6559,56.86,http://www.ec.gc.ca/ges-ghg/donnees-data/index.cfm?do=facility_info&amp;lang=En&amp;year=2011&amp;ghg_id=G10499,Conventional Oil and Gas Extraction,http://stds.statcan.gc.ca/naics-scian/2007/cs-rc-eng.asp?criteria=211113,52.22840000,-114.39770000
529,Keyera Corp,Minnehik Buck Lake Gas Plant,Alberta,Buck Lake,LSD 10-5-46-6W5M,T2P3N4,1753,63.24,http://www.ec.gc.ca/ges-ghg/donnees-data/index.cfm?do=facility_info&amp;lang=En&amp;year=2011&amp;ghg_id=G10529,Conventional Oil and Gas Extraction,http://stds.statcan.gc.ca/naics-scian/2007/cs-rc-eng.asp?criteria=211113,52.94040000,-114.83230000
531,Peyto Exploration and Development Corporation,Peyto Oldman Gas Plant 11-17-055-21W5M,Alberta,Edson,11-17-055-21W5M,0,17698,72.18,http://www.ec.gc.ca/ges-ghg/donnees-data/index.cfm?do=facility_info&amp;lang=En&amp;year=2011&amp;ghg_id=G10531,Conventional Oil and Gas Extraction,http://stds.statcan.gc.ca/naics-scian/2007/cs-rc-eng.asp?criteria=211113,53.75230000,-117.09930000
536,Provident Energy Ltd.,Empress NGL Extraction Plant,Alberta,Medicine Hat,LSD: 16-002-20-01W4,T1A 7G6,6623,75.26,http://www.ec.gc.ca/ges-ghg/donnees-data/index.cfm?do=facility_info&amp;lang=En&amp;year=2011&amp;ghg_id=G10536,Conventional Oil and Gas Extraction,http://stds.statcan.gc.ca/naics-scian/2007/cs-rc-eng.asp?criteria=211113,50.67190000,-110.02890000
550,Spectra Energy Midstream Corporation,Gordondale East Gas Plant,Alberta,Spirit River,"Lat 55.52472, Long 119.17440",T0H3G0,5247,64.63,http://www.ec.gc.ca/ges-ghg/donnees-data/index.cfm?do=facility_info&amp;lang=En&amp;year=2011&amp;ghg_id=G10550,Conventional Oil and Gas Extraction,http://stds.statcan.gc.ca/naics-scian/2007/cs-rc-eng.asp?criteria=211113,55.87670000,-119.30110000
555,Keyera Corp,Simonette Gas Plant,Alberta,Simonette,LSD: 9-6-63-25W5M,T7A 1S3,2227,60.04,http://www.ec.gc.ca/ges-ghg/donnees-data/index.cfm?do=facility_info&amp;lang=En&amp;year=2011&amp;ghg_id=G10555,Conventional Oil and Gas Extraction,http://stds.statcan.gc.ca/naics-scian/2007/cs-rc-eng.asp?criteria=211113,54.42330000,-117.76040000
556,Suncor Energy Oil and Gas Partnership,Ferrier Gas Plant,Alberta,Rocky Mountain House,LSD 01-06-041-07W5M,T4T1B1,1077,51.98,http://www.ec.gc.ca/ges-ghg/donnees-data/index.cfm?do=facility_info&amp;lang=En&amp;year=2011&amp;ghg_id=G10556,Conventional Oil and Gas Extraction,http://stds.statcan.gc.ca/naics-scian/2007/cs-rc-eng.asp?criteria=211113,52.49600000,-114.98800000
557,Suncor Energy Oil Sands Limited Partnership,Firebag,Alberta,Ft. McMurray,"Lat 57.22970, Long 110.83250",T9H3H3,19181,2001.05,http://www.ec.gc.ca/ges-ghg/donnees-data/index.cfm?do=facility_info&amp;lang=En&amp;year=2011&amp;ghg_id=G10557,Non-Conventional Oil Extraction,http://stds.statcan.gc.ca/naics-scian/2007/cs-rc-eng.asp?criteria=211114,57.21750000,-110.89500000
558,Suncor Energy Oil Sands Limited Partnership,Suncor Energy Inc. Oil Sands,Alberta,Fort McMurray,Hwy 63N Highway,T9H3E3,2230,8495.97,http://www.ec.gc.ca/ges-ghg/donnees-data/index.cfm?do=facility_info&amp;lang=En&amp;year=2011&amp;ghg_id=G10558,Non-Conventional Oil Extraction,http://stds.statcan.gc.ca/naics-scian/2007/cs-rc-eng.asp?criteria=211114,57.00330000,-111.46610000
560,Talisman Energy,TLM Bigstone West Gas Plant,Alberta,Edson,"Lat 54.13591, Long -117.24180",T7E 1V2,18023,48.84,http://www.ec.gc.ca/ges-ghg/donnees-data/index.cfm?do=facility_info&amp;lang=En&amp;year=2011&amp;ghg_id=G10560,Conventional Oil and Gas Extraction,http://stds.statcan.gc.ca/naics-scian/2007/cs-rc-eng.asp?criteria=211113,54.17870000,-117.32840000
561,Talisman Energy,TLM Wild River Gas Plant,Alberta,Edson,"Lat 53.85561, Long -117.38007",T7E 1V2,17996,53.55,http://www.ec.gc.ca/ges-ghg/donnees-data/index.cfm?do=facility_info&amp;lang=En&amp;year=2011&amp;ghg_id=G10561,Conventional Oil and Gas Extraction,http://stds.statcan.gc.ca/naics-scian/2007/cs-rc-eng.asp?criteria=211113,53.85430000,-117.39120000
566,University of Alberta Heating Plant,Heating Plant,Alberta,Edmonton,0 115 University Campus NW,T6G2N7,6678,216.43,http://www.ec.gc.ca/ges-ghg/donnees-data/index.cfm?do=facility_info&amp;lang=En&amp;year=2011&amp;ghg_id=G10566,Universities,http://stds.statcan.gc.ca/naics-scian/2007/cs-rc-eng.asp?criteria=611310,53.51960000,-113.52900000
576,West Fraser Mills ltd.,Ranger Board,Alberta,Blue Ridge,595007 Highway 658 Highway North,T0E0B0,4830,69.60,http://www.ec.gc.ca/ges-ghg/donnees-data/index.cfm?do=facility_info&amp;lang=En&amp;year=2011&amp;ghg_id=G10576,Particle Board and Fibreboard Mills,http://stds.statcan.gc.ca/naics-scian/2007/cs-rc-eng.asp?criteria=321216,54.23820000,-115.37970000
577,Whitecourt Power Partnership,Whitecourt Electric Power Generating Facility,Alberta,Whitecourt,2 km north of Whitecourt on Hwy 43,T7S1P6,18225,4.77,http://www.ec.gc.ca/ges-ghg/donnees-data/index.cfm?do=facility_info&amp;lang=En&amp;year=2011&amp;ghg_id=G10577,Other Electric Power Generation,http://stds.statcan.gc.ca/naics-scian/2007/cs-rc-eng.asp?criteria=221119,54.16240000,-115.73240000
588,Ainsworth Lumber Co. Ltd.,Grande Prairie OSB Mill,Alberta,Grande Prairie,40 Highway,T8V6Y9,4880,10.10,http://www.ec.gc.ca/ges-ghg/donnees-data/index.cfm?do=facility_info&amp;lang=En&amp;year=2011&amp;ghg_id=G10588,Waferboard Mills,http://stds.statcan.gc.ca/naics-scian/2007/cs-rc-eng.asp?criteria=321217,55.02980000,-118.74400000
604,Connacher Oil and Gas Limited,Algar,Alberta,Fort McMurray,14-18-82-11W 4M,T9H 4Y4,24188,249.64,http://www.ec.gc.ca/ges-ghg/donnees-data/index.cfm?do=facility_info&amp;lang=En&amp;year=2011&amp;ghg_id=G10604,Non-Conventional Oil Extraction,http://stds.statcan.gc.ca/naics-scian/2007/cs-rc-eng.asp?criteria=211114,56.11314000,-111.71534000
606,EnCana Corporation,Hythe Brainard Sour Gas Plant,Alberta,n/a,11-18-074-12W6,n/a,5239,74.39,http://www.ec.gc.ca/ges-ghg/donnees-data/index.cfm?do=facility_info&amp;lang=En&amp;year=2011&amp;ghg_id=G10606,Conventional Oil and Gas Extraction,http://stds.statcan.gc.ca/naics-scian/2007/cs-rc-eng.asp?criteria=211113,55.48910000,-119.75080000
607,Enmax Green Power Inc.,Crossfield Energy Centre,Alberta,Crossfield,NW1/4-13-28-01 W5M,T0M0S0,23543,113.37,http://www.ec.gc.ca/ges-ghg/donnees-data/index.cfm?do=facility_info&amp;lang=En&amp;year=2011&amp;ghg_id=G10607,Fossil-Fuel Electric Power Generation,http://stds.statcan.gc.ca/naics-scian/2007/cs-rc-eng.asp?criteria=221112,51.39940000,-114.00490000
611,Grande Cache Coal Corporation,Grande Cache Coal Corporation,Alberta,MD of Greenview,20 KM North of Grande Cache,T0E0Y0,23560,135.58,http://www.ec.gc.ca/ges-ghg/donnees-data/index.cfm?do=facility_info&amp;lang=En&amp;year=2011&amp;ghg_id=G10611,Bituminous Coal Mining,http://stds.statcan.gc.ca/naics-scian/2007/cs-rc-eng.asp?criteria=212114,54.00660000,-119.10550000
619,MEG Energy Corp.,MEG Christina Lake Cogeneration Facility Phase 2,Alberta,,                                                                                 ,T2T6N9,24100,574.05,http://www.ec.gc.ca/ges-ghg/donnees-data/index.cfm?do=facility_info&amp;lang=En&amp;year=2011&amp;ghg_id=G10619,Non-Conventional Oil Extraction,http://stds.statcan.gc.ca/naics-scian/2007/cs-rc-eng.asp?criteria=211114,55.66638200,-110.71404400
639,Statoil Canada Ltd.,Leismer SAGD Bitumen Battery,Alberta,N/A,08-02-079-10W4M,N/A,24145,260.83,http://www.ec.gc.ca/ges-ghg/donnees-data/index.cfm?do=facility_info&amp;lang=En&amp;year=2011&amp;ghg_id=G10639,Non-Conventional Oil Extraction,http://stds.statcan.gc.ca/naics-scian/2007/cs-rc-eng.asp?criteria=211114,55.81539000,-111.44440000
651,Weyerhaeuser Company Limited,Edson O.S.B.,Alberta,Edson,2509 Aspen Drive,T7E1S8,2762,15.69,http://www.ec.gc.ca/ges-ghg/donnees-data/index.cfm?do=facility_info&amp;lang=En&amp;year=2011&amp;ghg_id=G10651,Waferboard Mills,http://stds.statcan.gc.ca/naics-scian/2007/cs-rc-eng.asp?criteria=321217,53.59170000,-116.42330000
654,Shell Canada Energy,Shell Albian Sands Jackpine Mine,Alberta,Fort McMurray,23-095-10-W4,T9H4W1,6647,966.95,http://www.ec.gc.ca/ges-ghg/donnees-data/index.cfm?do=facility_info&amp;lang=En&amp;year=2011&amp;ghg_id=G10654,Non-Conventional Oil Extraction,http://stds.statcan.gc.ca/naics-scian/2007/cs-rc-eng.asp?criteria=211114,57.35170000,-111.52220000
656,Pengrowth Energy Corporation,Carson Creek GP 4-23,Alberta,Whitecourt,04-23-061-12-W5,T0G 2C0,21706,47.82,http://www.ec.gc.ca/ges-ghg/donnees-data/index.cfm?do=facility_info&amp;lang=En&amp;year=2011&amp;ghg_id=G10656,Conventional Oil and Gas Extraction,http://stds.statcan.gc.ca/naics-scian/2007/cs-rc-eng.asp?criteria=211113,54.28500000,-115.69820000
659,Murphy Oil Canada Limited,Seal 04-33-082-15W5,Alberta,Seal Lake,04-33-082-15W5,A9A9A9,24130,23.24,http://www.ec.gc.ca/ges-ghg/donnees-data/index.cfm?do=facility_info&amp;lang=En&amp;year=2011&amp;ghg_id=G10659,Conventional Oil and Gas Extraction,http://stds.statcan.gc.ca/naics-scian/2007/cs-rc-eng.asp?criteria=211113,56.14711000,-116.29432800
661,Advantage Oil & Gas Ltd.,Glacier Sour Gas Plant 05-02,Alberta,N/A,05-02-076-12W6,n/a,23281,71.45,http://www.ec.gc.ca/ges-ghg/donnees-data/index.cfm?do=facility_info&amp;lang=En&amp;year=2011&amp;ghg_id=G10661,Conventional Oil and Gas Extraction,http://stds.statcan.gc.ca/naics-scian/2007/cs-rc-eng.asp?criteria=211113,55.55410000,-119.75540000
668,Constellation Energy,Northern Prairie Thermal Electric Power Plant,Alberta,Sexsmith,"RR#1, Site 14",T0H3C0,23432,115.02,http://www.ec.gc.ca/ges-ghg/donnees-data/index.cfm?do=facility_info&amp;lang=En&amp;year=2011&amp;ghg_id=G10668,Fossil-Fuel Electric Power Generation,http://stds.statcan.gc.ca/naics-scian/2007/cs-rc-eng.asp?criteria=221112,55.34050000,-119.21850000
671,Devon Canada Corporation,Jackfish 2 SAGD Plant,Alberta,Conkin,07-27-075-07W4,-,,171.33,http://www.ec.gc.ca/ges-ghg/donnees-data/index.cfm?do=facility_info&amp;lang=En&amp;year=2011&amp;ghg_id=G10671,Non-Conventional Oil Extraction,http://stds.statcan.gc.ca/naics-scian/2007/cs-rc-eng.asp?criteria=211114,0.00000000,0.00000000
686,Methanex Corporation,Methanex Medicine Hat Methanol Plant,Alberta,Medicine Hat,3806 Box Springs Road NW Road,T1A 7H1,,264.24,http://www.ec.gc.ca/ges-ghg/donnees-data/index.cfm?do=facility_info&amp;lang=En&amp;year=2011&amp;ghg_id=G10686,Other Basic Organic Chemical Manufacturing,http://stds.statcan.gc.ca/naics-scian/2007/cs-rc-eng.asp?criteria=325190,0.00000000,0.00000000
693,Peyto Exploration and Development Corporation,Nosehill 11-21-55-20W5,Alberta,Edson,11-21-055-20-W5,0,21754,62.29,http://www.ec.gc.ca/ges-ghg/donnees-data/index.cfm?do=facility_info&amp;lang=En&amp;year=2011&amp;ghg_id=G10693,Conventional Oil and Gas Extraction,http://stds.statcan.gc.ca/naics-scian/2007/cs-rc-eng.asp?criteria=211113,53.76830000,-116.91540000
707,ConocoPhillips Canada (BRC) Partnership,Wolf Lake Sweet Gas Plant,Alberta,N/A,05-01-051-15-W5,0,6628,50.72,http://www.ec.gc.ca/ges-ghg/donnees-data/index.cfm?do=facility_info&amp;lang=En&amp;year=2011&amp;ghg_id=G10707,Conventional Oil and Gas Extraction,http://stds.statcan.gc.ca/naics-scian/2007/cs-rc-eng.asp?criteria=211113,53.37310000,-116.08600000
10,Rio Tinto Alcan,Kitimat Works,British Columbia,Kitimat,1 Smeltersite Road,V8C2H2,2788,814.25,http://www.ec.gc.ca/ges-ghg/donnees-data/index.cfm?do=facility_info&amp;lang=En&amp;year=2011&amp;ghg_id=G10010,Primary Production of Alumina and Aluminum,http://stds.statcan.gc.ca/naics-scian/2007/cs-rc-eng.asp?criteria=331313,54.01020000,-128.70360000
36,Chevron Canada Limited,Burnaby Refinery,British Columbia,Burnaby,0 355 North Willingdon Avenue,V5C1L7,2776,486.76,http://www.ec.gc.ca/ges-ghg/donnees-data/index.cfm?do=facility_info&amp;lang=En&amp;year=2011&amp;ghg_id=G10036,Petroleum Refineries,http://stds.statcan.gc.ca/naics-scian/2007/cs-rc-eng.asp?criteria=324110,49.28960000,-122.99360000
37,British Columbia Hydro and Power Authority,Burrard Generating Station,British Columbia,Port Moody,0 1 Thermal Plant Road,V3H 3C8,3240,20.74,http://www.ec.gc.ca/ges-ghg/donnees-data/index.cfm?do=facility_info&amp;lang=En&amp;year=2011&amp;ghg_id=G10037,Fossil-Fuel Electric Power Generation,http://stds.statcan.gc.ca/naics-scian/2007/cs-rc-eng.asp?criteria=221112,49.30070000,-122.89220000
48,Cariboo Pulp and Paper Company,Cariboo Pulp and Paper Company,British Columbia,Quesnel,50 North Star Road,V2J3J6,479,85.51,http://www.ec.gc.ca/ges-ghg/donnees-data/index.cfm?do=facility_info&amp;lang=En&amp;year=2011&amp;ghg_id=G10048,Chemical Pulp Mills,http://stds.statcan.gc.ca/naics-scian/2007/cs-rc-eng.asp?criteria=322112,53.00000000,-122.45830000
70,Teck Coal Limited,Coal Mountain Operations,British Columbia,Sparwood,NE1/4 16-026-04 W5M,V0B2G0,6674,164.52,http://www.ec.gc.ca/ges-ghg/donnees-data/index.cfm?do=facility_info&amp;lang=En&amp;year=2011&amp;ghg_id=G10070,Bituminous Coal Mining,http://stds.statcan.gc.ca/naics-scian/2007/cs-rc-eng.asp?criteria=212114,49.49880000,-114.65840000
82,Catalyst Paper Corporation,Crofton Division,British Columbia,Crofton,0 8541 Hay Road,V0R1R0,1266,149.68,http://www.ec.gc.ca/ges-ghg/donnees-data/index.cfm?do=facility_info&amp;lang=En&amp;year=2011&amp;ghg_id=G10082,Chemical Pulp Mills,http://stds.statcan.gc.ca/naics-scian/2007/cs-rc-eng.asp?criteria=322112,48.87500000,-123.64500000
85,"Lehigh Cement, a Division of Lehigh Hanson Materials Ltd.",Delta Plant,British Columbia,Delta,7777 Ross Road,V4G1B8,5190,733.57,http://www.ec.gc.ca/ges-ghg/donnees-data/index.cfm?do=facility_info&amp;lang=En&amp;year=2011&amp;ghg_id=G10085,Cement Manufacturing,http://stds.statcan.gc.ca/naics-scian/2007/cs-rc-eng.asp?criteria=327310,49.14360000,-123.02300000
104,TransCanada PipeLines Ltd.,"TransCanada Pipeline, British Columbia System",British Columbia,Cranbrook,                                                                                 ,V1C2N1,,279.40,http://www.ec.gc.ca/ges-ghg/donnees-data/index.cfm?do=facility_info&amp;lang=En&amp;year=2011&amp;ghg_id=G10104,Pipeline Transportation of Natural Gas,http://stds.statcan.gc.ca/naics-scian/2007/cs-rc-eng.asp?criteria=486210,0.00000000,0.00000000
105,Teck Coal Limited,Elkview Operations,British Columbia,Sparwood,"Lat 49.75800, Long 114.82900",V0B2G1,7838,285.43,http://www.ec.gc.ca/ges-ghg/donnees-data/index.cfm?do=facility_info&amp;lang=En&amp;year=2011&amp;ghg_id=G10105,Bituminous Coal Mining,http://stds.statcan.gc.ca/naics-scian/2007/cs-rc-eng.asp?criteria=212114,49.74960000,-114.86500000
115,Teck Coal Limited,Fording River Operations,British Columbia,Elkford,"Lat 50.18900, Long 114.87900",V0B1H0,6669,480.82,http://www.ec.gc.ca/ges-ghg/donnees-data/index.cfm?do=facility_info&amp;lang=En&amp;year=2011&amp;ghg_id=G10115,Bituminous Coal Mining,http://stds.statcan.gc.ca/naics-scian/2007/cs-rc-eng.asp?criteria=212114,50.18950000,-114.87930000
117,Spectra Energy Transmission,Fort Nelson Gas Plant,British Columbia,Fort Nelson,0 285 Mile 285 Alaska Highway Highway,V0C1R0,4304,1677.75,http://www.ec.gc.ca/ges-ghg/donnees-data/index.cfm?do=facility_info&amp;lang=En&amp;year=2011&amp;ghg_id=G10117,Conventional Oil and Gas Extraction,http://stds.statcan.gc.ca/naics-scian/2007/cs-rc-eng.asp?criteria=211113,58.65390000,-122.68920000
118,British Columbia Hydro and Power Authority,Fort Nelson Generating Station,British Columbia,Fort Nelson,Alaska Highway,V0C 1R0,7866,121.28,http://www.ec.gc.ca/ges-ghg/donnees-data/index.cfm?do=facility_info&amp;lang=En&amp;year=2011&amp;ghg_id=G10118,Fossil-Fuel Electric Power Generation,http://stds.statcan.gc.ca/naics-scian/2007/cs-rc-eng.asp?criteria=221112,58.65000000,-122.67000000
126,Spectra Energy Transmission,Gathering,British Columbia,Fort St. John,53 Alaska Highway,V1J4H7,,255.08,http://www.ec.gc.ca/ges-ghg/donnees-data/index.cfm?do=facility_info&amp;lang=En&amp;year=2011&amp;ghg_id=G10126,Pipeline Transportation of Natural Gas,http://stds.statcan.gc.ca/naics-scian/2007/cs-rc-eng.asp?criteria=486210,0.00000000,0.00000000
131,Teck Coal Limited,Greenhills Operations,British Columbia,Elkford,"Lat 50.08500, Long 114.87100",V0B1H0,6671,313.25,http://www.ec.gc.ca/ges-ghg/donnees-data/index.cfm?do=facility_info&amp;lang=En&amp;year=2011&amp;ghg_id=G10131,Bituminous Coal Mining,http://stds.statcan.gc.ca/naics-scian/2007/cs-rc-eng.asp?criteria=212114,50.08430000,-114.87000000
136,Nanaimo Forest Products Ltd.,Harmac Pacific Operations,British Columbia,Nanaimo,1000 Wave Place,V9X1J2,1383,72.56,http://www.ec.gc.ca/ges-ghg/donnees-data/index.cfm?do=facility_info&amp;lang=En&amp;year=2011&amp;ghg_id=G10136,Chemical Pulp Mills,http://stds.statcan.gc.ca/naics-scian/2007/cs-rc-eng.asp?criteria=322112,49.13690000,-123.85640000
146,Howe Sound Pulp & Paper Corporation,Howe Sound Pulp and Paper Mill,British Columbia,Port Mellon,3838 Port Mellon Highway,V0N2S0,1419,118.17,http://www.ec.gc.ca/ges-ghg/donnees-data/index.cfm?do=facility_info&amp;lang=En&amp;year=2011&amp;ghg_id=G10146,Chemical Pulp Mills,http://stds.statcan.gc.ca/naics-scian/2007/cs-rc-eng.asp?criteria=322112,49.52370000,-123.48370000
157,Domtar Inc.,Kamloops Mill (SFO),British Columbia,Kamloops,0 2005 Mission Flats Road,V2C1A9,2924,120.32,http://www.ec.gc.ca/ges-ghg/donnees-data/index.cfm?do=facility_info&amp;lang=En&amp;year=2011&amp;ghg_id=G10157,Chemical Pulp Mills,http://stds.statcan.gc.ca/naics-scian/2007/cs-rc-eng.asp?criteria=322112,50.68610000,-120.40370000
170,Lafarge Canada Inc.,Richmond Cement Plant,British Columbia,Richmond,7611 No 9 Road,V6W1H4,702,696.42,http://www.ec.gc.ca/ges-ghg/donnees-data/index.cfm?do=facility_info&amp;lang=En&amp;year=2011&amp;ghg_id=G10170,Cement Manufacturing,http://stds.statcan.gc.ca/naics-scian/2007/cs-rc-eng.asp?criteria=327310,49.15910000,-123.00320000
173,Lafarge Canada Inc.,Kamloops Plant,British Columbia,Kamloops,9750 Shuswap Road,V2H1T4,5153,152.96,http://www.ec.gc.ca/ges-ghg/donnees-data/index.cfm?do=facility_info&amp;lang=En&amp;year=2011&amp;ghg_id=G10173,Cement Manufacturing,http://stds.statcan.gc.ca/naics-scian/2007/cs-rc-eng.asp?criteria=327310,50.66290000,-120.06570000
181,Mackenzie Pulp Mill Corporation,Mackenzie Pulp Mill,British Columbia,MacKenzie,1000 Coquawaldi Road,V0C2W0,1486,119.77,http://www.ec.gc.ca/ges-ghg/donnees-data/index.cfm?do=facility_info&amp;lang=En&amp;year=2011&amp;ghg_id=G10181,Chemical Pulp Mills,http://stds.statcan.gc.ca/naics-scian/2007/cs-rc-eng.asp?criteria=322112,55.29140000,-123.15920000
184,Spectra Energy Transmission,McMahon Cogen Plant,British Columbia,Taylor,0 35 Alaska Highway Highway,V0C2K0,7959,553.00,http://www.ec.gc.ca/ges-ghg/donnees-data/index.cfm?do=facility_info&amp;lang=En&amp;year=2011&amp;ghg_id=G10184,Fossil-Fuel Electric Power Generation,http://stds.statcan.gc.ca/naics-scian/2007/cs-rc-eng.asp?criteria=221112,56.14470000,-120.66860000
185,Spectra Energy Transmission,McMahon Gas Plant,British Columbia,Taylor,0 35 Mile 35 Alaska Highway Highway,V0C2K0,4305,377.99,http://www.ec.gc.ca/ges-ghg/donnees-data/index.cfm?do=facility_info&amp;lang=En&amp;year=2011&amp;ghg_id=G10185,Conventional Oil and Gas Extraction,http://stds.statcan.gc.ca/naics-scian/2007/cs-rc-eng.asp?criteria=211113,56.15080000,-120.66790000
207,Canfor Pulp Limited Partnership,Northwood Pulp Mill,British Columbia,Prince George,5353 Northwood Pulp Mill Road,V2L4W2,1797,178.47,http://www.ec.gc.ca/ges-ghg/donnees-data/index.cfm?do=facility_info&amp;lang=En&amp;year=2011&amp;ghg_id=G10207,Chemical Pulp Mills,http://stds.statcan.gc.ca/naics-scian/2007/cs-rc-eng.asp?criteria=322112,53.97790000,-122.69500000
218,Graymont Western Canada Inc.,Pavilion Plant,British Columbia,Cache Creek,0 1306 Highway 99 Highway South,V0K1H0,6827,119.73,http://www.ec.gc.ca/ges-ghg/donnees-data/index.cfm?do=facility_info&amp;lang=En&amp;year=2011&amp;ghg_id=G10218,Lime Manufacturing,http://stds.statcan.gc.ca/naics-scian/2007/cs-rc-eng.asp?criteria=327410,50.81450000,-121.64920000
225,Spectra Energy Transmission,Pine River Gas Plant,British Columbia,Peace River District,0 Highway 97 South Highway South,V0C1J0,4306,1136.09,http://www.ec.gc.ca/ges-ghg/donnees-data/index.cfm?do=facility_info&amp;lang=En&amp;year=2011&amp;ghg_id=G10225,Conventional Oil and Gas Extraction,http://stds.statcan.gc.ca/naics-scian/2007/cs-rc-eng.asp?criteria=211113,55.57190000,-121.94160000
226,Spectra Energy Transmission,Pipeline-Transmission,British Columbia,Prince George,3985 22nd Avenue,V2N1B7,,796.81,http://www.ec.gc.ca/ges-ghg/donnees-data/index.cfm?do=facility_info&amp;lang=En&amp;year=2011&amp;ghg_id=G10226,Pipeline Transportation of Natural Gas,http://stds.statcan.gc.ca/naics-scian/2007/cs-rc-eng.asp?criteria=486210,0.00000000,0.00000000
230,Catalyst Paper Corporation,Port Alberni Division,British Columbia,Port Alberni,0 4000 Stamp Avenue,V9Y5J7,1593,35.49,http://www.ec.gc.ca/ges-ghg/donnees-data/index.cfm?do=facility_info&amp;lang=En&amp;year=2011&amp;ghg_id=G10230,Newsprint Mills,http://stds.statcan.gc.ca/naics-scian/2007/cs-rc-eng.asp?criteria=322122,49.24780000,-124.81100000
231,Catalyst Paper Corporation,Powell River Division,British Columbia,Powell River,5775 Ash Avenue,V8A4R3,723,46.42,http://www.ec.gc.ca/ges-ghg/donnees-data/index.cfm?do=facility_info&amp;lang=En&amp;year=2011&amp;ghg_id=G10231,Mechanical Pulp Mills,http://stds.statcan.gc.ca/naics-scian/2007/cs-rc-eng.asp?criteria=322111,49.87270000,-124.55160000
234,Husky Oil Operations Limited,Prince George Refinery,British Columbia,Prince George,2542 Pulp Mill Road,V2L4V4,405,124.85,http://www.ec.gc.ca/ges-ghg/donnees-data/index.cfm?do=facility_info&amp;lang=En&amp;year=2011&amp;ghg_id=G10234,Petroleum Refineries,http://stds.statcan.gc.ca/naics-scian/2007/cs-rc-eng.asp?criteria=324110,53.92680000,-122.70280000
289,Teck Metals Ltd.,Trail Operations,British Columbia,Trail,25 Aldridge Avenue,V1R4L8,3802,430.38,http://www.ec.gc.ca/ges-ghg/donnees-data/index.cfm?do=facility_info&amp;lang=En&amp;year=2011&amp;ghg_id=G10289,Non-Ferrous Metal (except Aluminum) Smelting and Refining,http://stds.statcan.gc.ca/naics-scian/2007/cs-rc-eng.asp?criteria=331410,49.09990000,-117.71780000
320,Penn West Petroleum,Wildboy Gas Plant BCGP00002917,British Columbia,Fort St John,"Suite 130, 10504, 100th Ave",V1J 1Z2,17571,100.60,http://www.ec.gc.ca/ges-ghg/donnees-data/index.cfm?do=facility_info&amp;lang=En&amp;year=2011&amp;ghg_id=G10320,Conventional Oil and Gas Extraction,http://stds.statcan.gc.ca/naics-scian/2007/cs-rc-eng.asp?criteria=211113,59.56450000,-121.05800000
342,Canfor Pulp Limited Partnership,Prince George Pulp and Paper and Intercontinental Pulp Mills,British Columbia,Prince George,2789 Prince George Pulp Mill Road,V2N2K3,4063,150.37,http://www.ec.gc.ca/ges-ghg/donnees-data/index.cfm?do=facility_info&amp;lang=En&amp;year=2011&amp;ghg_id=G10342,Chemical Pulp Mills,http://stds.statcan.gc.ca/naics-scian/2007/cs-rc-eng.asp?criteria=322112,53.92500000,-122.69440000
346,FortisBC Energy Inc.,FortisBC Energy Inc.,British Columbia,Surrey,16705 Fraser Highway,V4N0E8,,88.86,http://www.ec.gc.ca/ges-ghg/donnees-data/index.cfm?do=facility_info&amp;lang=En&amp;year=2011&amp;ghg_id=G10346,Natural Gas Distribution,http://stds.statcan.gc.ca/naics-scian/2007/cs-rc-eng.asp?criteria=221210,0.00000000,0.00000000
374,Neucel Specialty Cellulose,Neucel Specialty Cellulose (SFO),British Columbia,Port Alice,300 Marine Drive,V0N2N0,2377,160.06,http://www.ec.gc.ca/ges-ghg/donnees-data/index.cfm?do=facility_info&amp;lang=En&amp;year=2011&amp;ghg_id=G10374,Chemical Pulp Mills,http://stds.statcan.gc.ca/naics-scian/2007/cs-rc-eng.asp?criteria=322112,50.43250000,-127.49100000
377,Husky Oil Operations Limited,Sierra Gas Plant,British Columbia,Fort Nelson,C-091-D/094I-14,V0C1R0,3935,61.65,http://www.ec.gc.ca/ges-ghg/donnees-data/index.cfm?do=facility_info&amp;lang=En&amp;year=2011&amp;ghg_id=G10377,Conventional Oil and Gas Extraction,http://stds.statcan.gc.ca/naics-scian/2007/cs-rc-eng.asp?criteria=211113,58.83110000,-121.38590000
378,FortisBC Energy (Vancouver Island) Inc.,FortisBC Energy Vancouver Island,British Columbia,Surrey,16705 Fraser Highway,V4N0E8,,48.20,http://www.ec.gc.ca/ges-ghg/donnees-data/index.cfm?do=facility_info&amp;lang=En&amp;year=2011&amp;ghg_id=G10378,Natural Gas Distribution,http://stds.statcan.gc.ca/naics-scian/2007/cs-rc-eng.asp?criteria=221210,0.00000000,0.00000000
385,Teck Highland Valley Copper Partnership,Teck Highland Valley Copper Partnership,British Columbia,Logan Lake,97C Highway,V0K 1W0,3356,180.40,http://www.ec.gc.ca/ges-ghg/donnees-data/index.cfm?do=facility_info&amp;lang=En&amp;year=2011&amp;ghg_id=G10385,Copper-Zinc Ore Mining,http://stds.statcan.gc.ca/naics-scian/2007/cs-rc-eng.asp?criteria=212233,50.47420000,-121.02700000
388,Teck Coal Limited,Line Creek Operations,British Columbia,Sparwood,"Lat 49.95200, Long 114.75600",V0B2G0,7839,154.45,http://www.ec.gc.ca/ges-ghg/donnees-data/index.cfm?do=facility_info&amp;lang=En&amp;year=2011&amp;ghg_id=G10388,Bituminous Coal Mining,http://stds.statcan.gc.ca/naics-scian/2007/cs-rc-eng.asp?criteria=212114,49.88440000,-114.85280000
399,Western Coal Corp,Dillon / Brule Mine,British Columbia,Chetwynd,0 7 Blind Creek Road,V0C1J0,20078,67.47,http://www.ec.gc.ca/ges-ghg/donnees-data/index.cfm?do=facility_info&amp;lang=En&amp;year=2011&amp;ghg_id=G10399,Bituminous Coal Mining,http://stds.statcan.gc.ca/naics-scian/2007/cs-rc-eng.asp?criteria=212114,55.36580000,-121.76280000
400,Western Coal Corp,Wolverine Group- Perry Creek Mine,British Columbia,Tumbler Ridge,Wolverine Forest Service Road,V0C2W0,20116,100.14,http://www.ec.gc.ca/ges-ghg/donnees-data/index.cfm?do=facility_info&amp;lang=En&amp;year=2011&amp;ghg_id=G10400,Bituminous Coal Mining,http://stds.statcan.gc.ca/naics-scian/2007/cs-rc-eng.asp?criteria=212114,55.10330000,-121.35390000
426,Canadian Forest Products Ltd,Canfor Taylor Pulp,British Columbia,Taylor,0 8300 Cherry Avenue East,V0C2K0,1257,61.83,http://www.ec.gc.ca/ges-ghg/donnees-data/index.cfm?do=facility_info&amp;lang=En&amp;year=2011&amp;ghg_id=G10426,Mechanical Pulp Mills,http://stds.statcan.gc.ca/naics-scian/2007/cs-rc-eng.asp?criteria=322111,56.14500000,-120.65100000
430,Canadian Natural Resources Limited,Stoddart 02-34 Sour Gas Plant,British Columbia,Charlie Lake,02-34-087-21W6,N/A,5286,70.52,http://www.ec.gc.ca/ges-ghg/donnees-data/index.cfm?do=facility_info&amp;lang=En&amp;year=2011&amp;ghg_id=G10430,Conventional Oil and Gas Extraction,http://stds.statcan.gc.ca/naics-scian/2007/cs-rc-eng.asp?criteria=211113,56.58250000,-121.25400000
433,Capital Regional District,Hartland Landfill,British Columbia,Victoria,1 Hartland Avenue,V9E1J9,,114.28,http://www.ec.gc.ca/ges-ghg/donnees-data/index.cfm?do=facility_info&amp;lang=En&amp;year=2011&amp;ghg_id=G10433,Waste Treatment and Disposal,http://stds.statcan.gc.ca/naics-scian/2007/cs-rc-eng.asp?criteria=562210,0.00000000,0.00000000
439,CertainTeed Gypsum Canada Inc,Vancouver Wallboard Plant,British Columbia,Delta,1070 Derwent Way Way East,V3M5R1,7983,19.18,http://www.ec.gc.ca/ges-ghg/donnees-data/index.cfm?do=facility_info&amp;lang=En&amp;year=2011&amp;ghg_id=G10439,Gypsum Product Manufacturing,http://stds.statcan.gc.ca/naics-scian/2007/cs-rc-eng.asp?criteria=327420,49.16780000,-122.93860000
440,LHOIST NORTH AMERICA OF CANADA  INC.,Langley Plant,British Columbia,Langley,0 20303 102b Avenue,V1M3H1,7821,68.00,http://www.ec.gc.ca/ges-ghg/donnees-data/index.cfm?do=facility_info&amp;lang=En&amp;year=2011&amp;ghg_id=G10440,Lime Manufacturing,http://stds.statcan.gc.ca/naics-scian/2007/cs-rc-eng.asp?criteria=327410,49.19120000,-122.66050000
443,City of Vancouver,Vancouver Landfill,British Columbia,Delta,0 5400 72nd Street,V4K3N2,,305.00,http://www.ec.gc.ca/ges-ghg/donnees-data/index.cfm?do=facility_info&amp;lang=En&amp;year=2011&amp;ghg_id=G10443,Waste Treatment and Disposal,http://stds.statcan.gc.ca/naics-scian/2007/cs-rc-eng.asp?criteria=562210,0.00000000,0.00000000
457,EnCana Corporation,Sierra Sour Gas Plant,British Columbia,n/a,a-026-K/094-I-11,n/a,16765,130.68,http://www.ec.gc.ca/ges-ghg/donnees-data/index.cfm?do=facility_info&amp;lang=En&amp;year=2011&amp;ghg_id=G10457,Conventional Oil and Gas Extraction,http://stds.statcan.gc.ca/naics-scian/2007/cs-rc-eng.asp?criteria=211113,58.68560000,-121.31780000
458,EnCana Corporation,Steeprock Sour Gas Plant,British Columbia,n/a,c-064-A/093-P-08,n/a,21451,96.84,http://www.ec.gc.ca/ges-ghg/donnees-data/index.cfm?do=facility_info&amp;lang=En&amp;year=2011&amp;ghg_id=G10458,Conventional Oil and Gas Extraction,http://stds.statcan.gc.ca/naics-scian/2007/cs-rc-eng.asp?criteria=211113,55.30070000,-120.02840000
470,Greater Vancouver Sewerage and Drainage District,Metro Vancouver Waste-to-Energy Facility,British Columbia,Burnaby,0 5150 Riverbend Drive,V3N4V3,362,99.96,http://www.ec.gc.ca/ges-ghg/donnees-data/index.cfm?do=facility_info&amp;lang=En&amp;year=2011&amp;ghg_id=G10470,Waste Treatment and Disposal,http://stds.statcan.gc.ca/naics-scian/2007/cs-rc-eng.asp?criteria=562210,49.18660000,-122.97850000
551,Spectra Energy Midstream Corporation,Highway Gas Plant,British Columbia,Peace River District,0 Mile 121 Alaska Highway,V1J4H7,5124,52.95,http://www.ec.gc.ca/ges-ghg/donnees-data/index.cfm?do=facility_info&amp;lang=En&amp;year=2011&amp;ghg_id=G10551,Conventional Oil and Gas Extraction,http://stds.statcan.gc.ca/naics-scian/2007/cs-rc-eng.asp?criteria=211113,56.22780000,-120.81900000
552,Spectra Energy Midstream Corporation,Jedney I Gas Plant,British Columbia,Fort St. John,Mile 126 Alaska Hwy. Turn @ PetroCan Jedney sign.,V1J4H7,5125,55.90,http://www.ec.gc.ca/ges-ghg/donnees-data/index.cfm?do=facility_info&amp;lang=En&amp;year=2011&amp;ghg_id=G10552,Conventional Oil and Gas Extraction,http://stds.statcan.gc.ca/naics-scian/2007/cs-rc-eng.asp?criteria=211113,57.17330000,-122.17500000
553,Spectra Energy Midstream Corporation,Jedney II Gas Plant,British Columbia,Fort St. John,Mile 126 Alaska Hwy. Turn @ PetroCan Jedney sign.,V1J4h7,5125,56.38,http://www.ec.gc.ca/ges-ghg/donnees-data/index.cfm?do=facility_info&amp;lang=En&amp;year=2011&amp;ghg_id=G10553,Conventional Oil and Gas Extraction,http://stds.statcan.gc.ca/naics-scian/2007/cs-rc-eng.asp?criteria=211113,57.17330000,-122.17500000
568,Aitken Creek Gas Storage ULC,Aitken Creek Gas Storage ULC,British Columbia,Fort St John,Mile 115 Alaska Highway Highway North,V1J1Z9,7744,50.37,http://www.ec.gc.ca/ges-ghg/donnees-data/index.cfm?do=facility_info&amp;lang=En&amp;year=2011&amp;ghg_id=G10568,Conventional Oil and Gas Extraction,http://stds.statcan.gc.ca/naics-scian/2007/cs-rc-eng.asp?criteria=211113,56.95610000,-121.91560000
573,Wastech Services LTD.,Cache Creek Landfill,British Columbia,Cache Creek,525 South Trans Canada Highway,V0K1H0,,61.75,http://www.ec.gc.ca/ges-ghg/donnees-data/index.cfm?do=facility_info&amp;lang=En&amp;year=2011&amp;ghg_id=G10573,Waste Treatment and Disposal,http://stds.statcan.gc.ca/naics-scian/2007/cs-rc-eng.asp?criteria=562210,0.00000000,0.00000000
575,West Fraser Mills Ltd.,Quesnel River Pulp,British Columbia,Quesnel,1000 Finning Road,V2J5C3,9405,55.56,http://www.ec.gc.ca/ges-ghg/donnees-data/index.cfm?do=facility_info&amp;lang=En&amp;year=2011&amp;ghg_id=G10575,Mechanical Pulp Mills,http://stds.statcan.gc.ca/naics-scian/2007/cs-rc-eng.asp?criteria=322111,53.00666000,-122.49810000
599,CENTRAL HEAT DISTRIBUTION LIMITED,CENTRAL HEAT DISTRIBUTION LIMITED,British Columbia,Vancouver,1 720 Beatty Street North,V6B2M1,7819,99.79,http://www.ec.gc.ca/ges-ghg/donnees-data/index.cfm?do=facility_info&amp;lang=En&amp;year=2011&amp;ghg_id=G10599,Steam and Air-Conditioning Supply,http://stds.statcan.gc.ca/naics-scian/2007/cs-rc-eng.asp?criteria=221330,49.27820000,-123.11220000
615,Keyera Corp,Caribou Sour Gas Plant c-004-G,British Columbia,Pink Mountain,c-004-G/094-G-07,V1J 3Y6,20061,60.20,http://www.ec.gc.ca/ges-ghg/donnees-data/index.cfm?do=facility_info&amp;lang=En&amp;year=2011&amp;ghg_id=G10615,Conventional Oil and Gas Extraction,http://stds.statcan.gc.ca/naics-scian/2007/cs-rc-eng.asp?criteria=211113,57.33820000,-122.67220000
638,Spectra Energy Midstream Corporation,West Doe Plant,British Columbia,Peace River Regional Distr,1094 222 Road,T2P2V6,23196,70.27,http://www.ec.gc.ca/ges-ghg/donnees-data/index.cfm?do=facility_info&amp;lang=En&amp;year=2011&amp;ghg_id=G10638,Conventional Oil and Gas Extraction,http://stds.statcan.gc.ca/naics-scian/2007/cs-rc-eng.asp?criteria=211113,55.95800000,-120.20260000
641,Tembec,Tembec Skookumchuck Operation,British Columbia,Skookumchuck,4501 Farstad Way,V0B2E0,1185,56.20,http://www.ec.gc.ca/ges-ghg/donnees-data/index.cfm?do=facility_info&amp;lang=En&amp;year=2011&amp;ghg_id=G10641,Chemical Pulp Mills,http://stds.statcan.gc.ca/naics-scian/2007/cs-rc-eng.asp?criteria=322112,49.91510000,-115.75790000
647,Tree Island Industries Ltd,Tree Island Industries,British Columbia,Richmond,3933 Boundary Road,V6V1T8,5183,11.32,http://www.ec.gc.ca/ges-ghg/donnees-data/index.cfm?do=facility_info&amp;lang=En&amp;year=2011&amp;ghg_id=G10647,Steel Wire Drawing,http://stds.statcan.gc.ca/naics-scian/2007/cs-rc-eng.asp?criteria=331222,49.18800000,-122.95850000
650,Western Coal Corp,Willow Creek Mine,British Columbia,Chetwynd,11657 Willow Creek Forest Service Road Road,V0C1J0,20175,40.99,http://www.ec.gc.ca/ges-ghg/donnees-data/index.cfm?do=facility_info&amp;lang=En&amp;year=2011&amp;ghg_id=G10650,Bituminous Coal Mining,http://stds.statcan.gc.ca/naics-scian/2007/cs-rc-eng.asp?criteria=212114,55.60440000,-122.20070000
653,Zellstoff Celgar Limited Partnership,Zellstoff Celgar Limited Partnership,British Columbia,Castlegar,1921 Arrow Lakes Drive,V1N3H9,672,89.90,http://www.ec.gc.ca/ges-ghg/donnees-data/index.cfm?do=facility_info&amp;lang=En&amp;year=2011&amp;ghg_id=G10653,Chemical Pulp Mills,http://stds.statcan.gc.ca/naics-scian/2007/cs-rc-eng.asp?criteria=322112,49.33570000,-117.72800000
660,Shell Canada Limited,Montney Gas Processing and Production IF-a,British Columbia,Peace River E,04-15-080-19 W6M,V1J1W9,,119.86,http://www.ec.gc.ca/ges-ghg/donnees-data/index.cfm?do=facility_info&amp;lang=En&amp;year=2011&amp;ghg_id=G10660,Conventional Oil and Gas Extraction,http://stds.statcan.gc.ca/naics-scian/2007/cs-rc-eng.asp?criteria=211113,0.00000000,0.00000000
675,EnCana Corporation,Horn River Comp Stn c-067-K,British Columbia,n/a,c-067-K/094-O-08,n/a,23528,81.38,http://www.ec.gc.ca/ges-ghg/donnees-data/index.cfm?do=facility_info&amp;lang=En&amp;year=2011&amp;ghg_id=G10675,Conventional Oil and Gas Extraction,http://stds.statcan.gc.ca/naics-scian/2007/cs-rc-eng.asp?criteria=211113,59.47290000,-122.33440000
676,EnCana Corporation,Hythe Comp Stn A-005-G,British Columbia,n/a,a-005-G/093-P-09,n/a,22887,56.05,http://www.ec.gc.ca/ges-ghg/donnees-data/index.cfm?do=facility_info&amp;lang=En&amp;year=2011&amp;ghg_id=G10676,Conventional Oil and Gas Extraction,http://stds.statcan.gc.ca/naics-scian/2007/cs-rc-eng.asp?criteria=211113,55.58540000,-120.17810000
679,Gibraltar Mines Ltd.,Gibraltar Mine (SFO),British Columbia,McLeese Lake,10251 Gibraltar Mine Rd. Road,V0L1P0,1303,54.69,http://www.ec.gc.ca/ges-ghg/donnees-data/index.cfm?do=facility_info&amp;lang=En&amp;year=2011&amp;ghg_id=G10679,Copper-Zinc Ore Mining,http://stds.statcan.gc.ca/naics-scian/2007/cs-rc-eng.asp?criteria=212233,52.52990000,-122.28510000
682,Hope Bay Mining Ltd.,North Vancouver Office,British Columbia,North Vancouver,300 889 Harbourside  Drive,V7P3S1,,0.02,http://www.ec.gc.ca/ges-ghg/donnees-data/index.cfm?do=facility_info&amp;lang=En&amp;year=2011&amp;ghg_id=G10682,Gold and Silver Ore Mining,http://stds.statcan.gc.ca/naics-scian/2007/cs-rc-eng.asp?criteria=212220,0.00000000,0.00000000
695,QUINSAM COAL COPORATION,QUINSAM COAL CORP,British Columbia,CAMPBELL RIVER,12 ARGONAUT MAINE HWY28 Highway Northwest,V9W8A3,,98.23,http://www.ec.gc.ca/ges-ghg/donnees-data/index.cfm?do=facility_info&amp;lang=En&amp;year=2011&amp;ghg_id=G10695,Bituminous Coal Mining,http://stds.statcan.gc.ca/naics-scian/2007/cs-rc-eng.asp?criteria=212114,0.00000000,0.00000000
696,Ramshorn Canada Investments limited,Tattoo Compressor Station,British Columbia,Northen Rockies,d-068-B/ 094-O-15,V0C1R0,20219,29.13,http://www.ec.gc.ca/ges-ghg/donnees-data/index.cfm?do=facility_info&amp;lang=En&amp;year=2011&amp;ghg_id=G10696,Conventional Oil and Gas Extraction,http://stds.statcan.gc.ca/naics-scian/2007/cs-rc-eng.asp?criteria=211113,59.80500000,-122.71600000
26,"City of Winnipeg, Water & Waste Department",Brady Road Landfill,Manitoba,Winnipeg,1901 Brady Road,R3Y1T1,6896,380.53,http://www.ec.gc.ca/ges-ghg/donnees-data/index.cfm?do=facility_info&amp;lang=En&amp;year=2011&amp;ghg_id=G10026,Waste Treatment and Disposal,http://stds.statcan.gc.ca/naics-scian/2007/cs-rc-eng.asp?criteria=562210,49.75830000,-97.20040000
28,Manitoba Hydro,Brandon Generating Station,Manitoba,Brandon,3305 Victoria Avenue East,R7A7J8,821,82.15,http://www.ec.gc.ca/ges-ghg/donnees-data/index.cfm?do=facility_info&amp;lang=En&amp;year=2011&amp;ghg_id=G10028,Fossil-Fuel Electric Power Generation,http://stds.statcan.gc.ca/naics-scian/2007/cs-rc-eng.asp?criteria=221112,49.84490000,-99.88960000
113,Graymont Western Canada Inc.,Faulkner Plant,Manitoba,Faulkner,239 Highway West,R0C0Y0,6825,141.73,http://www.ec.gc.ca/ges-ghg/donnees-data/index.cfm?do=facility_info&amp;lang=En&amp;year=2011&amp;ghg_id=G10113,Lime Manufacturing,http://stds.statcan.gc.ca/naics-scian/2007/cs-rc-eng.asp?criteria=327410,51.41350000,-98.76500000
140,"Hudson Bay Mining and Smelting Co., Limited",Metallurgical Complex,Manitoba,Flin Flon,0 1 Company Road,R8A1N9,3414,41.35,http://www.ec.gc.ca/ges-ghg/donnees-data/index.cfm?do=facility_info&amp;lang=En&amp;year=2011&amp;ghg_id=G10140,Non-Ferrous Metal (except Aluminum) Smelting and Refining,http://stds.statcan.gc.ca/naics-scian/2007/cs-rc-eng.asp?criteria=331410,54.77100000,-101.88400000
182,Tolko Industries Ltd.,Manitoba Kraft Papers Division,Manitoba,The Pas,0 Tolko Rd. Highway North,R9A1L4,2051,96.53,http://www.ec.gc.ca/ges-ghg/donnees-data/index.cfm?do=facility_info&amp;lang=En&amp;year=2011&amp;ghg_id=G10182,Paper (except Newsprint) Mills,http://stds.statcan.gc.ca/naics-scian/2007/cs-rc-eng.asp?criteria=322121,53.86660000,-101.20000000
244,TransCanada PipeLines Ltd.,"TransCanada Pipeline, Manitoba",Manitoba,Winnipeg,104 Terracon Place Place,R2J4G7,,52.96,http://www.ec.gc.ca/ges-ghg/donnees-data/index.cfm?do=facility_info&amp;lang=En&amp;year=2011&amp;ghg_id=G10244,Pipeline Transportation of Natural Gas,http://stds.statcan.gc.ca/naics-scian/2007/cs-rc-eng.asp?criteria=486210,0.00000000,0.00000000
271,"Koch Fertilizer Canada, ULC","Koch Fertilizer Canada, ULC",Manitoba,Brandon,0 1400 17th Street East,R7A7C4,2515,701.11,http://www.ec.gc.ca/ges-ghg/donnees-data/index.cfm?do=facility_info&amp;lang=En&amp;year=2011&amp;ghg_id=G10271,Chemical Fertilizer (except Potash) Manufacturing,http://stds.statcan.gc.ca/naics-scian/2007/cs-rc-eng.asp?criteria=325313,49.83090000,-99.90780000
279,"City of Winnipeg, Water & Waste Department",Summit Road Landfill,Manitoba,Winnipeg,3000 Summit Road,R2Y2M1,,104.64,http://www.ec.gc.ca/ges-ghg/donnees-data/index.cfm?do=facility_info&amp;lang=En&amp;year=2011&amp;ghg_id=G10279,Waste Treatment and Disposal,http://stds.statcan.gc.ca/naics-scian/2007/cs-rc-eng.asp?criteria=562210,0.00000000,0.00000000
383,General Scrap Partnership,General Scrap - Winnipeg,Manitoba,Winnipeg,135 Bismarck Street North,R2H3B4,3768,1.60,http://www.ec.gc.ca/ges-ghg/donnees-data/index.cfm?do=facility_info&amp;lang=En&amp;year=2011&amp;ghg_id=G10383,All Other Miscellaneous Manufacturing,http://stds.statcan.gc.ca/naics-scian/2007/cs-rc-eng.asp?criteria=339990,49.92800000,-97.01920000
411,Husky Oil Operations Limited,Minnedosa Ethanol Plant,Manitoba,Minnedosa,359 5th Avenue Northwest,R0J1E0,6853,192.85,http://www.ec.gc.ca/ges-ghg/donnees-data/index.cfm?do=facility_info&amp;lang=En&amp;year=2011&amp;ghg_id=G10411,Other Basic Organic Chemical Manufacturing,http://stds.statcan.gc.ca/naics-scian/2007/cs-rc-eng.asp?criteria=325190,50.25430000,-99.84980000
444,"City of Winnipeg, Water & Waste Department",Kilcona Landfill,Manitoba,Winnipeg,1229 Springfield Road,R3E1X1,,60.95,http://www.ec.gc.ca/ges-ghg/donnees-data/index.cfm?do=facility_info&amp;lang=En&amp;year=2011&amp;ghg_id=G10444,Waste Treatment and Disposal,http://stds.statcan.gc.ca/naics-scian/2007/cs-rc-eng.asp?criteria=562210,0.00000000,0.00000000
569,Vale Canada Limited,Thompson Operations,Manitoba,Thompson,1 Inco Road,R8N1P3,1473,55.66,http://www.ec.gc.ca/ges-ghg/donnees-data/index.cfm?do=facility_info&amp;lang=En&amp;year=2011&amp;ghg_id=G10569,Nickel-Copper Ore Mining,http://stds.statcan.gc.ca/naics-scian/2007/cs-rc-eng.asp?criteria=212232,55.71380000,-97.85610000
678,Gerdau Ameristeel Corporation,"Gerdau Ameristeel Corporation, Manitoba Mill",Manitoba,Selkirk,27 Main Street,R1A1P6,1651,52.81,http://www.ec.gc.ca/ges-ghg/donnees-data/index.cfm?do=facility_info&amp;lang=En&amp;year=2011&amp;ghg_id=G10678,Iron and Steel Mills and Ferro-Alloy Manufacturing,http://stds.statcan.gc.ca/naics-scian/2007/cs-rc-eng.asp?criteria=331110,50.13020000,-96.90130000
692,Penn West Petroleum Ltd,Waskada,Manitoba,N/A,11-30-001-25W1,N/A,23116,55.34,http://www.ec.gc.ca/ges-ghg/donnees-data/index.cfm?do=facility_info&amp;lang=En&amp;year=2011&amp;ghg_id=G10692,Conventional Oil and Gas Extraction,http://stds.statcan.gc.ca/naics-scian/2007/cs-rc-eng.asp?criteria=211113,49.06740000,-100.81550000
20,Bayside Power L.P.,Bayside Power,New Brunswick,Saint John,0 509 Bayside Drive,E2J1B4,5084,754.72,http://www.ec.gc.ca/ges-ghg/donnees-data/index.cfm?do=facility_info&amp;lang=En&amp;year=2011&amp;ghg_id=G10020,Fossil-Fuel Electric Power Generation,http://stds.statcan.gc.ca/naics-scian/2007/cs-rc-eng.asp?criteria=221112,45.27530000,-66.02690000
22,NB Power Generation Corporation,Belledune Generating Station,New Brunswick,Belledune,1558 Main Street,E8G2M3,1698,2722.92,http://www.ec.gc.ca/ges-ghg/donnees-data/index.cfm?do=facility_info&amp;lang=En&amp;year=2011&amp;ghg_id=G10022,Fossil-Fuel Electric Power Generation,http://stds.statcan.gc.ca/naics-scian/2007/cs-rc-eng.asp?criteria=221112,47.90580000,-65.86700000
35,Xstrata Canada Corporation - Duplicate,Brunswick Smelter,New Brunswick,Belledune,692 Main Street,E8G2M1,4024,195.34,http://www.ec.gc.ca/ges-ghg/donnees-data/index.cfm?do=facility_info&amp;lang=En&amp;year=2011&amp;ghg_id=G10035,Non-Ferrous Metal (except Aluminum) Smelting and Refining,http://stds.statcan.gc.ca/naics-scian/2007/cs-rc-eng.asp?criteria=331410,47.89920000,-65.83390000
74,NB Power Generation Corporation,Coleson Cove Generating Station,New Brunswick,Saint John,4077 King William Road,E2M7T7,1696,357.91,http://www.ec.gc.ca/ges-ghg/donnees-data/index.cfm?do=facility_info&amp;lang=En&amp;year=2011&amp;ghg_id=G10074,Fossil-Fuel Electric Power Generation,http://stds.statcan.gc.ca/naics-scian/2007/cs-rc-eng.asp?criteria=221112,45.15340000,-66.20250000
83,NB Power Generation Corporation,Dalhousie Generating Station,New Brunswick,Dalhousie,101 Thermal Lane,E8C2N7,1712,205.85,http://www.ec.gc.ca/ges-ghg/donnees-data/index.cfm?do=facility_info&amp;lang=En&amp;year=2011&amp;ghg_id=G10083,Fossil-Fuel Electric Power Generation,http://stds.statcan.gc.ca/naics-scian/2007/cs-rc-eng.asp?criteria=221112,48.05190000,-66.37020000
99,Twin Rivers Paper Company Inc.,Edmundston Pulp Mill,New Brunswick,Edmundston,27 Rice Street,E3V1S9,1221,35.78,http://www.ec.gc.ca/ges-ghg/donnees-data/index.cfm?do=facility_info&amp;lang=En&amp;year=2011&amp;ghg_id=G10099,Chemical Pulp Mills,http://stds.statcan.gc.ca/naics-scian/2007/cs-rc-eng.asp?criteria=322112,47.37490000,-68.33330000
247,Irving Oil Refining G.P.,Refinery,New Brunswick,Saint John,340 Loch Lommond Road,E2L4H6,4101,3104.00,http://www.ec.gc.ca/ges-ghg/donnees-data/index.cfm?do=facility_info&amp;lang=En&amp;year=2011&amp;ghg_id=G10247,Petroleum Refineries,http://stds.statcan.gc.ca/naics-scian/2007/cs-rc-eng.asp?criteria=324110,45.28380000,-66.01020000
334,Irving Paper Limited,Irving Paper,New Brunswick,Saint John,435 Bayside Drive,E2L4K9,3394,89.96,http://www.ec.gc.ca/ges-ghg/donnees-data/index.cfm?do=facility_info&amp;lang=En&amp;year=2011&amp;ghg_id=G10334,Paper (except Newsprint) Mills,http://stds.statcan.gc.ca/naics-scian/2007/cs-rc-eng.asp?criteria=322121,45.27880000,-66.02490000
355,AV Nackawic Inc.,AV Nackawic,New Brunswick,Nackawic,103 Pinder Road,E6G1W4,2181,116.27,http://www.ec.gc.ca/ges-ghg/donnees-data/index.cfm?do=facility_info&amp;lang=En&amp;year=2011&amp;ghg_id=G10355,Chemical Pulp Mills,http://stds.statcan.gc.ca/naics-scian/2007/cs-rc-eng.asp?criteria=322112,46.01110000,-67.22650000
386,Irving Pulp & Paper Ltd.,Irving Pulp & Paper,New Brunswick,Saint John,408 Mill Street West,E2M3H1,2604,86.88,http://www.ec.gc.ca/ges-ghg/donnees-data/index.cfm?do=facility_info&amp;lang=En&amp;year=2011&amp;ghg_id=G10386,Chemical Pulp Mills,http://stds.statcan.gc.ca/naics-scian/2007/cs-rc-eng.asp?criteria=322112,45.26200000,-66.09240000
489,"Lake Utopia Paper A Division of J.D. Irving, Limited","Lake Utopia Paper A Division of J.D. Irving, Limited",New Brunswick,Utopia,600 Route 785,E5C2K4,1572,40.96,http://www.ec.gc.ca/ges-ghg/donnees-data/index.cfm?do=facility_info&amp;lang=En&amp;year=2011&amp;ghg_id=G10489,Paperboard Mills,http://stds.statcan.gc.ca/naics-scian/2007/cs-rc-eng.asp?criteria=322130,45.15670000,-66.77140000
594,Canaport LNG Limited Partnership,Canaport LNG Limited Partnership Marine Terminal & Multi-Purp,New Brunswick,Saint John,2530 Red Head Road,E2L3T5,8125,79.39,http://www.ec.gc.ca/ges-ghg/donnees-data/index.cfm?do=facility_info&amp;lang=En&amp;year=2011&amp;ghg_id=G10594,Natural Gas Distribution,http://stds.statcan.gc.ca/naics-scian/2007/cs-rc-eng.asp?criteria=221210,45.21250000,-65.97810000
655,Xstrata Canada Corporation,Brunswick Mine,New Brunswick,Bathurst,Highway 430 Highway West,E8G2M1,54,63.65,http://www.ec.gc.ca/ges-ghg/donnees-data/index.cfm?do=facility_info&amp;lang=En&amp;year=2011&amp;ghg_id=G10655,Lead-Zinc Ore Mining,http://stds.statcan.gc.ca/naics-scian/2007/cs-rc-eng.asp?criteria=212231,47.47170000,-65.88970000
52,Iron Ore Company of Canada,Carol Project,Newfoundland and Labrador,Labrador City,2 Avalon Street,A2V2Y6,5013,948.95,http://www.ec.gc.ca/ges-ghg/donnees-data/index.cfm?do=facility_info&amp;lang=En&amp;year=2011&amp;ghg_id=G10052,Iron Ore Mining,http://stds.statcan.gc.ca/naics-scian/2007/cs-rc-eng.asp?criteria=212210,52.95650000,-66.89360000
142,Hibernia Management and Development Company Limited,Hibernia Platform,Newfoundland and Labrador,St. John's,"Lat 46.75040, Long 48.78290",A1C6K3,6096,500.44,http://www.ec.gc.ca/ges-ghg/donnees-data/index.cfm?do=facility_info&amp;lang=En&amp;year=2011&amp;ghg_id=G10142,Conventional Oil and Gas Extraction,http://stds.statcan.gc.ca/naics-scian/2007/cs-rc-eng.asp?criteria=211113,46.75040000,-48.78290000
145,Newfoundland and Labrador Hydro,Holyrood Thermal Generating Station,Newfoundland and Labrador,Holyrood,Duff's Road,A0A2R0,4882,734.43,http://www.ec.gc.ca/ges-ghg/donnees-data/index.cfm?do=facility_info&amp;lang=En&amp;year=2011&amp;ghg_id=G10145,Fossil-Fuel Electric Power Generation,http://stds.statcan.gc.ca/naics-scian/2007/cs-rc-eng.asp?criteria=221112,47.45060000,-53.09630000
206,North Atlantic Refining LP,North Atlantic Refinery,Newfoundland and Labrador,Come by Chance,1 Refinery Road,A0B1N0,4316,897.21,http://www.ec.gc.ca/ges-ghg/donnees-data/index.cfm?do=facility_info&amp;lang=En&amp;year=2011&amp;ghg_id=G10206,Petroleum Refineries,http://stds.statcan.gc.ca/naics-scian/2007/cs-rc-eng.asp?criteria=324110,47.79800000,-53.99380000
284,Suncor Energy Inc.,Terra Nova,Newfoundland and Labrador,St. John's,"Lat 46.28310, Long 48.28510",A1C1B6,17631,601.57,http://www.ec.gc.ca/ges-ghg/donnees-data/index.cfm?do=facility_info&amp;lang=En&amp;year=2011&amp;ghg_id=G10284,Conventional Oil and Gas Extraction,http://stds.statcan.gc.ca/naics-scian/2007/cs-rc-eng.asp?criteria=211113,46.47500000,-48.47940000
350,Mines Wabush,Wabush Mines - Scully,Newfoundland and Labrador,Wabush,10 Commercial Street,A0R1B0,5460,93.10,http://www.ec.gc.ca/ges-ghg/donnees-data/index.cfm?do=facility_info&amp;lang=En&amp;year=2011&amp;ghg_id=G10350,Iron Ore Mining,http://stds.statcan.gc.ca/naics-scian/2007/cs-rc-eng.asp?criteria=212210,52.90770000,-66.91090000
354,Husky Oil Operations Limited,Sea Rose FPSO,Newfoundland and Labrador,St John's,901 235 Water Street,A1C1B6,8060,391.34,http://www.ec.gc.ca/ges-ghg/donnees-data/index.cfm?do=facility_info&amp;lang=En&amp;year=2011&amp;ghg_id=G10354,Conventional Oil and Gas Extraction,http://stds.statcan.gc.ca/naics-scian/2007/cs-rc-eng.asp?criteria=211113,46.72150000,-48.13410000
570,Vale Newfoundland and Labrador Limited,Voisey's Bay Mine Site,Newfoundland and Labrador,Happy Valley-Goose Bay,"Lat 56.33250, Long 62.09850",A0P1C0,6093,88.15,http://www.ec.gc.ca/ges-ghg/donnees-data/index.cfm?do=facility_info&amp;lang=En&amp;year=2011&amp;ghg_id=G10570,Nickel-Copper Ore Mining,http://stds.statcan.gc.ca/naics-scian/2007/cs-rc-eng.asp?criteria=212232,56.33250000,-62.09850000
101,BHP Billiton Canada Inc.,EKATI Diamond Mine,Northwest Territories,Yellowknife,1102 4920 52nd Street,X1A3T1,5236,154.22,http://www.ec.gc.ca/ges-ghg/donnees-data/index.cfm?do=facility_info&amp;lang=En&amp;year=2011&amp;ghg_id=G10101,Diamond Mines,http://stds.statcan.gc.ca/naics-scian/2007/cs-rc-eng.asp?criteria=212392,64.71950000,-110.62010000
204,Imperial Oil Resources,Norman Wells Central Processing Facility,Northwest Territories,Norman Wells,1001 Canol Drive,X0E0V0,428,109.14,http://www.ec.gc.ca/ges-ghg/donnees-data/index.cfm?do=facility_info&amp;lang=En&amp;year=2011&amp;ghg_id=G10204,Conventional Oil and Gas Extraction,http://stds.statcan.gc.ca/naics-scian/2007/cs-rc-eng.asp?criteria=211113,65.28730000,-126.88120000
381,Diavik Diamond Mines Inc.,Diavik Diamond Mines Inc - Lac de Gras,Northwest Territories,Yellowknife,5007 50th Avenue,X1A2P8,18241,191.58,http://www.ec.gc.ca/ges-ghg/donnees-data/index.cfm?do=facility_info&amp;lang=En&amp;year=2011&amp;ghg_id=G10381,Diamond Mines,http://stds.statcan.gc.ca/naics-scian/2007/cs-rc-eng.asp?criteria=212392,64.49510000,-110.28320000
584,De Beers Canada Incorporated,Snap Lake Mine,Northwest Territories,Snap Lake,Lease 75M/10-1Lease 75M/10-2Lease 75M/10-3Lease 75M/10-4,X1A 2P9,18714,99.53,http://www.ec.gc.ca/ges-ghg/donnees-data/index.cfm?do=facility_info&amp;lang=En&amp;year=2011&amp;ghg_id=G10584,Diamond Mines,http://stds.statcan.gc.ca/naics-scian/2007/cs-rc-eng.asp?criteria=212392,63.60500000,-110.86760000
587,Agnico-Eagle Meadowbank,Division Meadowbank,Nunavut,Baker Lake,"6501'49'N - 9605'24,44652'W",X0C0A0,24216,164.62,http://www.ec.gc.ca/ges-ghg/donnees-data/index.cfm?do=facility_info&amp;lang=En&amp;year=2011&amp;ghg_id=G10587,Gold and Silver Ore Mining,http://stds.statcan.gc.ca/naics-scian/2007/cs-rc-eng.asp?criteria=212220,65.01490000,-96.05240000
681,Hope Bay Mining Ltd.,Hope Bay Site,Nunavut,nearest - Cambridge Bay,"Lat 68.13925, Long 106.61072",X0B0C0,,34.43,http://www.ec.gc.ca/ges-ghg/donnees-data/index.cfm?do=facility_info&amp;lang=En&amp;year=2011&amp;ghg_id=G10681,Gold and Silver Ore Mining,http://stds.statcan.gc.ca/naics-scian/2007/cs-rc-eng.asp?criteria=212220,0.00000000,0.00000000
4,Kingston CoGen Limited Partnership,Kingston CoGen,Ontario,Bath,5146 Taylor-Kidd Boulevard,K0H1G0,5765,338.06,http://www.ec.gc.ca/ges-ghg/donnees-data/index.cfm?do=facility_info&amp;lang=En&amp;year=2011&amp;ghg_id=G10004,Fossil-Fuel Electric Power Generation,http://stds.statcan.gc.ca/naics-scian/2007/cs-rc-eng.asp?criteria=221112,44.20950000,-76.72460000
11,Essar Steel Algoma Inc.,Essar Steel Algoma Inc,Ontario,Sault Ste. Marie,105 West Street North,P6A7B4,1070,2559.41,http://www.ec.gc.ca/ges-ghg/donnees-data/index.cfm?do=facility_info&amp;lang=En&amp;year=2011&amp;ghg_id=G10011,Iron and Steel Mills and Ferro-Alloy Manufacturing,http://stds.statcan.gc.ca/naics-scian/2007/cs-rc-eng.asp?criteria=331110,46.52080000,-84.36970000
16,Ontario Power Generation Inc.,Atikokan Generating Station,Ontario,Atikokan,15202 622 Highway,P0T1C0,3238,78.08,http://www.ec.gc.ca/ges-ghg/donnees-data/index.cfm?do=facility_info&amp;lang=En&amp;year=2011&amp;ghg_id=G10016,Fossil-Fuel Electric Power Generation,http://stds.statcan.gc.ca/naics-scian/2007/cs-rc-eng.asp?criteria=221112,48.83610000,-91.56560000
25,AbibowCanada Inc.,Thunder Bay Operations,Ontario,Thunder Bay,2001 Neebing Avenue,P7E6S3,930,94.11,http://www.ec.gc.ca/ges-ghg/donnees-data/index.cfm?do=facility_info&amp;lang=En&amp;year=2011&amp;ghg_id=G10025,Chemical Pulp Mills,http://stds.statcan.gc.ca/naics-scian/2007/cs-rc-eng.asp?criteria=322112,48.34860000,-89.30670000
27,Chrysler Canada Inc.,Brampton Assembly Plant,Ontario,Brampton,2000 Williams Parkway East,L6S6B3,4173,80.45,http://www.ec.gc.ca/ges-ghg/donnees-data/index.cfm?do=facility_info&amp;lang=En&amp;year=2011&amp;ghg_id=G10027,Automobile and Light-Duty Motor Vehicle Manufacturing,http://stds.statcan.gc.ca/naics-scian/2007/cs-rc-eng.asp?criteria=336110,43.75120000,-79.71680000
31,Brighton Beach Power L.P.,Brighton Beach Power,Ontario,Windsor,100 Chappus Street,N9C4J3,11009,155.49,http://www.ec.gc.ca/ges-ghg/donnees-data/index.cfm?do=facility_info&amp;lang=En&amp;year=2011&amp;ghg_id=G10031,Fossil-Fuel Electric Power Generation,http://stds.statcan.gc.ca/naics-scian/2007/cs-rc-eng.asp?criteria=221112,42.27980000,-83.09460000
32,City of Toronto,Brock West Landfill,Ontario,Pickering,1390 3rd Concession,L1X2R4,,55.46,http://www.ec.gc.ca/ges-ghg/donnees-data/index.cfm?do=facility_info&amp;lang=En&amp;year=2011&amp;ghg_id=G10032,Waste Treatment and Disposal,http://stds.statcan.gc.ca/naics-scian/2007/cs-rc-eng.asp?criteria=562210,0.00000000,0.00000000
39,Cabot Canada Limited,Cabot Canada Limited,Ontario,Sarnia,800 Tashmoo Avenue,N7T7N4,5808,222.90,http://www.ec.gc.ca/ges-ghg/donnees-data/index.cfm?do=facility_info&amp;lang=En&amp;year=2011&amp;ghg_id=G10039,All Other Basic Inorganic Chemical Manufacturing,http://stds.statcan.gc.ca/naics-scian/2007/cs-rc-eng.asp?criteria=325189,42.94370000,-82.41530000
43,Carmeuse Lime Canada,Northern Lime Limited,Ontario,Blind River,17 Highway 17 Highway East,P0R1B0,10138,108.17,http://www.ec.gc.ca/ges-ghg/donnees-data/index.cfm?do=facility_info&amp;lang=En&amp;year=2011&amp;ghg_id=G10043,Lime Manufacturing,http://stds.statcan.gc.ca/naics-scian/2007/cs-rc-eng.asp?criteria=327410,46.19820000,-82.69890000
47,"Cardinal Power of Canada, L.P.",Cardinal Power,Ontario,Cardinal,170 Henry Street,K0E1E0,4480,557.02,http://www.ec.gc.ca/ges-ghg/donnees-data/index.cfm?do=facility_info&amp;lang=En&amp;year=2011&amp;ghg_id=G10047,Fossil-Fuel Electric Power Generation,http://stds.statcan.gc.ca/naics-scian/2007/cs-rc-eng.asp?criteria=221112,44.78460000,-75.37730000
50,Carmeuse Lime Canada,Dundas Operations,Ontario,Dundas,600 5 Highway West,L9H3S9,10139,421.10,http://www.ec.gc.ca/ges-ghg/donnees-data/index.cfm?do=facility_info&amp;lang=En&amp;year=2011&amp;ghg_id=G10050,Lime Manufacturing,http://stds.statcan.gc.ca/naics-scian/2007/cs-rc-eng.asp?criteria=327410,43.35210000,-79.86790000
51,Carmeuse Lime Canada,Beachville Operation,Ontario,Ingersoll,Oxford County 6 Road,N5C3K5,10140,505.52,http://www.ec.gc.ca/ges-ghg/donnees-data/index.cfm?do=facility_info&amp;lang=En&amp;year=2011&amp;ghg_id=G10051,Lime Manufacturing,http://stds.statcan.gc.ca/naics-scian/2007/cs-rc-eng.asp?criteria=327410,43.06870000,-80.85800000
57,Canada Starch Operating Company Inc.,Casco Inc. - London Plant,Ontario,London,1100 Green Valley Road,N6N1E3,485,120.39,http://www.ec.gc.ca/ges-ghg/donnees-data/index.cfm?do=facility_info&amp;lang=En&amp;year=2011&amp;ghg_id=G10057,Wet Corn Milling,http://stds.statcan.gc.ca/naics-scian/2007/cs-rc-eng.asp?criteria=311221,42.92170000,-81.19420000
72,Northland Power Inc.,Cochrane Generating Station,Ontario,Cochrane,506 4th Street East,P0L1C0,1773,114.95,http://www.ec.gc.ca/ges-ghg/donnees-data/index.cfm?do=facility_info&amp;lang=En&amp;year=2011&amp;ghg_id=G10072,Fossil-Fuel Electric Power Generation,http://stds.statcan.gc.ca/naics-scian/2007/cs-rc-eng.asp?criteria=221112,49.06250000,-81.01360000
75,Greenfield Ethanol Inc.,Chatham Plant,Ontario,Chatham,275 Bloomfield Road,N7M5J5,5739,283.86,http://www.ec.gc.ca/ges-ghg/donnees-data/index.cfm?do=facility_info&amp;lang=En&amp;year=2011&amp;ghg_id=G10075,Other Basic Organic Chemical Manufacturing,http://stds.statcan.gc.ca/naics-scian/2007/cs-rc-eng.asp?criteria=325190,42.38390000,-82.22180000
77,Vale Canada Limited,Copper Cliff Nickel Refinery,Ontario,Copper Cliff,175 Industrial Road,P0M1N0,1467,110.24,http://www.ec.gc.ca/ges-ghg/donnees-data/index.cfm?do=facility_info&amp;lang=En&amp;year=2011&amp;ghg_id=G10077,Non-Ferrous Metal (except Aluminum) Smelting and Refining,http://stds.statcan.gc.ca/naics-scian/2007/cs-rc-eng.asp?criteria=331410,46.44520000,-81.08460000
78,Vale Canada Limited,Copper Cliff Smelter,Ontario,Copper Cliff,18 Rink Street,P0M1N0,444,261.41,http://www.ec.gc.ca/ges-ghg/donnees-data/index.cfm?do=facility_info&amp;lang=En&amp;year=2011&amp;ghg_id=G10078,Non-Ferrous Metal (except Aluminum) Smelting and Refining,http://stds.statcan.gc.ca/naics-scian/2007/cs-rc-eng.asp?criteria=331410,46.47860000,-81.05530000
91,ArcelorMittal Dofasco Inc.,Dofasco Hamilton,Ontario,Hamilton,1330 Burlington Street East,L8N3J5,3713,5261.88,http://www.ec.gc.ca/ges-ghg/donnees-data/index.cfm?do=facility_info&amp;lang=En&amp;year=2011&amp;ghg_id=G10091,Iron and Steel Mills and Ferro-Alloy Manufacturing,http://stds.statcan.gc.ca/naics-scian/2007/cs-rc-eng.asp?criteria=331110,43.25970000,-79.81110000
93,Domtar Inc.,Espanola Mill,Ontario,Espanola,1 Station Road,P5E1R6,3185,124.80,http://www.ec.gc.ca/ges-ghg/donnees-data/index.cfm?do=facility_info&amp;lang=En&amp;year=2011&amp;ghg_id=G10093,Paper (except Newsprint) Mills,http://stds.statcan.gc.ca/naics-scian/2007/cs-rc-eng.asp?criteria=322121,46.26810000,-81.76830000
109,Enbridge Gas Distribution Inc.,Enbridge Gas Distribution Inc.,Ontario,North York,500 Consumers Road,M2J1P8,,243.31,http://www.ec.gc.ca/ges-ghg/donnees-data/index.cfm?do=facility_info&amp;lang=En&amp;year=2011&amp;ghg_id=G10109,Natural Gas Distribution,http://stds.statcan.gc.ca/naics-scian/2007/cs-rc-eng.asp?criteria=221210,0.00000000,0.00000000
114,Federal White Cement Ltd.,Woodstock Plant,Ontario,Woodstock,3551551 35th Line,N0J1J0,5946,312.73,http://www.ec.gc.ca/ges-ghg/donnees-data/index.cfm?do=facility_info&amp;lang=En&amp;year=2011&amp;ghg_id=G10114,Cement Manufacturing,http://stds.statcan.gc.ca/naics-scian/2007/cs-rc-eng.asp?criteria=327310,43.09890000,-80.89430000
116,AbibowCanada Inc.,Fort Frances Division,Ontario,Fort Frances,427 Mowat Avenue,P9A1Y8,917,124.84,http://www.ec.gc.ca/ges-ghg/donnees-data/index.cfm?do=facility_info&amp;lang=En&amp;year=2011&amp;ghg_id=G10116,Paper (except Newsprint) Mills,http://stds.statcan.gc.ca/naics-scian/2007/cs-rc-eng.asp?criteria=322121,48.61110000,-93.40340000
128,Gerdau Ameristeel Corporation,Gerdau Whitby,Ontario,Whitby,1801 Hopkins Street South,L1N5T1,3824,85.48,http://www.ec.gc.ca/ges-ghg/donnees-data/index.cfm?do=facility_info&amp;lang=En&amp;year=2011&amp;ghg_id=G10128,Iron and Steel Mills and Ferro-Alloy Manufacturing,http://stds.statcan.gc.ca/naics-scian/2007/cs-rc-eng.asp?criteria=331110,43.85780000,-78.90970000
133,Columbian Chemicals Canada Ltd.,Hamilton,Ontario,Hamilton,755 Parkdale Avenue North,L8H7N5,2660,238.05,http://www.ec.gc.ca/ges-ghg/donnees-data/index.cfm?do=facility_info&amp;lang=En&amp;year=2011&amp;ghg_id=G10133,All Other Basic Inorganic Chemical Manufacturing,http://stds.statcan.gc.ca/naics-scian/2007/cs-rc-eng.asp?criteria=325189,43.25880000,-79.78430000
149,INVISTA (Canada) Company,Maitland Site,Ontario,Maitland,1400 County #2 Road East,K0E1P0,1207,236.77,http://www.ec.gc.ca/ges-ghg/donnees-data/index.cfm?do=facility_info&amp;lang=En&amp;year=2011&amp;ghg_id=G10149,Other Basic Organic Chemical Manufacturing,http://stds.statcan.gc.ca/naics-scian/2007/cs-rc-eng.asp?criteria=325190,44.66060000,-75.60170000
151,Northland Power Inc.,Iroquois Falls Generating Station,Ontario,Iroquois Falls,1 Northwest Industrial Road,P0K1G0,4904,382.26,http://www.ec.gc.ca/ges-ghg/donnees-data/index.cfm?do=facility_info&amp;lang=En&amp;year=2011&amp;ghg_id=G10151,Fossil-Fuel Electric Power Generation,http://stds.statcan.gc.ca/naics-scian/2007/cs-rc-eng.asp?criteria=221112,48.76960000,-80.66690000
161,City of Toronto,Keele Valley Landfill,Ontario,Maple,McNaughton Road,L6A1S5,7371,410.26,http://www.ec.gc.ca/ges-ghg/donnees-data/index.cfm?do=facility_info&amp;lang=En&amp;year=2011&amp;ghg_id=G10161,Waste Treatment and Disposal,http://stds.statcan.gc.ca/naics-scian/2007/cs-rc-eng.asp?criteria=562210,43.86830000,-79.49840000
163,TransCanada PipeLines Ltd.,"TransCanada Pipeline, Ontario",Ontario,Kenora,1644 Veterans Drive,P9N0C1,,726.42,http://www.ec.gc.ca/ges-ghg/donnees-data/index.cfm?do=facility_info&amp;lang=En&amp;year=2011&amp;ghg_id=G10163,Pipeline Transportation of Natural Gas,http://stds.statcan.gc.ca/naics-scian/2007/cs-rc-eng.asp?criteria=486210,0.00000000,0.00000000
165,Northland Power Inc.,Kirkland Lake Generating Station,Ontario,Kirkland Lake,505 Archer's Drive,P2N3M7,1770,317.55,http://www.ec.gc.ca/ges-ghg/donnees-data/index.cfm?do=facility_info&amp;lang=En&amp;year=2011&amp;ghg_id=G10165,Fossil-Fuel Electric Power Generation,http://stds.statcan.gc.ca/naics-scian/2007/cs-rc-eng.asp?criteria=221112,48.13470000,-80.04250000
171,Lafarge Canada Inc.,Bath Cement Plant,Ontario,Bath,6501 33 Highway,K0H1G0,5850,705.40,http://www.ec.gc.ca/ges-ghg/donnees-data/index.cfm?do=facility_info&amp;lang=En&amp;year=2011&amp;ghg_id=G10171,Cement Manufacturing,http://stds.statcan.gc.ca/naics-scian/2007/cs-rc-eng.asp?criteria=327310,44.16640000,-76.80260000
175,Ontario Power Generation Inc.,Lambton Generating Station,Ontario,Courtright,1886 St. Clair Parkway,N0N1H0,1809,1265.65,http://www.ec.gc.ca/ges-ghg/donnees-data/index.cfm?do=facility_info&amp;lang=En&amp;year=2011&amp;ghg_id=G10175,Fossil-Fuel Electric Power Generation,http://stds.statcan.gc.ca/naics-scian/2007/cs-rc-eng.asp?criteria=221112,42.79610000,-82.46970000
177,Ontario Power Generation Inc.,Lennox Generating Station,Ontario,Greater Napanee,0 7263 33 Highway West,K0H1G0,1812,103.65,http://www.ec.gc.ca/ges-ghg/donnees-data/index.cfm?do=facility_info&amp;lang=En&amp;year=2011&amp;ghg_id=G10177,Fossil-Fuel Electric Power Generation,http://stds.statcan.gc.ca/naics-scian/2007/cs-rc-eng.asp?criteria=221112,44.14390000,-76.84920000
190,TransAlta Generation Partnership,Mississauga Cogeneration Plant,Ontario,Mississauga,2740 Derry Road East,L4T4J5,4873,332.64,http://www.ec.gc.ca/ges-ghg/donnees-data/index.cfm?do=facility_info&amp;lang=En&amp;year=2011&amp;ghg_id=G10190,Fossil-Fuel Electric Power Generation,http://stds.statcan.gc.ca/naics-scian/2007/cs-rc-eng.asp?criteria=221112,43.70160000,-79.64330000
191,Petro-Canada Lubricants Inc.,Mississauga Lubricants Centre,Ontario,Mississauga,385 Southdown Road,L5J2Y3,3899,393.96,http://www.ec.gc.ca/ges-ghg/donnees-data/index.cfm?do=facility_info&amp;lang=En&amp;year=2011&amp;ghg_id=G10191,Other Petroleum and Coal Product Manufacturing,http://stds.statcan.gc.ca/naics-scian/2007/cs-rc-eng.asp?criteria=324190,43.50120000,-79.61010000
192,Holcim (Canada) inc.,Mississauga Cement Plant,Ontario,Mississauga,2391 Lakeshore Road,L5J1K1,2182,975.18,http://www.ec.gc.ca/ges-ghg/donnees-data/index.cfm?do=facility_info&amp;lang=En&amp;year=2011&amp;ghg_id=G10192,Cement Manufacturing,http://stds.statcan.gc.ca/naics-scian/2007/cs-rc-eng.asp?criteria=327310,43.49720000,-79.62770000
193,The Corporation of the City of Brantford,Mohawk Street Landfill,Ontario,Brantford,20 Morrison Road,N3T2M3,10433,59.91,http://www.ec.gc.ca/ges-ghg/donnees-data/index.cfm?do=facility_info&amp;lang=En&amp;year=2011&amp;ghg_id=G10193,Waste Treatment and Disposal,http://stds.statcan.gc.ca/naics-scian/2007/cs-rc-eng.asp?criteria=562210,43.12620000,-80.22850000
198,Ontario Power Generation Inc.,Nanticoke Generating Station,Ontario,Nanticoke,34 Haldimand Rd 55 Road South,N0A1L0,1861,2836.30,http://www.ec.gc.ca/ges-ghg/donnees-data/index.cfm?do=facility_info&amp;lang=En&amp;year=2011&amp;ghg_id=G10198,Fossil-Fuel Electric Power Generation,http://stds.statcan.gc.ca/naics-scian/2007/cs-rc-eng.asp?criteria=221112,42.79610000,-80.05000000
199,Imperial Oil,Nanticoke Refinery,Ontario,Nanticoke,225 2nd Concession,N0A1L0,3701,1023.33,http://www.ec.gc.ca/ges-ghg/donnees-data/index.cfm?do=facility_info&amp;lang=En&amp;year=2011&amp;ghg_id=G10199,Petroleum Refineries,http://stds.statcan.gc.ca/naics-scian/2007/cs-rc-eng.asp?criteria=324110,42.83750000,-80.05170000
203,Atlantic Power LP,Nipigon Power Plant,Ontario,Nipigon,11 Highway Highway,P0T2J0,10405,101.08,http://www.ec.gc.ca/ges-ghg/donnees-data/index.cfm?do=facility_info&amp;lang=En&amp;year=2011&amp;ghg_id=G10203,Fossil-Fuel Electric Power Generation,http://stds.statcan.gc.ca/naics-scian/2007/cs-rc-eng.asp?criteria=221112,49.15120000,-88.34180000
208,NOVA Chemicals (Canada) Ltd.,Corunna Site,Ontario,Corunna,785 Petrolia Line,N0N1G0,1776,1610.17,http://www.ec.gc.ca/ges-ghg/donnees-data/index.cfm?do=facility_info&amp;lang=En&amp;year=2011&amp;ghg_id=G10208,Petrochemical Manufacturing,http://stds.statcan.gc.ca/naics-scian/2007/cs-rc-eng.asp?criteria=325110,42.88250000,-82.40440000
209,Styrolution Canada Ltd.,Sarnia Site,Ontario,Sarnia,872 Tashmoo Avenue,N7T8A3,1785,127.02,http://www.ec.gc.ca/ges-ghg/donnees-data/index.cfm?do=facility_info&amp;lang=En&amp;year=2011&amp;ghg_id=G10209,Petrochemical Manufacturing,http://stds.statcan.gc.ca/naics-scian/2007/cs-rc-eng.asp?criteria=325110,42.93850000,-82.41370000
210,NOVA Chemicals Corporation,St. Clair River Site,Ontario,Corunna,285 Albert Street,N0N1G0,4700,62.73,http://www.ec.gc.ca/ges-ghg/donnees-data/index.cfm?do=facility_info&amp;lang=En&amp;year=2011&amp;ghg_id=G10210,Resin and Synthetic Rubber Manufacturing,http://stds.statcan.gc.ca/naics-scian/2007/cs-rc-eng.asp?criteria=325210,42.89710000,-82.43990000
213,General Motors of Canada Limited,Oshawa Car Assembly Plant,Ontario,Oshawa,700 Park Road South,L1J1N3,3893,140.17,http://www.ec.gc.ca/ges-ghg/donnees-data/index.cfm?do=facility_info&amp;lang=En&amp;year=2011&amp;ghg_id=G10213,Automobile and Light-Duty Motor Vehicle Manufacturing,http://stds.statcan.gc.ca/naics-scian/2007/cs-rc-eng.asp?criteria=336110,43.87540000,-78.86900000
215,TransAlta Generation Partnership,Ottawa Health Sciences Centre (OHSC) Cogeneration Facility,Ontario,Ottawa,405 Smyth Road,K1H8M8,4872,210.22,http://www.ec.gc.ca/ges-ghg/donnees-data/index.cfm?do=facility_info&amp;lang=En&amp;year=2011&amp;ghg_id=G10215,Fossil-Fuel Electric Power Generation,http://stds.statcan.gc.ca/naics-scian/2007/cs-rc-eng.asp?criteria=221112,45.40320000,-75.65408000
223,Essroc Canada Inc.,Picton  Plant,Ontario,Picton,1370 49 Highway South,K0K2T0,3541,577.72,http://www.ec.gc.ca/ges-ghg/donnees-data/index.cfm?do=facility_info&amp;lang=En&amp;year=2011&amp;ghg_id=G10223,Cement Manufacturing,http://stds.statcan.gc.ca/naics-scian/2007/cs-rc-eng.asp?criteria=327310,44.05530000,-77.12220000
250,Imperial Oil,Sarnia Chemical Plant,Ontario,Sarnia,602 Christina Street South,N7T7M5,1464,281.70,http://www.ec.gc.ca/ges-ghg/donnees-data/index.cfm?do=facility_info&amp;lang=En&amp;year=2011&amp;ghg_id=G10250,Petrochemical Manufacturing,http://stds.statcan.gc.ca/naics-scian/2007/cs-rc-eng.asp?criteria=325110,42.95440000,-82.41530000
251,Imperial Oil,Sarnia Cogen Plant,Ontario,Sarnia,602 Christina Street South,N7T7M5,11174,466.39,http://www.ec.gc.ca/ges-ghg/donnees-data/index.cfm?do=facility_info&amp;lang=En&amp;year=2011&amp;ghg_id=G10251,Fossil-Fuel Electric Power Generation,http://stds.statcan.gc.ca/naics-scian/2007/cs-rc-eng.asp?criteria=221112,42.95860000,-82.41460000
252,BP Canada Energy Company,Sarnia Fractionation Plant,Ontario,Sarnia,1182 Plank Road,N7T7H9,4155,134.06,http://www.ec.gc.ca/ges-ghg/donnees-data/index.cfm?do=facility_info&amp;lang=En&amp;year=2011&amp;ghg_id=G10252,Conventional Oil and Gas Extraction,http://stds.statcan.gc.ca/naics-scian/2007/cs-rc-eng.asp?criteria=211113,42.95210000,-82.36640000
253,Shell Canada Products,Sarnia Manufacturing Centre,Ontario,Corunna,150 St. Clair Parkway,N0N1G0,3962,702.51,http://www.ec.gc.ca/ges-ghg/donnees-data/index.cfm?do=facility_info&amp;lang=En&amp;year=2011&amp;ghg_id=G10253,Petroleum Refineries,http://stds.statcan.gc.ca/naics-scian/2007/cs-rc-eng.asp?criteria=324110,42.90250000,-82.45110000
254,Suncor Energy Products Partnership,Sarnia Refinery,Ontario,Sarnia,1900 River Road,N7T7J3,3071,680.82,http://www.ec.gc.ca/ges-ghg/donnees-data/index.cfm?do=facility_info&amp;lang=En&amp;year=2011&amp;ghg_id=G10254,Petroleum Refineries,http://stds.statcan.gc.ca/naics-scian/2007/cs-rc-eng.asp?criteria=324110,42.93060000,-82.44330000
255,Imperial Oil,Sarnia Refinery Plant,Ontario,Sarnia,602 Christina Street South,N7T7M5,3704,1315.03,http://www.ec.gc.ca/ges-ghg/donnees-data/index.cfm?do=facility_info&amp;lang=En&amp;year=2011&amp;ghg_id=G10255,Petroleum Refineries,http://stds.statcan.gc.ca/naics-scian/2007/cs-rc-eng.asp?criteria=324110,42.95420000,-82.41580000
256,TransAlta Generation Partnership,Sarnia Regional Cogeneration Facility,Ontario,Sarnia,1741 River Road,N7H8H1,6597,1165.56,http://www.ec.gc.ca/ges-ghg/donnees-data/index.cfm?do=facility_info&amp;lang=En&amp;year=2011&amp;ghg_id=G10256,Fossil-Fuel Electric Power Generation,http://stds.statcan.gc.ca/naics-scian/2007/cs-rc-eng.asp?criteria=221112,42.93460000,-82.43810000
273,St. Marys Cement Inc.,Bowmanville Cement Plant,Ontario,Bowmanville,400 Waverley Road South,L1C3K3,5841,1246.77,http://www.ec.gc.ca/ges-ghg/donnees-data/index.cfm?do=facility_info&amp;lang=En&amp;year=2011&amp;ghg_id=G10273,Cement Manufacturing,http://stds.statcan.gc.ca/naics-scian/2007/cs-rc-eng.asp?criteria=327310,43.88060000,-78.70050000
274,St. Marys Cement Inc.,St. Marys Cement Plant,Ontario,St. Marys,585 Water Street South,N4X1B6,5871,527.34,http://www.ec.gc.ca/ges-ghg/donnees-data/index.cfm?do=facility_info&amp;lang=En&amp;year=2011&amp;ghg_id=G10274,Cement Manufacturing,http://stds.statcan.gc.ca/naics-scian/2007/cs-rc-eng.asp?criteria=327310,43.24260000,-81.14780000
275,U.S. Steel Canada Inc.,Hamilton Works,Ontario,Hamilton,386 Wilcox Street,L8N3T1,2984,351.16,http://www.ec.gc.ca/ges-ghg/donnees-data/index.cfm?do=facility_info&amp;lang=En&amp;year=2011&amp;ghg_id=G10275,Iron and Steel Mills and Ferro-Alloy Manufacturing,http://stds.statcan.gc.ca/naics-scian/2007/cs-rc-eng.asp?criteria=331110,43.26220000,-79.78670000
276,U.S. Steel Canada Inc.,Lake Erie Works,Ontario,Haldimand County,2330 Regional #3 Road,N0A1L0,3855,3296.82,http://www.ec.gc.ca/ges-ghg/donnees-data/index.cfm?do=facility_info&amp;lang=En&amp;year=2011&amp;ghg_id=G10276,Iron and Steel Mills and Ferro-Alloy Manufacturing,http://stds.statcan.gc.ca/naics-scian/2007/cs-rc-eng.asp?criteria=331110,42.81000000,-80.09670000
283,Terra Inernational (Canada) Inc.,CF Industries Courtright Nitrogen Complex,Ontario,Courtright,161 Bickford Line,N0N1H0,2233,639.17,http://www.ec.gc.ca/ges-ghg/donnees-data/index.cfm?do=facility_info&amp;lang=En&amp;year=2011&amp;ghg_id=G10283,Chemical Fertilizer (except Potash) Manufacturing,http://stds.statcan.gc.ca/naics-scian/2007/cs-rc-eng.asp?criteria=325313,42.81420000,-82.45560000
285,Terrace Bay Pulp Inc.,Terrace Bay Pulp,Ontario,Terrace Bay,21 Mill Road,P0T2W0,2607,124.79,http://www.ec.gc.ca/ges-ghg/donnees-data/index.cfm?do=facility_info&amp;lang=En&amp;year=2011&amp;ghg_id=G10285,Chemical Pulp Mills,http://stds.statcan.gc.ca/naics-scian/2007/cs-rc-eng.asp?criteria=322112,48.79650000,-87.10390000
287,Ontario Power Generation Inc.,Thunder Bay Generating Station,Ontario,Thunder Bay,920 108th Avenue,P7B6T7,3048,140.47,http://www.ec.gc.ca/ges-ghg/donnees-data/index.cfm?do=facility_info&amp;lang=En&amp;year=2011&amp;ghg_id=G10287,Fossil-Fuel Electric Power Generation,http://stds.statcan.gc.ca/naics-scian/2007/cs-rc-eng.asp?criteria=221112,48.35920000,-89.22190000
293,Atlantic Power LP,Tunis Power Plant,Ontario,Tunis,11 (Potter Road) Highway North,P0N1J0,10407,98.64,http://www.ec.gc.ca/ges-ghg/donnees-data/index.cfm?do=facility_info&amp;lang=En&amp;year=2011&amp;ghg_id=G10293,Fossil-Fuel Electric Power Generation,http://stds.statcan.gc.ca/naics-scian/2007/cs-rc-eng.asp?criteria=221112,48.87040000,-80.89420000
310,Corporation of the City of London,W12A Landfill,Ontario,London,3502 Manning Drive,N6L1K6,5790,125.65,http://www.ec.gc.ca/ges-ghg/donnees-data/index.cfm?do=facility_info&amp;lang=En&amp;year=2011&amp;ghg_id=G10310,Waste Treatment and Disposal,http://stds.statcan.gc.ca/naics-scian/2007/cs-rc-eng.asp?criteria=562210,42.87720000,-81.23040000
315,GDF Suez Energy Canada Inc.,West Windsor Power,Ontario,Windsor,4375 Sandwich Street,N9C4C8,5901,385.96,http://www.ec.gc.ca/ges-ghg/donnees-data/index.cfm?do=facility_info&amp;lang=En&amp;year=2011&amp;ghg_id=G10315,Fossil-Fuel Electric Power Generation,http://stds.statcan.gc.ca/naics-scian/2007/cs-rc-eng.asp?criteria=221112,42.28070000,-83.08760000
318,Domtar Inc.,Dryden Mill,Ontario,Dryden,1 Duke Street,P8N2Z7,928,57.90,http://www.ec.gc.ca/ges-ghg/donnees-data/index.cfm?do=facility_info&amp;lang=En&amp;year=2011&amp;ghg_id=G10318,Chemical Pulp Mills,http://stds.statcan.gc.ca/naics-scian/2007/cs-rc-eng.asp?criteria=322112,49.78310000,-92.84720000
319,Whitby Cogeneration L.P.,Whitby Cogeneration,Ontario,Whitby,1550 Wentworth Street,L1N7C1,5934,205.92,http://www.ec.gc.ca/ges-ghg/donnees-data/index.cfm?do=facility_info&amp;lang=En&amp;year=2011&amp;ghg_id=G10319,Fossil-Fuel Electric Power Generation,http://stds.statcan.gc.ca/naics-scian/2007/cs-rc-eng.asp?criteria=221112,43.85930000,-78.90320000
323,TransAlta Generation Partnership,Windsor Essex Cogeneration Plant,Ontario,Windsor,2600 Temple Drive,N8W5J5,5267,194.96,http://www.ec.gc.ca/ges-ghg/donnees-data/index.cfm?do=facility_info&amp;lang=En&amp;year=2011&amp;ghg_id=G10323,Fossil-Fuel Electric Power Generation,http://stds.statcan.gc.ca/naics-scian/2007/cs-rc-eng.asp?criteria=221112,42.28770000,-82.98030000
331,Dyno Nobel Nitrogen Inc.,Maitland,Ontario,Maitland,1301 Brockchem Road,K0E1P0,3807,6.89,http://www.ec.gc.ca/ges-ghg/donnees-data/index.cfm?do=facility_info&amp;lang=En&amp;year=2011&amp;ghg_id=G10331,Chemical Fertilizer (except Potash) Manufacturing,http://stds.statcan.gc.ca/naics-scian/2007/cs-rc-eng.asp?criteria=325313,44.66030000,-75.59780000
332,City of Hamilton,Glanbrook Landfill Site,Ontario,Hamilton,1500 Haldibrook Road,L8E3X8,10976,20.58,http://www.ec.gc.ca/ges-ghg/donnees-data/index.cfm?do=facility_info&amp;lang=En&amp;year=2011&amp;ghg_id=G10332,Waste Treatment and Disposal,http://stds.statcan.gc.ca/naics-scian/2007/cs-rc-eng.asp?criteria=562210,43.07050000,-79.79170000
335,Lake Superior Power,Lake Superior Power,Ontario,Sault Ste Marie,102 West Street,P6A6W6,10697,260.42,http://www.ec.gc.ca/ges-ghg/donnees-data/index.cfm?do=facility_info&amp;lang=En&amp;year=2011&amp;ghg_id=G10335,Fossil-Fuel Electric Power Generation,http://stds.statcan.gc.ca/naics-scian/2007/cs-rc-eng.asp?criteria=221112,46.51830000,-84.36260000
337,Niagara Waste Systems Limited,Niagara Waste Systems Landfill Sites,Ontario,Niagara Falls,2800 Thorold Townline Road,L2E6S4,10132,98.93,http://www.ec.gc.ca/ges-ghg/donnees-data/index.cfm?do=facility_info&amp;lang=En&amp;year=2011&amp;ghg_id=G10337,Waste Treatment and Disposal,http://stds.statcan.gc.ca/naics-scian/2007/cs-rc-eng.asp?criteria=562210,43.04730000,-79.17280000
343,BFI Canada Inc.,Ridge Landfill,Ontario,Blenheim,20262 Erieau Road,N0P1A0,7396,340.81,http://www.ec.gc.ca/ges-ghg/donnees-data/index.cfm?do=facility_info&amp;lang=En&amp;year=2011&amp;ghg_id=G10343,Waste Treatment and Disposal,http://stds.statcan.gc.ca/naics-scian/2007/cs-rc-eng.asp?criteria=562210,42.31400000,-82.05570000
348,City of Ottawa,Trail Road Waste Facility,Ontario,Ottawa,4475 Trail Road,K0A2Z0,7238,85.91,http://www.ec.gc.ca/ges-ghg/donnees-data/index.cfm?do=facility_info&amp;lang=En&amp;year=2011&amp;ghg_id=G10348,Waste Treatment and Disposal,http://stds.statcan.gc.ca/naics-scian/2007/cs-rc-eng.asp?criteria=562210,45.23420000,-75.76120000
351,Hiram Walker & Sons Ltd.,Walkerville,Ontario,Windsor,2072 Riverside Drive East,N8Y4S5,7353,56.51,http://www.ec.gc.ca/ges-ghg/donnees-data/index.cfm?do=facility_info&amp;lang=En&amp;year=2011&amp;ghg_id=G10351,Distilleries,http://stds.statcan.gc.ca/naics-scian/2007/cs-rc-eng.asp?criteria=312140,42.32580000,-83.00850000
358,Corporation of the City of Guelph,Eastview Landfill,Ontario,Guelph,186 Eastview Road,N1E1Z6,10636,72.03,http://www.ec.gc.ca/ges-ghg/donnees-data/index.cfm?do=facility_info&amp;lang=En&amp;year=2011&amp;ghg_id=G10358,Waste Treatment and Disposal,http://stds.statcan.gc.ca/naics-scian/2007/cs-rc-eng.asp?criteria=562210,43.57420000,-80.23230000
360,Air Products Canada Ltd.,Corunna Hydrogen Facility,Ontario,Corunna,150 St. Clair Parkway,N0N1G0,11489,434.23,http://www.ec.gc.ca/ges-ghg/donnees-data/index.cfm?do=facility_info&amp;lang=En&amp;year=2011&amp;ghg_id=G10360,Industrial Gas Manufacturing,http://stds.statcan.gc.ca/naics-scian/2007/cs-rc-eng.asp?criteria=325120,42.90110000,-82.44610000
364,Essex-Windsor Solid Waste Authority,Essex County Landfill No. 3,Ontario,Lakeshore,914 County 25 (East Puce Road) Road,N8M2X7,11455,149.48,http://www.ec.gc.ca/ges-ghg/donnees-data/index.cfm?do=facility_info&amp;lang=En&amp;year=2011&amp;ghg_id=G10364,Waste Treatment and Disposal,http://stds.statcan.gc.ca/naics-scian/2007/cs-rc-eng.asp?criteria=562210,42.25560000,-82.77950000
365,Essex-Windsor Solid Waste Authority,Essex County Regional Landfill,Ontario,Essex,7700 County 18 Road,N0R1B0,11456,118.44,http://www.ec.gc.ca/ges-ghg/donnees-data/index.cfm?do=facility_info&amp;lang=En&amp;year=2011&amp;ghg_id=G10365,Waste Treatment and Disposal,http://stds.statcan.gc.ca/naics-scian/2007/cs-rc-eng.asp?criteria=562210,42.08790000,-82.87250000
366,Greater Toronto Airports Authority,Toronto Pearson International Airport,Ontario,Mississauga,3111 Convair Drive,L5P1B2,4451,65.37,http://www.ec.gc.ca/ges-ghg/donnees-data/index.cfm?do=facility_info&amp;lang=En&amp;year=2011&amp;ghg_id=G10366,Other Support Activities for Air Transport,http://stds.statcan.gc.ca/naics-scian/2007/cs-rc-eng.asp?criteria=488190,43.66820000,-79.59840000
373,O-I Canada Corp.,Plant #31 Brampton,Ontario,Brampton,100 West Drive,L6T2J5,517,73.35,http://www.ec.gc.ca/ges-ghg/donnees-data/index.cfm?do=facility_info&amp;lang=En&amp;year=2011&amp;ghg_id=G10373,Glass Manufacturing,http://stds.statcan.gc.ca/naics-scian/2007/cs-rc-eng.asp?criteria=327214,43.70430000,-79.72750000
376,Region of Peel,Britannia Sanitary Landfill Site,Ontario,Mississauga,5700 Terry Fox Way,L5M2G6,5989,201.88,http://www.ec.gc.ca/ges-ghg/donnees-data/index.cfm?do=facility_info&amp;lang=En&amp;year=2011&amp;ghg_id=G10376,Waste Treatment and Disposal,http://stds.statcan.gc.ca/naics-scian/2007/cs-rc-eng.asp?criteria=562210,43.60340000,-79.69670000
387,General Scrap Partnership,Lakehead Scrap Metal,Ontario,Thunder Bay,305 106th Street,P7E0A3,3769,0.78,http://www.ec.gc.ca/ges-ghg/donnees-data/index.cfm?do=facility_info&amp;lang=En&amp;year=2011&amp;ghg_id=G10387,All Other Miscellaneous Manufacturing,http://stds.statcan.gc.ca/naics-scian/2007/cs-rc-eng.asp?criteria=339990,48.37420000,-89.24370000
395,Umicore Autocat Corp,Burlington Automotive Catalyst Manufacturing Plant,Ontario,Burlington,0 4261 Mainway Drive North,L7R3Y8,4438,2.77,http://www.ec.gc.ca/ges-ghg/donnees-data/index.cfm?do=facility_info&amp;lang=En&amp;year=2011&amp;ghg_id=G10395,All Other Miscellaneous Chemical Product Manufacturing,http://stds.statcan.gc.ca/naics-scian/2007/cs-rc-eng.asp?criteria=325999,43.37980000,-79.78940000
398,Xstrata Canada Corporation,Sudbury Nickel Smelter Complex,Ontario,Falconbridge,1 Longyear Drive,P0M1S0,1236,114.79,http://www.ec.gc.ca/ges-ghg/donnees-data/index.cfm?do=facility_info&amp;lang=En&amp;year=2011&amp;ghg_id=G10398,Nickel-Copper Ore Mining,http://stds.statcan.gc.ca/naics-scian/2007/cs-rc-eng.asp?criteria=212232,46.57750000,-80.80420000
407,"Greenfield Energy Centre, LP",Greenfield Energy Centre,Ontario,Courtright,140 Bickford Line,N0N 1H0,11581,1340.14,http://www.ec.gc.ca/ges-ghg/donnees-data/index.cfm?do=facility_info&amp;lang=En&amp;year=2011&amp;ghg_id=G10407,Fossil-Fuel Electric Power Generation,http://stds.statcan.gc.ca/naics-scian/2007/cs-rc-eng.asp?criteria=221112,42.76830000,-82.45420000
410,Atlantic Power LP,Kapuskasing Power Plant,Ontario,Kapuskasing,47 Gough Road,P5N2X7,10404,130.97,http://www.ec.gc.ca/ges-ghg/donnees-data/index.cfm?do=facility_info&amp;lang=En&amp;year=2011&amp;ghg_id=G10410,Fossil-Fuel Electric Power Generation,http://stds.statcan.gc.ca/naics-scian/2007/cs-rc-eng.asp?criteria=221112,49.39090000,-82.43730000
413,Portlands Energy Centre LP,Portlands Energy Centre,Ontario,Toronto,470 Unwin Avenue,M4M3B9,11803,459.98,http://www.ec.gc.ca/ges-ghg/donnees-data/index.cfm?do=facility_info&amp;lang=En&amp;year=2011&amp;ghg_id=G10413,Fossil-Fuel Electric Power Generation,http://stds.statcan.gc.ca/naics-scian/2007/cs-rc-eng.asp?criteria=221112,43.64950000,-79.33110000
416,ADM Agri-Industries,ADM AGRI-INDUSTRIES - ADM Windsor,Ontario,Windsor,5550 Maplewood Drive,N9C0B9,5694,69.13,http://www.ec.gc.ca/ges-ghg/donnees-data/index.cfm?do=facility_info&amp;lang=En&amp;year=2011&amp;ghg_id=G10416,Oilseed Processing,http://stds.statcan.gc.ca/naics-scian/2007/cs-rc-eng.asp?criteria=311224,42.26550000,-83.10010000
422,Bruce Power LP,Bruce Power,Ontario,Tiverton,177 Tie Road,N0G2T0,7041,49.84,http://www.ec.gc.ca/ges-ghg/donnees-data/index.cfm?do=facility_info&amp;lang=En&amp;year=2011&amp;ghg_id=G10422,Nuclear Electric Power Generation,http://stds.statcan.gc.ca/naics-scian/2007/cs-rc-eng.asp?criteria=221113,44.32890000,-81.59160000
423,Bunge Canada Holdings I ULC,Bunge Canada - Hamilton Plant,Ontario,Hamilton,0 515 Victoria Avenue North,L8G3G7,161,62.95,http://www.ec.gc.ca/ges-ghg/donnees-data/index.cfm?do=facility_info&amp;lang=En&amp;year=2011&amp;ghg_id=G10423,Oilseed Processing,http://stds.statcan.gc.ca/naics-scian/2007/cs-rc-eng.asp?criteria=311224,43.26830000,-79.85060000
425,Canada Starch Operating Company Inc.,Casco Inc. - Port Colborne Plant,Ontario,Port Colborne,55 Invertose Drive East,L3K5X7,2695,80.02,http://www.ec.gc.ca/ges-ghg/donnees-data/index.cfm?do=facility_info&amp;lang=En&amp;year=2011&amp;ghg_id=G10425,Wet Corn Milling,http://stds.statcan.gc.ca/naics-scian/2007/cs-rc-eng.asp?criteria=311221,42.92320000,-79.24860000
427,Canadian Gypsum Company,CGC Hagersville Plant,Ontario,Hagersville,55 Third Line Road,N0A1H0,7195,52.42,http://www.ec.gc.ca/ges-ghg/donnees-data/index.cfm?do=facility_info&amp;lang=En&amp;year=2011&amp;ghg_id=G10427,Gypsum Product Manufacturing,http://stds.statcan.gc.ca/naics-scian/2007/cs-rc-eng.asp?criteria=327420,43.01260000,-80.01560000
432,Atlantic Power LP,North Bay,Ontario,North Bay,4001 11 RR#2 Highway North,P1B8G3,10406,128.30,http://www.ec.gc.ca/ges-ghg/donnees-data/index.cfm?do=facility_info&amp;lang=En&amp;year=2011&amp;ghg_id=G10432,Fossil-Fuel Electric Power Generation,http://stds.statcan.gc.ca/naics-scian/2007/cs-rc-eng.asp?criteria=221112,46.38030000,-79.46920000
453,East Windsor Cogeneration LP,East Windsor Cogeneration Centre,Ontario,Windsor,274 Cadillac Street,N8Y2S7,11791,141.06,http://www.ec.gc.ca/ges-ghg/donnees-data/index.cfm?do=facility_info&amp;lang=En&amp;year=2011&amp;ghg_id=G10453,Fossil-Fuel Electric Power Generation,http://stds.statcan.gc.ca/naics-scian/2007/cs-rc-eng.asp?criteria=221112,42.32490000,-82.99960000
459,Enwave Energy Corporation,Pearl Street Steam Plant,Ontario,Toronto,120 Pearl Street,M5H1L2,7656,64.09,http://www.ec.gc.ca/ges-ghg/donnees-data/index.cfm?do=facility_info&amp;lang=En&amp;year=2011&amp;ghg_id=G10459,Steam and Air-Conditioning Supply,http://stds.statcan.gc.ca/naics-scian/2007/cs-rc-eng.asp?criteria=221330,43.64820000,-79.38580000
460,Enwave Energy Corporation,Walton Street Steam Plant,Ontario,Toronto,95 Walton Street,M5G1H9,7657,131.11,http://www.ec.gc.ca/ges-ghg/donnees-data/index.cfm?do=facility_info&amp;lang=En&amp;year=2011&amp;ghg_id=G10460,Steam and Air-Conditioning Supply,http://stds.statcan.gc.ca/naics-scian/2007/cs-rc-eng.asp?criteria=221330,43.65760000,-79.38540000
462,Essar Power Canada Ltd.,Essar Power Canada Ltd,Ontario,Sault Ste. Marie,105 West Street North,P6A7B4,11793,1532.09,http://www.ec.gc.ca/ges-ghg/donnees-data/index.cfm?do=facility_info&amp;lang=En&amp;year=2011&amp;ghg_id=G10462,Other Electric Power Generation,http://stds.statcan.gc.ca/naics-scian/2007/cs-rc-eng.asp?criteria=221119,46.52170000,-84.36370000
466,Flakeboard Company Limited,Flakeboard Company Limited,Ontario,Sault Ste Marie,657 Baseline,P6A5K6,5885,30.41,http://www.ec.gc.ca/ges-ghg/donnees-data/index.cfm?do=facility_info&amp;lang=En&amp;year=2011&amp;ghg_id=G10466,Particle Board and Fibreboard Mills,http://stds.statcan.gc.ca/naics-scian/2007/cs-rc-eng.asp?criteria=321216,46.51830000,-84.41480000
467,"Ford Motor Company of Canada, Limited",Oakville Assembly Plant,Ontario,Oakville,The Canadian Road,L6J5C9,3419,81.11,http://www.ec.gc.ca/ges-ghg/donnees-data/index.cfm?do=facility_info&amp;lang=En&amp;year=2011&amp;ghg_id=G10467,Automobile and Light-Duty Motor Vehicle Manufacturing,http://stds.statcan.gc.ca/naics-scian/2007/cs-rc-eng.asp?criteria=336110,43.48400000,-79.66920000
469,Goreway Station Partnership,Goreway Power Station,Ontario,Brampton,8600 Goreway Drive,L6T0A8,11659,1103.48,http://www.ec.gc.ca/ges-ghg/donnees-data/index.cfm?do=facility_info&amp;lang=En&amp;year=2011&amp;ghg_id=G10469,Fossil-Fuel Electric Power Generation,http://stds.statcan.gc.ca/naics-scian/2007/cs-rc-eng.asp?criteria=221112,43.74650000,-79.67990000
471,Green Lane Landfill,Green Lane Landfill,Ontario,St. Thomas,0 38593 Third Line R.R. 7,N5P3T2,11685,115.46,http://www.ec.gc.ca/ges-ghg/donnees-data/index.cfm?do=facility_info&amp;lang=En&amp;year=2011&amp;ghg_id=G10471,Waste Treatment and Disposal,http://stds.statcan.gc.ca/naics-scian/2007/cs-rc-eng.asp?criteria=562210,42.81560000,-81.32670000
472,Greenfield Ethanol Inc.,Greenfield Johnstown Limited Partnership,Ontario,Prescott,141 Commerce Drive,K0E1T0,11684,264.03,http://www.ec.gc.ca/ges-ghg/donnees-data/index.cfm?do=facility_info&amp;lang=En&amp;year=2011&amp;ghg_id=G10472,Other Basic Organic Chemical Manufacturing,http://stds.statcan.gc.ca/naics-scian/2007/cs-rc-eng.asp?criteria=325190,44.73530000,-75.48420000
478,Integrated Grain Processors Co-operative Incorporated,IGPC Ethanol,Ontario,Aylmer,89 Progress Drive,N5H2R9,11696,59.27,http://www.ec.gc.ca/ges-ghg/donnees-data/index.cfm?do=facility_info&amp;lang=En&amp;year=2011&amp;ghg_id=G10478,Other Basic Organic Chemical Manufacturing,http://stds.statcan.gc.ca/naics-scian/2007/cs-rc-eng.asp?criteria=325190,42.78270000,-80.98130000
479,INVISTA (Canada) Company,INVISTA (Canada) Company,Ontario,Kingston,0 455 Front Road,K7L4Z6,3422,87.03,http://www.ec.gc.ca/ges-ghg/donnees-data/index.cfm?do=facility_info&amp;lang=En&amp;year=2011&amp;ghg_id=G10479,Artificial and Synthetic Fibres and Filaments Manufacturing,http://stds.statcan.gc.ca/naics-scian/2007/cs-rc-eng.asp?criteria=325220,44.21590000,-76.55530000
481,Irving Tissue,Irving Tissue,Ontario,Toronto,1551 Weston Road,M6M4Y4,327,52.23,http://www.ec.gc.ca/ges-ghg/donnees-data/index.cfm?do=facility_info&amp;lang=En&amp;year=2011&amp;ghg_id=G10481,Paper (except Newsprint) Mills,http://stds.statcan.gc.ca/naics-scian/2007/cs-rc-eng.asp?criteria=322121,43.69440000,-79.50590000
482,Jungbunzlauer Canada Inc.,Jungbunzlauer Canada Inc.,Ontario,Port Colborne,1555 Elm Street,L3K5V5,10303,66.93,http://www.ec.gc.ca/ges-ghg/donnees-data/index.cfm?do=facility_info&amp;lang=En&amp;year=2011&amp;ghg_id=G10482,Other Basic Organic Chemical Manufacturing,http://stds.statcan.gc.ca/naics-scian/2007/cs-rc-eng.asp?criteria=325190,42.92120000,-79.25540000
493,Magellan Aerospace Limited,Haley Industries Limited,Ontario,Haley,634 Magnesium Road East,K0J1Y0,7080,55.06,http://www.ec.gc.ca/ges-ghg/donnees-data/index.cfm?do=facility_info&amp;lang=En&amp;year=2011&amp;ghg_id=G10493,Non-Ferrous Foundries (except Die-Casting),http://stds.statcan.gc.ca/naics-scian/2007/cs-rc-eng.asp?criteria=331529,45.59640000,-76.75520000
501,NOVA Chemicals (Canada) Ltd.,Moore Site,Ontario,Mooretown,510 Moore Line,N0N1M0,1788,53.76,http://www.ec.gc.ca/ges-ghg/donnees-data/index.cfm?do=facility_info&amp;lang=En&amp;year=2011&amp;ghg_id=G10501,Resin and Synthetic Rubber Manufacturing,http://stds.statcan.gc.ca/naics-scian/2007/cs-rc-eng.asp?criteria=325210,42.84890000,-82.42440000
537,Redpath Sugar Ltd,Toronto Refinery,Ontario,Toronto,95 Queen's Quay East,M5E1A3,2016,61.46,http://www.ec.gc.ca/ges-ghg/donnees-data/index.cfm?do=facility_info&amp;lang=En&amp;year=2011&amp;ghg_id=G10537,Sugar Manufacturing,http://stds.statcan.gc.ca/naics-scian/2007/cs-rc-eng.asp?criteria=311310,43.64250000,-79.37280000
539,Region of Waterloo,Cambridge Landfill Site,Ontario,Cambridge,0 201 Savage Drive,N1T1S6,10398,3.55,http://www.ec.gc.ca/ges-ghg/donnees-data/index.cfm?do=facility_info&amp;lang=En&amp;year=2011&amp;ghg_id=G10539,Waste Treatment and Disposal,http://stds.statcan.gc.ca/naics-scian/2007/cs-rc-eng.asp?criteria=562210,43.36800000,-80.27380000
540,Region of Waterloo,Waterloo Landfill Site,Ontario,Waterloo,0 925 Erb Street West,N2J3Z4,10399,47.15,http://www.ec.gc.ca/ges-ghg/donnees-data/index.cfm?do=facility_info&amp;lang=En&amp;year=2011&amp;ghg_id=G10540,Waste Treatment and Disposal,http://stds.statcan.gc.ca/naics-scian/2007/cs-rc-eng.asp?criteria=562210,43.44180000,-80.57870000
554,"St. Clair Power, LP",St. Clair Energy Center,Ontario,Corunna,790 Petrolia Line,N0N1G0,11778,359.08,http://www.ec.gc.ca/ges-ghg/donnees-data/index.cfm?do=facility_info&amp;lang=En&amp;year=2011&amp;ghg_id=G10554,Fossil-Fuel Electric Power Generation,http://stds.statcan.gc.ca/naics-scian/2007/cs-rc-eng.asp?criteria=221112,42.89670000,-82.39820000
559,Suncor Energy Products Inc.,St. Clair Ethanol Plant,Ontario,Mooretown,0 535 Rokeby Line,N0N1M0,11444,147.52,http://www.ec.gc.ca/ges-ghg/donnees-data/index.cfm?do=facility_info&amp;lang=En&amp;year=2011&amp;ghg_id=G10559,Other Basic Organic Chemical Manufacturing,http://stds.statcan.gc.ca/naics-scian/2007/cs-rc-eng.asp?criteria=325190,42.92940000,-82.43810000
564,Toyota Motor Manufacturing Canada Inc.,Toyota Motor Manufacturing Canada (Cambridge),Ontario,Cambridge,1055 Fountain Street North,N3H5K2,3790,55.96,http://www.ec.gc.ca/ges-ghg/donnees-data/index.cfm?do=facility_info&amp;lang=En&amp;year=2011&amp;ghg_id=G10564,Automobile and Light-Duty Motor Vehicle Manufacturing,http://stds.statcan.gc.ca/naics-scian/2007/cs-rc-eng.asp?criteria=336110,43.41980000,-80.37080000
565,Union Gas Limited,Natural Gas Transmission and Distribution,Ontario,Chatham,50 Keil Drive North,N7M5M1,,777.36,http://www.ec.gc.ca/ges-ghg/donnees-data/index.cfm?do=facility_info&amp;lang=En&amp;year=2011&amp;ghg_id=G10565,Natural Gas Distribution,http://stds.statcan.gc.ca/naics-scian/2007/cs-rc-eng.asp?criteria=221210,0.00000000,0.00000000
581,Global Contract Inc.,Global Contract Inc.,Ontario,North York,565 Petrolia Road South,M3J2X8,10187,1.92,http://www.ec.gc.ca/ges-ghg/donnees-data/index.cfm?do=facility_info&amp;lang=En&amp;year=2011&amp;ghg_id=G10581,Office Furniture (except Wood) Manufacturing,http://stds.statcan.gc.ca/naics-scian/2007/cs-rc-eng.asp?criteria=337214,43.77470000,-79.48570000
593,Campbell Co. of Canada,PLANT 051 - Toronto,Ontario,Toronto,60 Birmingham Street,M8V2B8,7392,23.56,http://www.ec.gc.ca/ges-ghg/donnees-data/index.cfm?do=facility_info&amp;lang=En&amp;year=2011&amp;ghg_id=G10593,Frozen Food Manufacturing,http://stds.statcan.gc.ca/naics-scian/2007/cs-rc-eng.asp?criteria=311410,43.60560000,-79.50020000
600,City of Sault Ste. Marie,East Wastewater Treatment Plant,Ontario,Sault Ste. Marie,2221 Queen Street,P6A2K9,11467,2.01,http://www.ec.gc.ca/ges-ghg/donnees-data/index.cfm?do=facility_info&amp;lang=En&amp;year=2011&amp;ghg_id=G10600,Sewage Treatment Facilities,http://stds.statcan.gc.ca/naics-scian/2007/cs-rc-eng.asp?criteria=221320,46.50650000,-84.26020000
602,"Clean Harbors Canada, Inc.","Clean Harbors Canada, Inc",Ontario,Corunna,4090 Telfer Road North,N0N1G0,2537,68.86,http://www.ec.gc.ca/ges-ghg/donnees-data/index.cfm?do=facility_info&amp;lang=En&amp;year=2011&amp;ghg_id=G10602,Waste Treatment and Disposal,http://stds.statcan.gc.ca/naics-scian/2007/cs-rc-eng.asp?criteria=562210,42.88040000,-82.29710000
603,Collingwood Ethanol LP,Collingwood Ethanol,Ontario,Collingwood,201 MacDonald Road,L9Y4J1,3588,54.14,http://www.ec.gc.ca/ges-ghg/donnees-data/index.cfm?do=facility_info&amp;lang=En&amp;year=2011&amp;ghg_id=G10603,Other Basic Organic Chemical Manufacturing,http://stds.statcan.gc.ca/naics-scian/2007/cs-rc-eng.asp?criteria=325190,44.49720000,-80.19250000
605,Descor Industries Inc.,Descor Industries Inc.,Ontario,Markham,15 Riviera Drive,L3R8N4,4594,1.01,http://www.ec.gc.ca/ges-ghg/donnees-data/index.cfm?do=facility_info&amp;lang=En&amp;year=2011&amp;ghg_id=G10605,Wood Office Furniture Manufacturing,http://stds.statcan.gc.ca/naics-scian/2007/cs-rc-eng.asp?criteria=337213,43.82950000,-79.34930000
608,Fort Chicago District Energy Ltd.,London District Energy,Ontario,London,301 Colborne Street,N6B2S8,11687,49.69,http://www.ec.gc.ca/ges-ghg/donnees-data/index.cfm?do=facility_info&amp;lang=En&amp;year=2011&amp;ghg_id=G10608,Steam and Air-Conditioning Supply,http://stds.statcan.gc.ca/naics-scian/2007/cs-rc-eng.asp?criteria=221330,42.98290000,-81.23840000
609,Global Upholstery Co. Ltd.,Global Upholstery,Ontario,Downsview,560 Supertest Road South,M3J2M6,5610,5.25,http://www.ec.gc.ca/ges-ghg/donnees-data/index.cfm?do=facility_info&amp;lang=En&amp;year=2011&amp;ghg_id=G10609,Office Furniture (except Wood) Manufacturing,http://stds.statcan.gc.ca/naics-scian/2007/cs-rc-eng.asp?criteria=337214,43.77680000,-79.47560000
612,H.J. Heinz Co. of Canada Ltd.,Heinz Leamington Facility,Ontario,Leamington,148 Erie Street South,N8H3W8,10089,64.39,http://www.ec.gc.ca/ges-ghg/donnees-data/index.cfm?do=facility_info&amp;lang=En&amp;year=2011&amp;ghg_id=G10612,"Fruit and Vegetable Canning, Pickling and Drying",http://stds.statcan.gc.ca/naics-scian/2007/cs-rc-eng.asp?criteria=311420,42.04370000,-82.59910000
614,Ivaco Rolling Mills 2004 Limited Partnership,Ivaco Rolling Mills,Ontario,L'Orignal,1040 County Rd 17 Road,K0B1K0,1520,93.01,http://www.ec.gc.ca/ges-ghg/donnees-data/index.cfm?do=facility_info&amp;lang=En&amp;year=2011&amp;ghg_id=G10614,Iron and Steel Mills and Ferro-Alloy Manufacturing,http://stds.statcan.gc.ca/naics-scian/2007/cs-rc-eng.asp?criteria=331110,45.61330000,-74.70500000
621,New Forest Paper Mills LP,New Forest Paper Mills LP,Ontario,Scarborough,333 Progress Avenue,M1P2Z7,11601,57.12,http://www.ec.gc.ca/ges-ghg/donnees-data/index.cfm?do=facility_info&amp;lang=En&amp;year=2011&amp;ghg_id=G10621,Paperboard Mills,http://stds.statcan.gc.ca/naics-scian/2007/cs-rc-eng.asp?criteria=322130,43.77490000,-79.26480000
622,Northland Power Inc.,Thorold Cogen Generating Station,Ontario,Thorold,90 Allanburg Road,L2V0A8,11841,464.81,http://www.ec.gc.ca/ges-ghg/donnees-data/index.cfm?do=facility_info&amp;lang=En&amp;year=2011&amp;ghg_id=G10622,Fossil-Fuel Electric Power Generation,http://stds.statcan.gc.ca/naics-scian/2007/cs-rc-eng.asp?criteria=221112,43.10600000,-79.19880000
631,Public Works and Government Services Canada,Cliff Temporary Central Heating and Cooling Plant,Ontario,Ottawa,347 Wellington Street,K1A0M3,11845,68.40,http://www.ec.gc.ca/ges-ghg/donnees-data/index.cfm?do=facility_info&amp;lang=En&amp;year=2011&amp;ghg_id=G10631,Other Fed. Government Public Administration,http://stds.statcan.gc.ca/naics-scian/2007/cs-rc-eng.asp?criteria=911910,45.42150000,-75.70730000
632,Regional Municipality of Niagara,HUMBERSTONE LANDFILL,Ontario,Welland,700 Humberstone Road,L3B3X4,11575,52.47,http://www.ec.gc.ca/ges-ghg/donnees-data/index.cfm?do=facility_info&amp;lang=En&amp;year=2011&amp;ghg_id=G10632,Waste Treatment and Disposal,http://stds.statcan.gc.ca/naics-scian/2007/cs-rc-eng.asp?criteria=562210,42.96400000,-79.27370000
636,Sault Ste. Marie Waste Water Treatment Plant,West End Water Pollution Control Plant,Ontario,Sault Ste. Marie,55 Allen's Side Road,P6A1V7,10762,0.88,http://www.ec.gc.ca/ges-ghg/donnees-data/index.cfm?do=facility_info&amp;lang=En&amp;year=2011&amp;ghg_id=G10636,Sewage Treatment Facilities,http://stds.statcan.gc.ca/naics-scian/2007/cs-rc-eng.asp?criteria=221320,46.52430000,-84.40770000
643,Algoma Tubes Inc.,Tenaris Algoma Tubes,Ontario,Sault Ste. Marie,547 Wallace Terrace,P6C1L9,11215,93.36,http://www.ec.gc.ca/ges-ghg/donnees-data/index.cfm?do=facility_info&amp;lang=En&amp;year=2011&amp;ghg_id=G10643,,http://stds.statcan.gc.ca/naics-scian/2007/cs-rc-eng.asp?criteria=331210,46.52970000,-84.36880000
644,The University of Western Ontario,Main Campus,Ontario,London,1151 Richmond Street Street South,N6A3K7,,50.42,http://www.ec.gc.ca/ges-ghg/donnees-data/index.cfm?do=facility_info&amp;lang=En&amp;year=2011&amp;ghg_id=G10644,Universities,http://stds.statcan.gc.ca/naics-scian/2007/cs-rc-eng.asp?criteria=611310,0.00000000,0.00000000
646,TransCanada Energy Ltd.,Halton Hills Generating Station,Ontario,Halton Hills,7870 Sixth Line South,L7G4S6,11860,759.54,http://www.ec.gc.ca/ges-ghg/donnees-data/index.cfm?do=facility_info&amp;lang=En&amp;year=2011&amp;ghg_id=G10646,Fossil-Fuel Electric Power Generation,http://stds.statcan.gc.ca/naics-scian/2007/cs-rc-eng.asp?criteria=221112,43.56156000,-79.84551000
648,The Governing Council of the University of Toronto,St George Campus,Ontario,Toronto,27 King's College Circle,M5S1A1,11865,85.11,http://www.ec.gc.ca/ges-ghg/donnees-data/index.cfm?do=facility_info&amp;lang=En&amp;year=2011&amp;ghg_id=G10648,Universities,http://stds.statcan.gc.ca/naics-scian/2007/cs-rc-eng.asp?criteria=611310,43.66579000,-79.39917000
652,York University,York University - Keele Campus,Ontario,Toronto,4700 Keele Street,M3J1P3,7299,56.04,http://www.ec.gc.ca/ges-ghg/donnees-data/index.cfm?do=facility_info&amp;lang=En&amp;year=2011&amp;ghg_id=G10652,Universities,http://stds.statcan.gc.ca/naics-scian/2007/cs-rc-eng.asp?criteria=611310,43.77420000,-79.50230000
662,Algonquin Power Energy From Waste Inc.,Algonquin Power  Energy from Waste Inc.,Ontario,Brampton,7656 Bramalea Road,L6T5M5,4768,75.08,http://www.ec.gc.ca/ges-ghg/donnees-data/index.cfm?do=facility_info&amp;lang=En&amp;year=2011&amp;ghg_id=G10662,Waste Treatment and Disposal,http://stds.statcan.gc.ca/naics-scian/2007/cs-rc-eng.asp?criteria=562210,43.69700000,-79.68260000
663,Atlantic Packaging Products Ltd.,111 Progress,Ontario,Scarborough,111 Progress Avenue,M1P2Y9,5688,52.34,http://www.ec.gc.ca/ges-ghg/donnees-data/index.cfm?do=facility_info&amp;lang=En&amp;year=2011&amp;ghg_id=G10663,Paperboard Mills,http://stds.statcan.gc.ca/naics-scian/2007/cs-rc-eng.asp?criteria=322130,43.77180000,-79.27350000
664,Brampton Brick Ltd.,Brampton Brick,Ontario,Brampton,225 Wanless Drive,L7A1E9,7302,53.41,http://www.ec.gc.ca/ges-ghg/donnees-data/index.cfm?do=facility_info&amp;lang=En&amp;year=2011&amp;ghg_id=G10664,"Concrete Pipe, Brick and Block Manufacturing",http://stds.statcan.gc.ca/naics-scian/2007/cs-rc-eng.asp?criteria=327330,43.72110000,-79.81640000
677,Fanshawe College of Applied Arts and Technology,Fanshawe College of Applied Arts and Technology,Ontario,London,1001 Fanshawe College Boulevard,N5Y5R6,,3.14,http://www.ec.gc.ca/ges-ghg/donnees-data/index.cfm?do=facility_info&amp;lang=En&amp;year=2011&amp;ghg_id=G10677,Community Colleges and C.E.G.E.P.s,http://stds.statcan.gc.ca/naics-scian/2007/cs-rc-eng.asp?criteria=611210,0.00000000,0.00000000
683,Kawartha Ethanol Inc.,Kawartha Ethanol Inc.,Ontario,Havelock,6830 Highway #7,K0L 1Z0,,55.80,http://www.ec.gc.ca/ges-ghg/donnees-data/index.cfm?do=facility_info&amp;lang=En&amp;year=2011&amp;ghg_id=G10683,Other Basic Organic Chemical Manufacturing,http://stds.statcan.gc.ca/naics-scian/2007/cs-rc-eng.asp?criteria=325190,0.00000000,0.00000000
697,Roxul Inc.,ROXUL INC.,Ontario,Milton,805 Steeles Avenue East,L9T5H3,5687,51.31,http://www.ec.gc.ca/ges-ghg/donnees-data/index.cfm?do=facility_info&amp;lang=En&amp;year=2011&amp;ghg_id=G10697,All Other Non-Metallic Mineral Product Manufacturing,http://stds.statcan.gc.ca/naics-scian/2007/cs-rc-eng.asp?criteria=327990,43.53320000,-79.88740000
703,Expert Manufacturing Inc.,Expert Manufacturing Inc.,Ontario,Concord,180 Viceroy Road East,L4K 2L8,,0.32,http://www.ec.gc.ca/ges-ghg/donnees-data/index.cfm?do=facility_info&amp;lang=En&amp;year=2011&amp;ghg_id=G10703,Office Furniture (except Wood) Manufacturing,http://stds.statcan.gc.ca/naics-scian/2007/cs-rc-eng.asp?criteria=337214,0.00000000,0.00000000
706,Global File Inc.,Global File Inc.,Ontario,Concord,7939 Keele Street,L4K 1Y6,,2.45,http://www.ec.gc.ca/ges-ghg/donnees-data/index.cfm?do=facility_info&amp;lang=En&amp;year=2011&amp;ghg_id=G10706,Office Furniture (except Wood) Manufacturing,http://stds.statcan.gc.ca/naics-scian/2007/cs-rc-eng.asp?criteria=337214,0.00000000,0.00000000
59,Cavendish Farms Corporation,Cavendish Farms,Prince Edward Island,New Annan,25532 Main #2 Highway,C1N4J9,4875,65.12,http://www.ec.gc.ca/ges-ghg/donnees-data/index.cfm?do=facility_info&amp;lang=En&amp;year=2011&amp;ghg_id=G10059,Frozen Food Manufacturing,http://stds.statcan.gc.ca/naics-scian/2007/cs-rc-eng.asp?criteria=311410,46.42220000,-63.67900000
1,AbibowCanada Inc.,Division Alma,Quebec,Alma,1100 Melanion Street,G8B5W2,983,47.62,http://www.ec.gc.ca/ges-ghg/donnees-data/index.cfm?do=facility_info&amp;lang=En&amp;year=2011&amp;ghg_id=G10001,Mechanical Pulp Mills,http://stds.statcan.gc.ca/naics-scian/2007/cs-rc-eng.asp?criteria=322111,48.56500000,-71.65580000
2,ArcelorMittal Montral Inc.,Acirie - ArcelorMittal Contrecoeur,Quebec,Contrecoeur,3900 Route des Aciries,J0L1C0,3649,146.21,http://www.ec.gc.ca/ges-ghg/donnees-data/index.cfm?do=facility_info&amp;lang=En&amp;year=2011&amp;ghg_id=G10002,Iron and Steel Mills and Ferro-Alloy Manufacturing,http://stds.statcan.gc.ca/naics-scian/2007/cs-rc-eng.asp?criteria=331110,45.83470000,-73.24720000
12,Aluminerie Alouette inc.,Aluminerie Alouette inc.,Quebec,Sept-les,400 Chemin de de la Pointe-Noire,G4R5M9,4778,1039.56,http://www.ec.gc.ca/ges-ghg/donnees-data/index.cfm?do=facility_info&amp;lang=En&amp;year=2011&amp;ghg_id=G10012,Primary Production of Alumina and Aluminum,http://stds.statcan.gc.ca/naics-scian/2007/cs-rc-eng.asp?criteria=331313,50.15830000,-66.44160000
13,Alcoa Limite,Aluminerie de Baie-Comeau,Quebec,Baie-Comeau,0 100 Maritime Route,G4Z2L6,2038,860.42,http://www.ec.gc.ca/ges-ghg/donnees-data/index.cfm?do=facility_info&amp;lang=En&amp;year=2011&amp;ghg_id=G10013,Primary Production of Alumina and Aluminum,http://stds.statcan.gc.ca/naics-scian/2007/cs-rc-eng.asp?criteria=331313,49.25830000,-68.14610000
14,Aluminerie de Bcancour inc.,Aluminerie de Bcancour inc.,Quebec,Bcancour,5555 Pierre Thibault,G9H2T7,1071,742.76,http://www.ec.gc.ca/ges-ghg/donnees-data/index.cfm?do=facility_info&amp;lang=En&amp;year=2011&amp;ghg_id=G10014,Primary Production of Alumina and Aluminum,http://stds.statcan.gc.ca/naics-scian/2007/cs-rc-eng.asp?criteria=331313,46.38290000,-72.38740000
21,Graymont (QC) Inc.,Usine de Bedford,Quebec,Bedford,1015 de la Carriere Road,J0J1A0,5591,513.75,http://www.ec.gc.ca/ges-ghg/donnees-data/index.cfm?do=facility_info&amp;lang=En&amp;year=2011&amp;ghg_id=G10021,Lime Manufacturing,http://stds.statcan.gc.ca/naics-scian/2007/cs-rc-eng.asp?criteria=327410,45.11230000,-73.01290000
61,Hydro-Qubec,Centrale de Cap-aux Meules,Quebec,,1034 de la Vernire Road,G4T1R3,6130,126.20,http://www.ec.gc.ca/ges-ghg/donnees-data/index.cfm?do=facility_info&amp;lang=En&amp;year=2011&amp;ghg_id=G10061,Fossil-Fuel Electric Power Generation,http://stds.statcan.gc.ca/naics-scian/2007/cs-rc-eng.asp?criteria=221112,47.37090000,-61.88280000
62,Socit en commandite Boralex nergie,Centrale de cognration de Kingsey Falls,Quebec,Kingsey Falls,36 Lajeunesse Street,J0A1B0,8726,127.35,http://www.ec.gc.ca/ges-ghg/donnees-data/index.cfm?do=facility_info&amp;lang=En&amp;year=2011&amp;ghg_id=G10062,Fossil-Fuel Electric Power Generation,http://stds.statcan.gc.ca/naics-scian/2007/cs-rc-eng.asp?criteria=221112,45.86030000,-72.06430000
64,Chimie Parachem s.e.c,Chimie Parachem s.e.c,Quebec,Montral-Est,3500 Broadway Street,H1B5B4,4569,321.01,http://www.ec.gc.ca/ges-ghg/donnees-data/index.cfm?do=facility_info&amp;lang=En&amp;year=2011&amp;ghg_id=G10064,Petrochemical Manufacturing,http://stds.statcan.gc.ca/naics-scian/2007/cs-rc-eng.asp?criteria=325110,45.63240000,-73.52440000
66,Ciment Qubec Inc.,Cimenterie de Saint-Basile,Quebec,Saint-Basile,145 Boulevard du Centenaire,G0A3G0,5548,637.67,http://www.ec.gc.ca/ges-ghg/donnees-data/index.cfm?do=facility_info&amp;lang=En&amp;year=2011&amp;ghg_id=G10066,Cement Manufacturing,http://stds.statcan.gc.ca/naics-scian/2007/cs-rc-eng.asp?criteria=327310,46.74470000,-71.81260000
67,Lafarge Canada Inc.,Cimenterie de Saint-Constant,Quebec,Saint-Constant,1 Lafarge Road,J5A2G4,5474,664.65,http://www.ec.gc.ca/ges-ghg/donnees-data/index.cfm?do=facility_info&amp;lang=En&amp;year=2011&amp;ghg_id=G10067,Cement Manufacturing,http://stds.statcan.gc.ca/naics-scian/2007/cs-rc-eng.asp?criteria=327310,45.33860000,-73.52180000
76,QIT-Fer et Titane Inc,QIT Complexe mtallurgique de Sorel-Tracy,Quebec,Sorel-Tracy,1625 Marie-Victorin,J3R1M6,4806,1210.67,http://www.ec.gc.ca/ges-ghg/donnees-data/index.cfm?do=facility_info&amp;lang=En&amp;year=2011&amp;ghg_id=G10076,Iron and Steel Mills and Ferro-Alloy Manufacturing,http://stds.statcan.gc.ca/naics-scian/2007/cs-rc-eng.asp?criteria=331110,46.04470000,-73.13920000
90,AbiBow Canada Inc. - Empty,Division Laurentide,Quebec,Grand-Mre,100 1er Street,G9T7J1,2587,79.07,http://www.ec.gc.ca/ges-ghg/donnees-data/index.cfm?do=facility_info&amp;lang=En&amp;year=2011&amp;ghg_id=G10090,Paper (except Newsprint) Mills,http://stds.statcan.gc.ca/naics-scian/2007/cs-rc-eng.asp?criteria=322121,46.61500000,-72.68170000
103,Elkem Metal Canada Inc.,Elkem Mtal Chicoutimi,Quebec,Chicoutimi,2020 de la Rserve Road,g7j0e1,6344,98.32,http://www.ec.gc.ca/ges-ghg/donnees-data/index.cfm?do=facility_info&amp;lang=En&amp;year=2011&amp;ghg_id=G10103,Iron and Steel Mills and Ferro-Alloy Manufacturing,http://stds.statcan.gc.ca/naics-scian/2007/cs-rc-eng.asp?criteria=331110,48.41240000,-71.13070000
148,"CEPSA Chimie Montral, s.e.c.","CEPSA Chimie Montral, s.e.c.",Quebec,Montral,10200 Sherbrooke East,H1B1B4,6427,103.58,http://www.ec.gc.ca/ges-ghg/donnees-data/index.cfm?do=facility_info&amp;lang=En&amp;year=2011&amp;ghg_id=G10148,Other Basic Organic Chemical Manufacturing,http://stds.statcan.gc.ca/naics-scian/2007/cs-rc-eng.asp?criteria=325190,45.62030000,-73.51830000
153,Graymont (QC) Inc.,Usine de Joliette,Quebec,Joliette,1300 Notre-Dame Street,J6E3Z9,6185,72.40,http://www.ec.gc.ca/ges-ghg/donnees-data/index.cfm?do=facility_info&amp;lang=En&amp;year=2011&amp;ghg_id=G10153,Lime Manufacturing,http://stds.statcan.gc.ca/naics-scian/2007/cs-rc-eng.asp?criteria=327410,46.01340000,-73.45760000
154,Holcim (Canada) inc.,Usine de Joliette,Quebec,Joliette,966 des Prairies Road,J6E6H7,5544,784.13,http://www.ec.gc.ca/ges-ghg/donnees-data/index.cfm?do=facility_info&amp;lang=En&amp;year=2011&amp;ghg_id=G10154,Cement Manufacturing,http://stds.statcan.gc.ca/naics-scian/2007/cs-rc-eng.asp?criteria=327310,46.02970000,-73.40240000
168,"KRONOS Canada, Inc.","KRONOS Canada, Inc.",Quebec,Varennes,3390 Marie-Victorin Boulevard,J3X1T4,1561,200.99,http://www.ec.gc.ca/ges-ghg/donnees-data/index.cfm?do=facility_info&amp;lang=En&amp;year=2011&amp;ghg_id=G10168,All Other Basic Inorganic Chemical Manufacturing,http://stds.statcan.gc.ca/naics-scian/2007/cs-rc-eng.asp?criteria=325189,45.71250000,-73.42500000
169,Kruger Wayagamack inc.,Kruger Wayagamack inc.,Quebec,Trois-Rivires,1 Ile de la Potherie,G9A5E9,2502,55.10,http://www.ec.gc.ca/ges-ghg/donnees-data/index.cfm?do=facility_info&amp;lang=En&amp;year=2011&amp;ghg_id=G10169,Paper (except Newsprint) Mills,http://stds.statcan.gc.ca/naics-scian/2007/cs-rc-eng.asp?criteria=322121,46.35830000,-72.51850000
183,Graymont (QC) Inc.,Usine de Marbleton,Quebec,Marbleton,303 Principale Street West,J0B2L0,6187,296.11,http://www.ec.gc.ca/ges-ghg/donnees-data/index.cfm?do=facility_info&amp;lang=En&amp;year=2011&amp;ghg_id=G10183,Lime Manufacturing,http://stds.statcan.gc.ca/naics-scian/2007/cs-rc-eng.asp?criteria=327410,45.62070000,-71.60490000
188,ArcelorMittal Mines Canada,Mine de Mont-Wright,Quebec,Fermont,1 Chemin de la mine,G0G1J0,6217,139.74,http://www.ec.gc.ca/ges-ghg/donnees-data/index.cfm?do=facility_info&amp;lang=En&amp;year=2011&amp;ghg_id=G10188,Iron Ore Mining,http://stds.statcan.gc.ca/naics-scian/2007/cs-rc-eng.asp?criteria=212210,52.76430000,-67.31970000
189,Mines Wabush,Mines Wabush - Sept-Iles,Quebec,Sept-les,1505 de la Pointe Noire Road,G4R4L4,5459,384.56,http://www.ec.gc.ca/ges-ghg/donnees-data/index.cfm?do=facility_info&amp;lang=En&amp;year=2011&amp;ghg_id=G10189,Iron Ore Mining,http://stds.statcan.gc.ca/naics-scian/2007/cs-rc-eng.asp?criteria=212210,50.16160000,-66.48380000
194,Shell Canada Products,Raffinerie de Montral-Est,Quebec,Montral-Est,10501 Sherbrooke Street East,H1B1B3,3127,4.83,http://www.ec.gc.ca/ges-ghg/donnees-data/index.cfm?do=facility_info&amp;lang=En&amp;year=2011&amp;ghg_id=G10194,Petroleum Refineries,http://stds.statcan.gc.ca/naics-scian/2007/cs-rc-eng.asp?criteria=324110,45.62540000,-73.53050000
217,Fortress Cellulose Spcialise,Usine de Thurso,Quebec,Thurso,451 Victoria Street,J0X3B0,1528,85.96,http://www.ec.gc.ca/ges-ghg/donnees-data/index.cfm?do=facility_info&amp;lang=En&amp;year=2011&amp;ghg_id=G10217,Chemical Pulp Mills,http://stds.statcan.gc.ca/naics-scian/2007/cs-rc-eng.asp?criteria=322112,45.59850000,-75.25620000
221,CEPSA Chimie Bcancour,CEPSA Chimie Bcancour,Quebec,Bcancour,0 5250 Bcancour Boulevard,G9H3X3,4805,46.49,http://www.ec.gc.ca/ges-ghg/donnees-data/index.cfm?do=facility_info&amp;lang=En&amp;year=2011&amp;ghg_id=G10221,Other Basic Organic Chemical Manufacturing,http://stds.statcan.gc.ca/naics-scian/2007/cs-rc-eng.asp?criteria=325190,46.38030000,-72.36160000
238,Suncor Energy Products Partnership,Raffinerie de Montreal,Quebec,Montreal,11701 Sherbrooke Street East,H1B1C3,3897,1117.13,http://www.ec.gc.ca/ges-ghg/donnees-data/index.cfm?do=facility_info&amp;lang=En&amp;year=2011&amp;ghg_id=G10238,Petroleum Refineries,http://stds.statcan.gc.ca/naics-scian/2007/cs-rc-eng.asp?criteria=324110,45.64170000,-73.51670000
239,Ultramar limite,Raffinerie Jean-Gaulin,Quebec,Lvis,165 Chemin des Iles,G6V7M5,3928,1385.45,http://www.ec.gc.ca/ges-ghg/donnees-data/index.cfm?do=facility_info&amp;lang=En&amp;year=2011&amp;ghg_id=G10239,Petroleum Refineries,http://stds.statcan.gc.ca/naics-scian/2007/cs-rc-eng.asp?criteria=324110,46.75920000,-71.19140000
240,Xstrata Canada Corporation - Duplicate,Mine Raglan,Quebec,Rouyn-Noranda,120 de l'Aroport Avenue,J9Y0G1,5448,140.75,http://www.ec.gc.ca/ges-ghg/donnees-data/index.cfm?do=facility_info&amp;lang=En&amp;year=2011&amp;ghg_id=G10240,Nickel-Copper Ore Mining,http://stds.statcan.gc.ca/naics-scian/2007/cs-rc-eng.asp?criteria=212232,61.69160000,-73.66660000
263,Fibrek S.E.N.C.,Fibrek SENC,Quebec,St-Flicien,4000 St-Eusebe,G8K2R6,3242,86.17,http://www.ec.gc.ca/ges-ghg/donnees-data/index.cfm?do=facility_info&amp;lang=En&amp;year=2011&amp;ghg_id=G10263,Chemical Pulp Mills,http://stds.statcan.gc.ca/naics-scian/2007/cs-rc-eng.asp?criteria=322112,48.66670000,-72.45830000
272,Tembec,Site de Tmiscaming,Quebec,Tmiscaming,33 Kipawa Road,J0Z3R0,2948,79.38,http://www.ec.gc.ca/ges-ghg/donnees-data/index.cfm?do=facility_info&amp;lang=En&amp;year=2011&amp;ghg_id=G10272,Chemical Pulp Mills,http://stds.statcan.gc.ca/naics-scian/2007/cs-rc-eng.asp?criteria=322112,46.71110000,-79.09670000
295,Rio Tinto Alcan,Usine Alma,Quebec,Alma,3000 des Pins,G8B5W2,5510,909.49,http://www.ec.gc.ca/ges-ghg/donnees-data/index.cfm?do=facility_info&amp;lang=En&amp;year=2011&amp;ghg_id=G10295,Primary Production of Alumina and Aluminum,http://stds.statcan.gc.ca/naics-scian/2007/cs-rc-eng.asp?criteria=331313,48.58370000,-71.68890000
296,Rio Tinto Alcan,Usine Arvida,Quebec,Jonquicre,1955 Mellon Boulevard,G7S4L2,3406,805.06,http://www.ec.gc.ca/ges-ghg/donnees-data/index.cfm?do=facility_info&amp;lang=En&amp;year=2011&amp;ghg_id=G10296,Primary Production of Alumina and Aluminum,http://stds.statcan.gc.ca/naics-scian/2007/cs-rc-eng.asp?criteria=331313,48.42740000,-71.15990000
297,Rio Tinto Alcan,Usine de Beauharnois,Quebec,Melocheville,40 de l'industrie Street,J6N1W5,4808,8.96,http://www.ec.gc.ca/ges-ghg/donnees-data/index.cfm?do=facility_info&amp;lang=En&amp;year=2011&amp;ghg_id=G10297,Primary Production of Alumina and Aluminum,http://stds.statcan.gc.ca/naics-scian/2007/cs-rc-eng.asp?criteria=331313,45.30790000,-73.89470000
299,ArcelorMittal Mines Canada,Usine de Bouletage de Port-Cartier,Quebec,Port-Cartier,186 Portage des Mousses,G5B2H3,2000,947.42,http://www.ec.gc.ca/ges-ghg/donnees-data/index.cfm?do=facility_info&amp;lang=En&amp;year=2011&amp;ghg_id=G10299,Iron Ore Mining,http://stds.statcan.gc.ca/naics-scian/2007/cs-rc-eng.asp?criteria=212210,50.03340000,-66.79100000
300,Alcoa Aluminereie de Deschambault Lte,Usine de Deschambault,Quebec,Deschambault,1 des Sources Boulevard,G0A1S0,4782,462.68,http://www.ec.gc.ca/ges-ghg/donnees-data/index.cfm?do=facility_info&amp;lang=En&amp;year=2011&amp;ghg_id=G10300,Primary Production of Alumina and Aluminum,http://stds.statcan.gc.ca/naics-scian/2007/cs-rc-eng.asp?criteria=331313,46.69410000,-71.94690000
301,Rio Tinto Alcan,Usine de fluorure,Quebec,Jonquicre,1955 Mellon Boulevard,G7S4L2,,11.00,http://www.ec.gc.ca/ges-ghg/donnees-data/index.cfm?do=facility_info&amp;lang=En&amp;year=2011&amp;ghg_id=G10301,Primary Production of Alumina and Aluminum,http://stds.statcan.gc.ca/naics-scian/2007/cs-rc-eng.asp?criteria=331313,0.00000000,0.00000000
302,"Emballages RockTenn-Canada, L.P.",Usine de La Tuque,Quebec,La Tuque,1000 de l'usine Road,G9X3P8,3140,257.62,http://www.ec.gc.ca/ges-ghg/donnees-data/index.cfm?do=facility_info&amp;lang=En&amp;year=2011&amp;ghg_id=G10302,Paperboard Mills,http://stds.statcan.gc.ca/naics-scian/2007/cs-rc-eng.asp?criteria=322130,47.45000000,-72.79170000
305,ArcelorMittal Montral Inc.,Usine de rduction - ArcelorMittal Contrecoeur,Quebec,Contrecoeur,3900 Route des Aciries,J0L1C0,6168,350.18,http://www.ec.gc.ca/ges-ghg/donnees-data/index.cfm?do=facility_info&amp;lang=En&amp;year=2011&amp;ghg_id=G10305,Iron and Steel Mills and Ferro-Alloy Manufacturing,http://stds.statcan.gc.ca/naics-scian/2007/cs-rc-eng.asp?criteria=331110,45.83630000,-73.25200000
306,Rio Tinto Alcan,Usine Grande-Baie,Quebec,La Baie,5000 Route du Petit-Parc,G7B4G9,3062,509.00,http://www.ec.gc.ca/ges-ghg/donnees-data/index.cfm?do=facility_info&amp;lang=En&amp;year=2011&amp;ghg_id=G10306,Primary Production of Alumina and Aluminum,http://stds.statcan.gc.ca/naics-scian/2007/cs-rc-eng.asp?criteria=331313,48.30580000,-70.92670000
307,Rio Tinto Alcan,Usine Laterricre,Quebec,Laterricre,6301 Talbot Boulevard,G7N1A2,3060,453.41,http://www.ec.gc.ca/ges-ghg/donnees-data/index.cfm?do=facility_info&amp;lang=En&amp;year=2011&amp;ghg_id=G10307,Primary Production of Alumina and Aluminum,http://stds.statcan.gc.ca/naics-scian/2007/cs-rc-eng.asp?criteria=331313,48.30070000,-71.12890000
308,Rio Tinto Alcan,Usine Shawinigan,Quebec,Shawinigan,1100 St-Sacrement Boulevard,G9N6W4,3057,322.33,http://www.ec.gc.ca/ges-ghg/donnees-data/index.cfm?do=facility_info&amp;lang=En&amp;year=2011&amp;ghg_id=G10308,Primary Production of Alumina and Aluminum,http://stds.statcan.gc.ca/naics-scian/2007/cs-rc-eng.asp?criteria=331313,46.56100000,-72.73510000
309,Rio Tinto Alcan,Usine Vaudreuil,Quebec,Jonquiere,1955 Mellon Boulevard,G7S4L2,2978,580.34,http://www.ec.gc.ca/ges-ghg/donnees-data/index.cfm?do=facility_info&amp;lang=En&amp;year=2011&amp;ghg_id=G10309,Primary Production of Alumina and Aluminum,http://stds.statcan.gc.ca/naics-scian/2007/cs-rc-eng.asp?criteria=331313,48.42570000,-71.17180000
344,Waste Management of Canada Corporation,Sainte Sophie Landfill,Quebec,Sainte Sophie,2535 1ere Street,J5J2R7,6173,25.49,http://www.ec.gc.ca/ges-ghg/donnees-data/index.cfm?do=facility_info&amp;lang=En&amp;year=2011&amp;ghg_id=G10344,Waste Treatment and Disposal,http://stds.statcan.gc.ca/naics-scian/2007/cs-rc-eng.asp?criteria=562210,45.78460000,-73.90600000
357,TransCanada Energy Ltd.,Bcancour Power Plant,Quebec,Bcancour,7005 Raoul-Duchesne Boulevard,G9H4X6,8606,124.08,http://www.ec.gc.ca/ges-ghg/donnees-data/index.cfm?do=facility_info&amp;lang=En&amp;year=2011&amp;ghg_id=G10357,Fossil-Fuel Electric Power Generation,http://stds.statcan.gc.ca/naics-scian/2007/cs-rc-eng.asp?criteria=221112,46.36750000,-72.40450000
362,Electrolux Canada Corp.,Electrolux Canada Corporation,Quebec,L'Assomption,802 L'ange-Gardien Boulevard,J5W1T6,8566,5.63,http://www.ec.gc.ca/ges-ghg/donnees-data/index.cfm?do=facility_info&amp;lang=En&amp;year=2011&amp;ghg_id=G10362,Major Kitchen Appliance Manufacturing,http://stds.statcan.gc.ca/naics-scian/2007/cs-rc-eng.asp?criteria=335223,45.83590000,-73.41430000
369,ArcelorMittal Montral Inc.,ArcelorMittal Contrecoeur Ouest,Quebec,Contrecoeur,2050 Route des Aciries,J0L1C0,2986,82.79,http://www.ec.gc.ca/ges-ghg/donnees-data/index.cfm?do=facility_info&amp;lang=En&amp;year=2011&amp;ghg_id=G10369,Iron and Steel Mills and Ferro-Alloy Manufacturing,http://stds.statcan.gc.ca/naics-scian/2007/cs-rc-eng.asp?criteria=331110,45.82060000,-73.26610000
370,Owens Corning,OC Celfortec LPValleyfield,Quebec,Valleyfield,542 Gatan Street,J6S0A7,5482,235.16,http://www.ec.gc.ca/ges-ghg/donnees-data/index.cfm?do=facility_info&amp;lang=En&amp;year=2011&amp;ghg_id=G10370,Polystyrene Foam Product Manufacturing,http://stds.statcan.gc.ca/naics-scian/2007/cs-rc-eng.asp?criteria=326140,45.26390000,-74.15460000
396,Greenfield Ethanol Inc.,Varennes Plant,Quebec,Varennes,3300 Marie-Victorin Boulevard,J3X1P7,11616,97.79,http://www.ec.gc.ca/ges-ghg/donnees-data/index.cfm?do=facility_info&amp;lang=En&amp;year=2011&amp;ghg_id=G10396,Other Basic Organic Chemical Manufacturing,http://stds.statcan.gc.ca/naics-scian/2007/cs-rc-eng.asp?criteria=325190,45.70780000,-73.42420000
401,BFI Usine de triage Lachenaie Lte.,Usine de triage Lachenaie,Quebec,Terrebonne,3779 des 40-Arpents Road,J6V9T6,6370,147.54,http://www.ec.gc.ca/ges-ghg/donnees-data/index.cfm?do=facility_info&amp;lang=En&amp;year=2011&amp;ghg_id=G10401,All Other Waste Management Services,http://stds.statcan.gc.ca/naics-scian/2007/cs-rc-eng.asp?criteria=562990,45.73260000,-73.53460000
445,Colacem Canada inc,Cimenterie Kilmar,Quebec,Grenville-sur-la-Rouge,1235 Chemin Kilmar Road North,J0V1B0,8599,168.00,http://www.ec.gc.ca/ges-ghg/donnees-data/index.cfm?do=facility_info&amp;lang=En&amp;year=2011&amp;ghg_id=G10445,Cement Manufacturing,http://stds.statcan.gc.ca/naics-scian/2007/cs-rc-eng.asp?criteria=327310,45.76830000,-74.61410000
452,Domtar Inc.,Domtar Usine de Windsor,Quebec,Windsor,609 rang 12,J1S2L9,1195,97.62,http://www.ec.gc.ca/ges-ghg/donnees-data/index.cfm?do=facility_info&amp;lang=En&amp;year=2011&amp;ghg_id=G10452,Chemical Pulp Mills,http://stds.statcan.gc.ca/naics-scian/2007/cs-rc-eng.asp?criteria=322112,45.55420000,-71.99580000
488,Produits Kruger s.e.c.,"Produits Kruger s.e.c., usine de Gatineau",Quebec,Gatineau,20 Laurier Street,J8X4H3,5535,61.66,http://www.ec.gc.ca/ges-ghg/donnees-data/index.cfm?do=facility_info&amp;lang=En&amp;year=2011&amp;ghg_id=G10488,Paper (except Newsprint) Mills,http://stds.statcan.gc.ca/naics-scian/2007/cs-rc-eng.asp?criteria=322121,45.42760000,-75.71020000
490,Lantic Inc. - Raffinerie Montral,Lantic Inc. - Raffinerie Montral,Quebec,Montral,4026 Notre-Dame Street East,H1W2K3,3043,71.46,http://www.ec.gc.ca/ges-ghg/donnees-data/index.cfm?do=facility_info&amp;lang=En&amp;year=2011&amp;ghg_id=G10490,Sugar Manufacturing,http://stds.statcan.gc.ca/naics-scian/2007/cs-rc-eng.asp?criteria=311310,45.54680000,-73.53390000
492,"Lidya nergie, s.e.c.","Lidya nergie, s.e.c.",Quebec,Lachute,6985 des Sources Road,J8H2C5,8760,0.04,http://www.ec.gc.ca/ges-ghg/donnees-data/index.cfm?do=facility_info&amp;lang=En&amp;year=2011&amp;ghg_id=G10492,Other Electric Power Generation,http://stds.statcan.gc.ca/naics-scian/2007/cs-rc-eng.asp?criteria=221119,45.61060000,-74.24880000
527,O-I Canada Corp.,Plant #34 Montreal,Quebec,Montreal,2376 Wellington Street,H3K1X6,4449,63.00,http://www.ec.gc.ca/ges-ghg/donnees-data/index.cfm?do=facility_info&amp;lang=En&amp;year=2011&amp;ghg_id=G10527,Glass Manufacturing,http://stds.statcan.gc.ca/naics-scian/2007/cs-rc-eng.asp?criteria=327214,45.49200000,-73.55820000
535,PRODUITS KRUGER s.e.c.,Produits Kruger s.e.c.,Quebec,Crabtree,100 1 re avenue Avenue,J0K1B0,1875,61.66,http://www.ec.gc.ca/ges-ghg/donnees-data/index.cfm?do=facility_info&amp;lang=En&amp;year=2011&amp;ghg_id=G10535,Paper (except Newsprint) Mills,http://stds.statcan.gc.ca/naics-scian/2007/cs-rc-eng.asp?criteria=322121,45.96330000,-73.47000000
538,Rgie Intermunicipale Argenteuil Deux-Montagnes,LET de Lachute,Quebec,Lachute,0 6985 Chemin des Sources,J8H2C5,,183.64,http://www.ec.gc.ca/ges-ghg/donnees-data/index.cfm?do=facility_info&amp;lang=En&amp;year=2011&amp;ghg_id=G10538,Waste Treatment and Disposal,http://stds.statcan.gc.ca/naics-scian/2007/cs-rc-eng.asp?criteria=562210,0.00000000,0.00000000
544,RIEDSBM,Lieu d'enfouissement,Quebec,Cowansville,2500 rang St-Joseph,J2K3G6,,58.99,http://www.ec.gc.ca/ges-ghg/donnees-data/index.cfm?do=facility_info&amp;lang=En&amp;year=2011&amp;ghg_id=G10544,Waste Treatment and Disposal,http://stds.statcan.gc.ca/naics-scian/2007/cs-rc-eng.asp?criteria=562210,0.00000000,0.00000000
545,Institution royale pour l'avancement des sciences,Universit McGill - Campus Centre-Ville,Quebec,Montreal,840 Docteur Penfield Avenue,H3A1A4,8510,33.17,http://www.ec.gc.ca/ges-ghg/donnees-data/index.cfm?do=facility_info&amp;lang=En&amp;year=2011&amp;ghg_id=G10545,Universities,http://stds.statcan.gc.ca/naics-scian/2007/cs-rc-eng.asp?criteria=611310,45.50610000,-73.57840000
546,Institution royale pour l'avancement des sciences,Universit McGill - Campus Macdonald,Quebec,Sainte-Anne-de-Bellevue,21082 Lakeshore Road,H9X1S2,8605,4.81,http://www.ec.gc.ca/ges-ghg/donnees-data/index.cfm?do=facility_info&amp;lang=En&amp;year=2011&amp;ghg_id=G10546,Universities,http://stds.statcan.gc.ca/naics-scian/2007/cs-rc-eng.asp?criteria=611310,45.40690000,-73.93670000
548,Socit en commandite Gaz  Mtro,Socit en commandite gaz metro,Quebec,Montral,1717 du Havre Street,H2K2X3,6369,62.42,http://www.ec.gc.ca/ges-ghg/donnees-data/index.cfm?do=facility_info&amp;lang=En&amp;year=2011&amp;ghg_id=G10548,Natural Gas Distribution,http://stds.statcan.gc.ca/naics-scian/2007/cs-rc-eng.asp?criteria=221210,45.53220000,-73.54590000
571,Ville de Montral,Station d'puration des eaux uses Jean-R.-Marcotte,Quebec,Montral,12001 boulevard Maurice-Duplessis,H1C1V3,3571,82.80,http://www.ec.gc.ca/ges-ghg/donnees-data/index.cfm?do=facility_info&amp;lang=En&amp;year=2011&amp;ghg_id=G10571,Sewage Treatment Facilities,http://stds.statcan.gc.ca/naics-scian/2007/cs-rc-eng.asp?criteria=221320,45.67220000,-73.52500000
572,Waste Management of Canada Corporation,St. Nicephore Landfill,Quebec,St. Nicephore,25 Gagnon Street,J2A3H3,6171,74.05,http://www.ec.gc.ca/ges-ghg/donnees-data/index.cfm?do=facility_info&amp;lang=En&amp;year=2011&amp;ghg_id=G10572,Waste Treatment and Disposal,http://stds.statcan.gc.ca/naics-scian/2007/cs-rc-eng.asp?criteria=562210,45.81060000,-72.37650000
578,Xstrata Canada Corporation,CCR refinery,Quebec,Montral-Est,0 220 Durocher Avenue Northwest,H1B5H6,3916,52.08,http://www.ec.gc.ca/ges-ghg/donnees-data/index.cfm?do=facility_info&amp;lang=En&amp;year=2011&amp;ghg_id=G10578,Non-Ferrous Metal (except Aluminum) Smelting and Refining,http://stds.statcan.gc.ca/naics-scian/2007/cs-rc-eng.asp?criteria=331410,45.62830000,-73.51250000
579,Xstrata Canada Corporation,Fonderie Horne,Quebec,Rouyn-Noranda,101 Portelance Avenue,J9X5B6,3623,122.51,http://www.ec.gc.ca/ges-ghg/donnees-data/index.cfm?do=facility_info&amp;lang=En&amp;year=2011&amp;ghg_id=G10579,Non-Ferrous Foundries (except Die-Casting),http://stds.statcan.gc.ca/naics-scian/2007/cs-rc-eng.asp?criteria=331529,48.25420000,-79.01670000
582,Ville de Qubec,Incinrateur,Quebec,Qubec,"1210, boulevard Montmorency",G1J3V9,211,84.27,http://www.ec.gc.ca/ges-ghg/donnees-data/index.cfm?do=facility_info&amp;lang=En&amp;year=2011&amp;ghg_id=G10582,Waste Treatment and Disposal,http://stds.statcan.gc.ca/naics-scian/2007/cs-rc-eng.asp?criteria=562210,46.83180000,-71.22400000
583,Ville de Qubec,Site d'enfouissement Saint-Tite-des-Caps,Quebec,Saint-Tite-des-Caps,50 138 Boulevard,G0A4J0,,61.93,http://www.ec.gc.ca/ges-ghg/donnees-data/index.cfm?do=facility_info&amp;lang=En&amp;year=2011&amp;ghg_id=G10583,Waste Treatment and Disposal,http://stds.statcan.gc.ca/naics-scian/2007/cs-rc-eng.asp?criteria=562210,0.00000000,0.00000000
585,Dow Chemical Canada ULC,Varennes Facility,Quebec,Varennes,0 4445 boul. Marie Victorin,J3X1T3,281,349.97,http://www.ec.gc.ca/ges-ghg/donnees-data/index.cfm?do=facility_info&amp;lang=En&amp;year=2011&amp;ghg_id=G10585,Polystyrene Foam Product Manufacturing,http://stds.statcan.gc.ca/naics-scian/2007/cs-rc-eng.asp?criteria=326140,45.73170000,-73.40330000
618,La Corporation Newalta,La Corporation Newalta VSC,Quebec,Ste Catherine,1200 Garnier Street,J5C1B4,4402,54.55,http://www.ec.gc.ca/ges-ghg/donnees-data/index.cfm?do=facility_info&amp;lang=En&amp;year=2011&amp;ghg_id=G10618,Non-Ferrous Foundries (except Die-Casting),http://stds.statcan.gc.ca/naics-scian/2007/cs-rc-eng.asp?criteria=331529,45.40000000,-73.60000000
628,Produits American Biltrite Lte,PRODUITS AMERICAN BILTRITE LTEE. - SHERBROOKE,Quebec,Sherbrooke,200 Bank Street,J1H4K3,1083,5.80,http://www.ec.gc.ca/ges-ghg/donnees-data/index.cfm?do=facility_info&amp;lang=En&amp;year=2011&amp;ghg_id=G10628,Other Rubber Product Manufacturing,http://stds.statcan.gc.ca/naics-scian/2007/cs-rc-eng.asp?criteria=326290,45.40520000,-71.89460000
630,Produits Techni-Seal,PRODUITS TECHNI-SEAL - CANDIAC,Quebec,Candiac,300 Libert,J5R6X1,8644,0.46,http://www.ec.gc.ca/ges-ghg/donnees-data/index.cfm?do=facility_info&amp;lang=En&amp;year=2011&amp;ghg_id=G10630,All Other Miscellaneous Chemical Product Manufacturing,http://stds.statcan.gc.ca/naics-scian/2007/cs-rc-eng.asp?criteria=325999,45.37180000,-73.52480000
633,Roland Thibault inc.,Roland Thibault Inc.,Quebec,Ste-Ccile-de-Milton,702 route 137,J0E2C0,,76.15,http://www.ec.gc.ca/ges-ghg/donnees-data/index.cfm?do=facility_info&amp;lang=En&amp;year=2011&amp;ghg_id=G10633,Waste Treatment and Disposal,http://stds.statcan.gc.ca/naics-scian/2007/cs-rc-eng.asp?criteria=562210,0.00000000,0.00000000
640,Technocell Inc.,Technocell inc,Quebec,Drummondville,3075 Bernier,J2C6Y4,5552,15.59,http://www.ec.gc.ca/ges-ghg/donnees-data/index.cfm?do=facility_info&amp;lang=En&amp;year=2011&amp;ghg_id=G10640,Paper (except Newsprint) Mills,http://stds.statcan.gc.ca/naics-scian/2007/cs-rc-eng.asp?criteria=322121,45.87610000,-72.54470000
649,Waste Management of Canada Corporation,Magog Landfill Bestan Inc.,Quebec,Magog,1994 D'Ayer's Cliff Street,J1X5A8,6172,59.48,http://www.ec.gc.ca/ges-ghg/donnees-data/index.cfm?do=facility_info&amp;lang=En&amp;year=2011&amp;ghg_id=G10649,Waste Treatment and Disposal,http://stds.statcan.gc.ca/naics-scian/2007/cs-rc-eng.asp?criteria=562210,45.21790000,-72.14800000
657,Silicium Qubec SEC,Quebec Silicon LP,Quebec,Bcancour,6500 Yvon Trudeau,G9H2V8,8807,173.97,http://www.ec.gc.ca/ges-ghg/donnees-data/index.cfm?do=facility_info&amp;lang=En&amp;year=2011&amp;ghg_id=G10657,Iron and Steel Mills and Ferro-Alloy Manufacturing,http://stds.statcan.gc.ca/naics-scian/2007/cs-rc-eng.asp?criteria=331110,46.37120000,-72.38810000
669,Corporation minire Osisko,Mine Canadian Malartic,Quebec,Malartic,100 Chemin du Lac Mourier,J0Y 1Z0,,83.18,http://www.ec.gc.ca/ges-ghg/donnees-data/index.cfm?do=facility_info&amp;lang=En&amp;year=2011&amp;ghg_id=G10669,Gold and Silver Ore Mining,http://stds.statcan.gc.ca/naics-scian/2007/cs-rc-eng.asp?criteria=212220,0.00000000,0.00000000
684,Kruger Inc,Emballages Krupack Place Turcot,Quebec,Montral,5845 Place Turcot,H4C1V9,5472,41.11,http://www.ec.gc.ca/ges-ghg/donnees-data/index.cfm?do=facility_info&amp;lang=En&amp;year=2011&amp;ghg_id=G10684,Paperboard Mills,http://stds.statcan.gc.ca/naics-scian/2007/cs-rc-eng.asp?criteria=322130,45.46240000,-73.60450000
701,Socit en commandite Boralex nergie,Centrale de Dolbeau,Quebec,Dolbeau-Mistassini,1 4ime Avenue,G8L2R4,6426,60.86,http://www.ec.gc.ca/ges-ghg/donnees-data/index.cfm?do=facility_info&amp;lang=En&amp;year=2011&amp;ghg_id=G10701,Other Electric Power Generation,http://stds.statcan.gc.ca/naics-scian/2007/cs-rc-eng.asp?criteria=221119,48.87940000,-72.21660000
19,Bayer CropScience Inc.,Formulation Plant,Saskatchewan,Regina,295 Henderson Drive,S4N6C2,1408,2.51,http://www.ec.gc.ca/ges-ghg/donnees-data/index.cfm?do=facility_info&amp;lang=En&amp;year=2011&amp;ghg_id=G10019,Pesticide and Other Agricultural Chemical Manufacturing,http://stds.statcan.gc.ca/naics-scian/2007/cs-rc-eng.asp?criteria=325320,50.47340000,-104.56110000
24,Saskatchewan Power Corporation,Boundary Dam Power Station,Saskatchewan,Estevan,04/05-002-08-W2,S4A2A6,2081,6110.19,http://www.ec.gc.ca/ges-ghg/donnees-data/index.cfm?do=facility_info&amp;lang=En&amp;year=2011&amp;ghg_id=G10024,Fossil-Fuel Electric Power Generation,http://stds.statcan.gc.ca/naics-scian/2007/cs-rc-eng.asp?criteria=221112,49.04220000,-103.03230000
38,TransCanada PipeLines Ltd.,"TransCanada Pipeline, Saskatchewan",Saskatchewan,Burstall,SE-07-020-25-W3,S0N0H0,,310.09,http://www.ec.gc.ca/ges-ghg/donnees-data/index.cfm?do=facility_info&amp;lang=En&amp;year=2011&amp;ghg_id=G10038,Pipeline Transportation of Natural Gas,http://stds.statcan.gc.ca/naics-scian/2007/cs-rc-eng.asp?criteria=486210,0.00000000,0.00000000
60,Consumers' Co-operative Refineries Limited,Co-op Refinery Complex,Saskatchewan,Regina,550 East 9th Avenue North,S4N7B3,4048,1441.28,http://www.ec.gc.ca/ges-ghg/donnees-data/index.cfm?do=facility_info&amp;lang=En&amp;year=2011&amp;ghg_id=G10060,Petroleum Refineries,http://stds.statcan.gc.ca/naics-scian/2007/cs-rc-eng.asp?criteria=324110,50.48430000,-104.57940000
80,ATCO Power Canada Ltd.,Cory Cogeneration Station,Saskatchewan,Saskatoon,"SE1/4-18-036-06-W3, Box 130",S7K3K1,16289,602.71,http://www.ec.gc.ca/ges-ghg/donnees-data/index.cfm?do=facility_info&amp;lang=En&amp;year=2011&amp;ghg_id=G10080,Fossil-Fuel Electric Power Generation,http://stds.statcan.gc.ca/naics-scian/2007/cs-rc-eng.asp?criteria=221112,52.09190000,-106.84750000
147,Husky Oil Operations Limited,Lloydminster Upgrader,Saskatchewan,Lloydminster,16 Highway East,S9V1M6,409,1024.45,http://www.ec.gc.ca/ges-ghg/donnees-data/index.cfm?do=facility_info&amp;lang=En&amp;year=2011&amp;ghg_id=G10147,Non-Conventional Oil Extraction,http://stds.statcan.gc.ca/naics-scian/2007/cs-rc-eng.asp?criteria=211114,53.26300000,-109.94890000
150,EVRAZ Inc NA Canada,EVRAZ Inc NA Canada - Regina Facilities,Saskatchewan,Regina,100 Armour Road,S4P3C7,2740,214.62,http://www.ec.gc.ca/ges-ghg/donnees-data/index.cfm?do=facility_info&amp;lang=En&amp;year=2011&amp;ghg_id=G10150,Iron and Steel Mills and Ferro-Alloy Manufacturing,http://stds.statcan.gc.ca/naics-scian/2007/cs-rc-eng.asp?criteria=331110,50.51560000,-104.62580000
186,Meridian Limited Partnership,Meridian Cogeneration Plant,Saskatchewan,Lloydminster,"Hwy 16 East, Upgrader Road, Lock Box 1710",S9V 1M6,6595,859.67,http://www.ec.gc.ca/ges-ghg/donnees-data/index.cfm?do=facility_info&amp;lang=En&amp;year=2011&amp;ghg_id=G10186,Fossil-Fuel Electric Power Generation,http://stds.statcan.gc.ca/naics-scian/2007/cs-rc-eng.asp?criteria=221112,53.25930000,-109.95120000
195,Mosaic Canada ULC,Mosaic Potash Belle Plaine,Saskatchewan,Belle Plaine,Kalium Road,S0G0G0,4099,661.53,http://www.ec.gc.ca/ges-ghg/donnees-data/index.cfm?do=facility_info&amp;lang=En&amp;year=2011&amp;ghg_id=G10195,Potash Mining,http://stds.statcan.gc.ca/naics-scian/2007/cs-rc-eng.asp?criteria=212396,50.42860000,-105.20050000
224,Husky Oil Operations Limited,Pikes Peak,Saskatchewan,Lloydminster,2944 44 Avenue,S9V0Z1,17014,246.71,http://www.ec.gc.ca/ges-ghg/donnees-data/index.cfm?do=facility_info&amp;lang=En&amp;year=2011&amp;ghg_id=G10224,Non-Conventional Oil Extraction,http://stds.statcan.gc.ca/naics-scian/2007/cs-rc-eng.asp?criteria=211114,53.27960000,-109.37190000
229,Saskatchewan Power Corporation,Poplar River Power Station,Saskatchewan,Coronach,24/25-001-27-W2,S0H0Z0,2079,4376.92,http://www.ec.gc.ca/ges-ghg/donnees-data/index.cfm?do=facility_info&amp;lang=En&amp;year=2011&amp;ghg_id=G10229,Fossil-Fuel Electric Power Generation,http://stds.statcan.gc.ca/naics-scian/2007/cs-rc-eng.asp?criteria=221112,49.04720000,-105.48830000
236,Saskatchewan Power Corporation,Queen Elizabeth Power Station,Saskatchewan,Saskatoon,NE-18-036-05-W2,S7K3S1,2085,539.10,http://www.ec.gc.ca/ges-ghg/donnees-data/index.cfm?do=facility_info&amp;lang=En&amp;year=2011&amp;ghg_id=G10236,Fossil-Fuel Electric Power Generation,http://stds.statcan.gc.ca/naics-scian/2007/cs-rc-eng.asp?criteria=221112,52.09440000,-106.70500000
248,Foothills Pipe Lines Ltd.,"Foothills Pipeline, Saskatchewan",Saskatchewan,Richmond,NW-16-018-28-W3,S0N2E0,,337.36,http://www.ec.gc.ca/ges-ghg/donnees-data/index.cfm?do=facility_info&amp;lang=En&amp;year=2011&amp;ghg_id=G10248,Pipeline Transportation of Natural Gas,http://stds.statcan.gc.ca/naics-scian/2007/cs-rc-eng.asp?criteria=486210,0.00000000,0.00000000
257,Alliance Pipeline Ltd.,Alliance Pipeline Ltd. - SK Pipeline System,Saskatchewan,Calgary,800 605 5th Avenue Southwest,T2P3H5,,387.95,http://www.ec.gc.ca/ges-ghg/donnees-data/index.cfm?do=facility_info&amp;lang=En&amp;year=2011&amp;ghg_id=G10257,Pipeline Transportation of Natural Gas,http://stds.statcan.gc.ca/naics-scian/2007/cs-rc-eng.asp?criteria=486210,0.00000000,0.00000000
258,SaskEnergy Incorporated,SaskEnergy Incorporated,Saskatchewan,Regina,1777 Victoria Avenue,S4P4K5,,199.15,http://www.ec.gc.ca/ges-ghg/donnees-data/index.cfm?do=facility_info&amp;lang=En&amp;year=2011&amp;ghg_id=G10258,Natural Gas Distribution,http://stds.statcan.gc.ca/naics-scian/2007/cs-rc-eng.asp?criteria=221210,0.00000000,0.00000000
259,Yara Belle Plaine Inc.,Yara Belle Plaine Inc.,Saskatchewan,Belle Plaine,215 1874 Scarth Street,S4P4B3,2077,647.48,http://www.ec.gc.ca/ges-ghg/donnees-data/index.cfm?do=facility_info&amp;lang=En&amp;year=2011&amp;ghg_id=G10259,Chemical Fertilizer (except Potash) Manufacturing,http://stds.statcan.gc.ca/naics-scian/2007/cs-rc-eng.asp?criteria=325313,50.43330000,-105.18330000
264,Saskatchewan Power Corporation,Shand Power Station,Saskatchewan,Estevan,03/04-002-07W2,S4A2K9,2083,2308.40,http://www.ec.gc.ca/ges-ghg/donnees-data/index.cfm?do=facility_info&amp;lang=En&amp;year=2011&amp;ghg_id=G10264,Fossil-Fuel Electric Power Generation,http://stds.statcan.gc.ca/naics-scian/2007/cs-rc-eng.asp?criteria=221112,49.08790000,-102.86400000
290,TransGas Limited,TransGas Limited,Saskatchewan,Regina,1777 Victoria Avenue,S4P4K5,,417.30,http://www.ec.gc.ca/ges-ghg/donnees-data/index.cfm?do=facility_info&amp;lang=En&amp;year=2011&amp;ghg_id=G10290,Pipeline Transportation of Natural Gas,http://stds.statcan.gc.ca/naics-scian/2007/cs-rc-eng.asp?criteria=486210,0.00000000,0.00000000
328,Prairie Mines & Royality Ltd,BEINFAIT MINE - CHAR PLANT,Saskatchewan,Estevan,P0 Box 3000,S4A2W2,6933,228.54,http://www.ec.gc.ca/ges-ghg/donnees-data/index.cfm?do=facility_info&amp;lang=En&amp;year=2011&amp;ghg_id=G10328,Lignite Coal Mining,http://stds.statcan.gc.ca/naics-scian/2007/cs-rc-eng.asp?criteria=212116,49.14180000,-103.00190000
329,Husky Oil Operations Limited,Bolney Thermal,Saskatchewan,Lloydminster,2944 44 Avenue,S9V0Z1,18935,324.65,http://www.ec.gc.ca/ges-ghg/donnees-data/index.cfm?do=facility_info&amp;lang=En&amp;year=2011&amp;ghg_id=G10329,Non-Conventional Oil Extraction,http://stds.statcan.gc.ca/naics-scian/2007/cs-rc-eng.asp?criteria=211114,53.52700000,-109.35680000
338,Canadian Natural Resources Limited,North Tangleflags In-Situ Oilsands Facility,Saskatchewan,N/A,12-24-052-25-W3,N/A,15778,128.74,http://www.ec.gc.ca/ges-ghg/donnees-data/index.cfm?do=facility_info&amp;lang=En&amp;year=2011&amp;ghg_id=G10338,Non-Conventional Oil Extraction,http://stds.statcan.gc.ca/naics-scian/2007/cs-rc-eng.asp?criteria=211114,53.50510000,-109.57160000
353,Cenovus Energy,Weyburn Oil Battery,Saskatchewan,Weyburn,05-16-006-13-W2,S4H2K3,6631,68.12,http://www.ec.gc.ca/ges-ghg/donnees-data/index.cfm?do=facility_info&amp;lang=En&amp;year=2011&amp;ghg_id=G10353,Conventional Oil and Gas Extraction,http://stds.statcan.gc.ca/naics-scian/2007/cs-rc-eng.asp?criteria=211113,49.47110000,-103.70610000
389,Husky Oil Operations Limited,Lloydminster Ethanol Plant,Saskatchewan,Lloydminster,Lat: 53.2630 Long: -109.9490,S9V1M6,21547,119.44,http://www.ec.gc.ca/ges-ghg/donnees-data/index.cfm?do=facility_info&amp;lang=En&amp;year=2011&amp;ghg_id=G10389,Other Basic Organic Chemical Manufacturing,http://stds.statcan.gc.ca/naics-scian/2007/cs-rc-eng.asp?criteria=325190,53.26300000,-109.94900000
397,General Scrap Partnership,Wheat City Metals,Saskatchewan,Regina,2881 Pasqua Street North,S4P3B1,3772,1.81,http://www.ec.gc.ca/ges-ghg/donnees-data/index.cfm?do=facility_info&amp;lang=En&amp;year=2011&amp;ghg_id=G10397,All Other Miscellaneous Manufacturing,http://stds.statcan.gc.ca/naics-scian/2007/cs-rc-eng.asp?criteria=339990,50.52230000,-104.64030000
419,Agrium Inc.,Vanscoy Potash Operations,Saskatchewan,Vanscoy,0 16 Agrium Road,S0L3J0,1177,92.42,http://www.ec.gc.ca/ges-ghg/donnees-data/index.cfm?do=facility_info&amp;lang=En&amp;year=2011&amp;ghg_id=G10419,Potash Mining,http://stds.statcan.gc.ca/naics-scian/2007/cs-rc-eng.asp?criteria=212396,52.00570000,-107.09360000
442,City of Saskatoon,Landfill,Saskatchewan,Saskatoon,2001 Spadina Crescent West,S7K6G7,,99.40,http://www.ec.gc.ca/ges-ghg/donnees-data/index.cfm?do=facility_info&amp;lang=En&amp;year=2011&amp;ghg_id=G10442,Waste Treatment and Disposal,http://stds.statcan.gc.ca/naics-scian/2007/cs-rc-eng.asp?criteria=562210,0.00000000,0.00000000
495,Meadow Lake Mechanical Pulp,Meadow Lake Mechanical Pulp,Saskatchewan,Meadow Lake,0 Junction of Hwy 55 & 903,S9X1V7,875,67.73,http://www.ec.gc.ca/ges-ghg/donnees-data/index.cfm?do=facility_info&amp;lang=En&amp;year=2011&amp;ghg_id=G10495,Mechanical Pulp Mills,http://stds.statcan.gc.ca/naics-scian/2007/cs-rc-eng.asp?criteria=322111,54.13330000,-108.43330000
533,POTASH CORP,Potash Corp - Allan Division,Saskatchewan,Allan,13-22-034-01-W2,S0K0C0,2406,70.37,http://www.ec.gc.ca/ges-ghg/donnees-data/index.cfm?do=facility_info&amp;lang=En&amp;year=2011&amp;ghg_id=G10533,Potash Mining,http://stds.statcan.gc.ca/naics-scian/2007/cs-rc-eng.asp?criteria=212396,51.93860000,-106.08400000
534,Prairie Mines & Royality Ltd,Boundary Dam Mine,Saskatchewan,Estevan,0 Box 3000,S4a2W2,21774,51.15,http://www.ec.gc.ca/ges-ghg/donnees-data/index.cfm?do=facility_info&amp;lang=En&amp;year=2011&amp;ghg_id=G10534,Lignite Coal Mining,http://stds.statcan.gc.ca/naics-scian/2007/cs-rc-eng.asp?criteria=212116,49.09350000,-102.88640000
549,Southern Pacific Resource Partnership,Senlac Thermal Oil Battery,Saskatchewan,Unity,13-07-040-25W3,S0K4L0,6629,74.23,http://www.ec.gc.ca/ges-ghg/donnees-data/index.cfm?do=facility_info&amp;lang=En&amp;year=2011&amp;ghg_id=G10549,Non-Conventional Oil Extraction,http://stds.statcan.gc.ca/naics-scian/2007/cs-rc-eng.asp?criteria=211114,52.43300000,-109.59760000
562,Terra Grain Fuels Inc,Terra Grain Fuels Inc,Saskatchewan,Belle Plaine,"SE , Section 22, Township 17, Range 24, W2MRM of Pense No. 160",S4P3N8,23235,82.21,http://www.ec.gc.ca/ges-ghg/donnees-data/index.cfm?do=facility_info&amp;lang=En&amp;year=2011&amp;ghg_id=G10562,All Other Miscellaneous Manufacturing,http://stds.statcan.gc.ca/naics-scian/2007/cs-rc-eng.asp?criteria=339990,50.43190000,-105.22140000
620,MOSAIC POTASH ESTERHAZY LIMITED PARTNERSHIP,MOSAIC POTASH ESTERHAZY - K2 SITE,Saskatchewan,Esterhazy,22 Highway,S0A0X0,1513,84.51,http://www.ec.gc.ca/ges-ghg/donnees-data/index.cfm?do=facility_info&amp;lang=En&amp;year=2011&amp;ghg_id=G10620,Potash Mining,http://stds.statcan.gc.ca/naics-scian/2007/cs-rc-eng.asp?criteria=212396,50.65740000,-101.84220000
626,POTASH CORP,PotashCorp - Rocanville,Saskatchewan,Rocanville,12-22-017-30-W1,S0A3L0,4562,73.22,http://www.ec.gc.ca/ges-ghg/donnees-data/index.cfm?do=facility_info&amp;lang=En&amp;year=2011&amp;ghg_id=G10626,Potash Mining,http://stds.statcan.gc.ca/naics-scian/2007/cs-rc-eng.asp?criteria=212396,50.46130000,-101.53560000
635,Saskatchewan Power Corporation,Ermine Generation Station,Saskatchewan,Rural Municipality of Oakd,SE-27-33-22-W3,S0L 1R0,24241,63.12,http://www.ec.gc.ca/ges-ghg/donnees-data/index.cfm?do=facility_info&amp;lang=En&amp;year=2011&amp;ghg_id=G10635,Fossil-Fuel Electric Power Generation,http://stds.statcan.gc.ca/naics-scian/2007/cs-rc-eng.asp?criteria=221112,51.87300000,-109.03990000
658,POTASH CORP,POTASH CORP - LANIGAN DIVISION,Saskatchewan,Lanigan,SE-28-33-23-W2,S0K2M0,1885,117.34,http://www.ec.gc.ca/ges-ghg/donnees-data/index.cfm?do=facility_info&amp;lang=En&amp;year=2011&amp;ghg_id=G10658,Potash Mining,http://stds.statcan.gc.ca/naics-scian/2007/cs-rc-eng.asp?criteria=212396,51.84640000,-105.19200000
690,Northland Power Inc.,Spy Hill Generating Station,Saskatchewan,Rural Municipality of Spy ,,S0A 3W0,,26.24,http://www.ec.gc.ca/ges-ghg/donnees-data/index.cfm?do=facility_info&amp;lang=En&amp;year=2011&amp;ghg_id=G10690,Fossil-Fuel Electric Power Generation,http://stds.statcan.gc.ca/naics-scian/2007/cs-rc-eng.asp?criteria=221112,0.00000000,0.00000000
